AKPAR,ValidationType,AddressLine1,AddressLine2,StreetNumberFrom,StreetNumberTo,City,State,ZipCode
185570,E,245 MARKET ST,,,,CRAMERTON,NC,28032
185575,E,3 GROVES ST,,,,CRAMERTON,NC,28032
185576,E,243 MARKET ST,,,,CRAMERTON,NC,28032
185729,E,5933 WILKINSON BLVD,,,,BELMONT,NC,28012
185730,E,5939 WILKINSON BLVD,,,,BELMONT,NC,28012
185732,E,5945 WILKINSON BLVD,,,,BELMONT,NC,28012
185894,E,5932 WILKINSON BLVD,,,,BELMONT,NC,28012
185895,E,5938 WILKINSON BLVD,,,,BELMONT,NC,28012
185896,E,111 HUBBARD ST,,,,BELMONT,NC,28012
185926,E,6016 WILKINSON BLVD,,,,BELMONT,NC,28012
186015,E,408 ORCHARD LN,,,,BELMONT,NC,28012
186018,E,414 ORCHARD LN,,,,BELMONT,NC,28012
186020,E,412 ORCHARD LN,,,,BELMONT,NC,28012
186033,E,6112 WILKINSON BLVD,,,,BELMONT,NC,28012
186034,E,6116 WILKINSON BLVD,,,,BELMONT,NC,28012
186669,E,790 EAGLE RD,,,,BELMONT,NC,28012
186670,E,788 EAGLE RD,,,,BELMONT,NC,28012
186671,E,786 EAGLE RD,,,,BELMONT,NC,28012
186672,E,792 EAGLE RD,,,,BELMONT,NC,28012
186673,E,794 EAGLE RD,,,,BELMONT,NC,28012
188539,E,7018 DOLPHIN ST,,,,GASTONIA,NC,28056
188542,E,7030 DOLPHIN ST,,,,GASTONIA,NC,28056
188544,E,310 HAMRICK RD,,,,CRAMERTON,NC,28032
188545,E,302 HAMRICK RD,,,,CRAMERTON,NC,28032
188555,E,306 HAMRICK RD,,,,CRAMERTON,NC,28032
188695,E,4253 S NEW HOPE RD,,,,GASTONIA,NC,28056
188696,E,4255 S NEW HOPE RD,,,,GASTONIA,NC,28056
189077,E,712 HANNA WOODS DR,,,,CRAMERTON,NC,28032
189078,E,710 HANNA WOODS DR,,,,CRAMERTON,NC,28032
189080,E,905 HOKE TRL,,,,CRAMERTON,NC,28032
189081,E,907 HOKE TRL,,,,CRAMERTON,NC,28032
189082,E,909 HOKE TRL,,,,CRAMERTON,NC,28032
189085,E,914 HOKE TRL,,,,CRAMERTON,NC,28032
189086,E,912 HOKE TRL,,,,CRAMERTON,NC,28032
189087,E,910 HOKE TRL,,,,CRAMERTON,NC,28032
189088,E,908 HOKE TRL,,,,CRAMERTON,NC,28032
189089,E,906 HOKE TRL,,,,CRAMERTON,NC,28032
189090,E,904 HOKE TRL,,,,CRAMERTON,NC,28032
189091,E,902 HOKE TRL,,,,CRAMERTON,NC,28032
189092,E,900 HOKE TRL,,,,CRAMERTON,NC,28032
189093,E,706 HANNA WOODS DR,,,,CRAMERTON,NC,28032
189094,E,803 SCOTTY CT,,,,CRAMERTON,NC,28032
189095,E,805 SCOTTY CT,,,,CRAMERTON,NC,28032
189096,E,807 SCOTTY CT,,,,CRAMERTON,NC,28032
189097,E,809 SCOTTY CT,,,,CRAMERTON,NC,28032
189098,E,811 SCOTTY CT,,,,CRAMERTON,NC,28032
189099,E,813 SCOTTY CT,,,,CRAMERTON,NC,28032
189100,E,815 SCOTTY CT,,,,CRAMERTON,NC,28032
189101,E,817 SCOTTY CT,,,,CRAMERTON,NC,28032
189102,E,812 SCOTTY CT,,,,CRAMERTON,NC,28032
189103,E,810 SCOTTY CT,,,,CRAMERTON,NC,28032
189104,E,808 SCOTTY CT,,,,CRAMERTON,NC,28032
189105,E,806 SCOTTY CT,,,,CRAMERTON,NC,28032
189106,E,804 SCOTTY CT,,,,CRAMERTON,NC,28032
189107,E,802 SCOTTY CT,,,,CRAMERTON,NC,28032
189108,E,704 HANNA WOODS DR,,,,CRAMERTON,NC,28032
189109,E,702 HANNA WOODS DR,,,,CRAMERTON,NC,28032
189110,E,700 HANNA WOODS DR,,,,CRAMERTON,NC,28032
189111,E,701 HANNA WOODS DR,,,,CRAMERTON,NC,28032
189112,E,703 HANNA WOODS DR,,,,CRAMERTON,NC,28032
189113,E,705 HANNA WOODS DR,,,,CRAMERTON,NC,28032
189114,E,707 HANNA WOODS DR,,,,CRAMERTON,NC,28032
189115,E,709 HANNA WOODS DR,,,,CRAMERTON,NC,28032
189116,E,711 HANNA WOODS DR,,,,CRAMERTON,NC,28032
189117,E,713 HANNA WOODS DR,,,,CRAMERTON,NC,28032
189118,E,715 HANNA WOODS DR,,,,CRAMERTON,NC,28032
189119,E,717 HANNA WOODS DR,,,,CRAMERTON,NC,28032
189120,E,719 HANNA WOODS DR,,,,CRAMERTON,NC,28032
189121,E,721 HANNA WOODS DR,,,,CRAMERTON,NC,28032
189122,E,723 HANNA WOODS DR,,,,CRAMERTON,NC,28032
189123,E,725 HANNA WOODS DR,,,,CRAMERTON,NC,28032
189124,E,727 HANNA WOODS DR,,,,CRAMERTON,NC,28032
189125,E,729 HANNA WOODS DR,,,,CRAMERTON,NC,28032
189129,E,1008 MIDDLETON CT,,,,CRAMERTON,NC,28032
189130,E,1006 MIDDLETON CT,,,,CRAMERTON,NC,28032
189131,E,1004 MIDDLETON CT,,,,CRAMERTON,NC,28032
189132,E,737 HANNA WOODS DR,,,,CRAMERTON,NC,28032
189133,E,4010 FOXES TRL,,,,CRAMERTON,NC,28032
189134,E,4008 FOXES TRL,,,,CRAMERTON,NC,28032
189135,E,4006 FOXES TRL,,,,CRAMERTON,NC,28032
189136,E,4004 FOXES TRL,,,,CRAMERTON,NC,28032
189137,E,4002 FOXES TRL,,,,CRAMERTON,NC,28032
189138,E,4000 FOXES TRL,,,,CRAMERTON,NC,28032
189139,E,4003 FOXES TRL,,,,CRAMERTON,NC,28032
189140,E,5012 HARSTONE CT,,,,CRAMERTON,NC,28032
189141,E,5010 HARSTONE CT,,,,CRAMERTON,NC,28032
189142,E,5008 HARSTONE CT,,,,CRAMERTON,NC,28032
189143,E,5006 HARSTONE CT,,,,CRAMERTON,NC,28032
189144,E,5004 HARSTONE CT,,,,CRAMERTON,NC,28032
189145,E,4007 FOXES TRL,,,,CRAMERTON,NC,28032
189146,E,4009 FOXES TRL,,,,CRAMERTON,NC,28032
189147,E,4011 FOXES TRL,,,,CRAMERTON,NC,28032
189148,E,4013 FOXES TRL,,,,CRAMERTON,NC,28032
189149,E,4015 FOXES TRL,,,,CRAMERTON,NC,28032
189150,E,4017 FOXES TRL,,,,CRAMERTON,NC,28032
189151,E,4019 FOXES TRL,,,,CRAMERTON,NC,28032
189152,E,4021 FOXES TRL,,,,CRAMERTON,NC,28032
189153,E,4023 FOXES TRL,,,,CRAMERTON,NC,28032
189154,E,4025 FOXES TRL,,,,CRAMERTON,NC,28032
189155,E,4027 FOXES TRL,,,,CRAMERTON,NC,28032
189156,E,4029 FOXES TRL,,,,CRAMERTON,NC,28032
189157,E,4030 FOXES TRL,,,,CRAMERTON,NC,28032
189158,E,4028 FOXES TRL,,,,CRAMERTON,NC,28032
189159,E,4026 FOXES TRL,,,,CRAMERTON,NC,28032
189160,E,4024 FOXES TRL,,,,CRAMERTON,NC,28032
189161,E,4022 FOXES TRL,,,,CRAMERTON,NC,28032
189162,E,4020 FOXES TRL,,,,CRAMERTON,NC,28032
189165,E,734 HANNA WOODS DR,,,,CRAMERTON,NC,28032
189166,E,732 HANNA WOODS DR,,,,CRAMERTON,NC,28032
189167,E,730 HANNA WOODS DR,,,,CRAMERTON,NC,28032
189168,E,728 HANNA WOODS DR,,,,CRAMERTON,NC,28032
189169,E,726 HANNA WOODS DR,,,,CRAMERTON,NC,28032
189170,E,724 HANNA WOODS DR,,,,CRAMERTON,NC,28032
189171,E,722 HANNA WOODS DR,,,,CRAMERTON,NC,28032
189413,E,1501 ARMSTRONG FORD RD,,,,BELMONT,NC,28012
189481,E,908 STEEP HILL RD,,,,BELMONT,NC,28012
189494,E,928 STEEP HILL RD,,,,BELMONT,NC,28012
194639,E,359 PEACH ORCHARD RD,,,,BELMONT,NC,28012
194641,E,200 MARKET ST,,,,CRAMERTON,NC,28032
194643,E,202 MARKET ST,,,,CRAMERTON,NC,28032
194644,E,210 MARKET ST,,,,CRAMERTON,NC,28032
194646,E,1092 A CRAMERTON VILLAGE DR,,,,CRAMERTON,NC,28032
194647,E,1092 B CRAMERTON VILLAGE DR,,,,CRAMERTON,NC,28032
194648,E,1092 C CRAMERTON VILLAGE DR,,,,CRAMERTON,NC,28032
194649,E,1091 A CRAMERTON VILLAGE DR,,,,CRAMERTON,NC,28032
194650,E,1091 B CRAMERTON VILLAGE DR,,,,CRAMERTON,NC,28032
194651,E,1091 C CRAMERTON VILLAGE DR,,,,CRAMERTON,NC,28032
194652,E,1091 D CRAMERTON VILLAGE DR,,,,CRAMERTON,NC,28032
194653,E,1091 E CRAMERTON VILLAGE DR,,,,CRAMERTON,NC,28032
194654,E,1091 F CRAMERTON VILLAGE DR,,,,CRAMERTON,NC,28032
194655,E,4001 F WATERSIDE LN,,,,CRAMERTON,NC,28032
194656,E,4001 E WATERSIDE LN,,,,CRAMERTON,NC,28032
194657,E,4001 D WATERSIDE LN,,,,CRAMERTON,NC,28032
194658,E,4001 C WATERSIDE LN,,,,CRAMERTON,NC,28032
194659,E,4001 B WATERSIDE LN,,,,CRAMERTON,NC,28032
194660,E,4001 A WATERSIDE LN,,,,CRAMERTON,NC,28032
194661,E,4000 A WATERSIDE LN,,,,CRAMERTON,NC,28032
194662,E,4000 B WATERSIDE LN,,,,CRAMERTON,NC,28032
194663,E,4000 C WATERSIDE LN,,,,CRAMERTON,NC,28032
194664,E,4000 D WATERSIDE LN,,,,CRAMERTON,NC,28032
194665,E,4000 E WATERSIDE LN,,,,CRAMERTON,NC,28032
194666,E,4000 F WATERSIDE LN,,,,CRAMERTON,NC,28032
194667,E,3005 D MISTY HARBOR CIR,,,,CRAMERTON,NC,28032
194668,E,3005 C MISTY HARBOR CIR,,,,CRAMERTON,NC,28032
194669,E,3005 B MISTY HARBOR CIR,,,,CRAMERTON,NC,28032
194670,E,3005 A MISTY HARBOR CIR,,,,CRAMERTON,NC,28032
194671,E,3009 D MISTY HARBOR CIR,,,,CRAMERTON,NC,28032
194672,E,3009 C MISTY HARBOR CIR,,,,CRAMERTON,NC,28032
194673,E,3009 B MISTY HARBOR CIR,,,,CRAMERTON,NC,28032
194674,E,3009 A MISTY HARBOR CIR,,,,CRAMERTON,NC,28032
194675,E,3013 F MISTY HARBOR CIR,,,,CRAMERTON,NC,28032
194676,E,3013 E MISTY HARBOR CIR,,,,CRAMERTON,NC,28032
194677,E,3013 D MISTY HARBOR CIR,,,,CRAMERTON,NC,28032
194678,E,3013 C MISTY HARBOR CIR,,,,CRAMERTON,NC,28032
194679,E,3013 B MISTY HARBOR CIR,,,,CRAMERTON,NC,28032
194680,E,3013 A MISTY HARBOR CIR,,,,CRAMERTON,NC,28032
194681,E,3017 F MISTY HARBOR CIR,,,,CRAMERTON,NC,28032
194682,E,3017 E MISTY HARBOR CIR,,,,CRAMERTON,NC,28032
194683,E,3017 D MISTY HARBOR CIR,,,,CRAMERTON,NC,28032
194684,E,3017 C MISTY HARBOR CIR,,,,CRAMERTON,NC,28032
194685,E,3017 B MISTY HARBOR CIR,,,,CRAMERTON,NC,28032
194686,E,3017 A MISTY HARBOR CIR,,,,CRAMERTON,NC,28032
194687,E,3021 A MISTY HARBOR CIR,,,,CRAMERTON,NC,28032
194688,E,3021 B MISTY HARBOR CIR,,,,CRAMERTON,NC,28032
194689,E,3021 C MISTY HARBOR CIR,,,,CRAMERTON,NC,28032
194690,E,3021 D MISTY HARBOR CIR,,,,CRAMERTON,NC,28032
194691,E,3021 E MISTY HARBOR CIR,,,,CRAMERTON,NC,28032
194692,E,3021 F MISTY HARBOR CIR,,,,CRAMERTON,NC,28032
194693,E,3012 A MISTY HARBOR CIR,,,,CRAMERTON,NC,28032
194694,E,3012 B MISTY HARBOR CIR,,,,CRAMERTON,NC,28032
194695,E,3012 C MISTY HARBOR CIR,,,,CRAMERTON,NC,28032
194696,E,3012 D MISTY HARBOR CIR,,,,CRAMERTON,NC,28032
194697,E,3012 E MISTY HARBOR CIR,,,,CRAMERTON,NC,28032
194698,E,3012 F MISTY HARBOR CIR,,,,CRAMERTON,NC,28032
194699,E,3004 A MISTY HARBOR CIR,,,,CRAMERTON,NC,28032
194700,E,3004 B MISTY HARBOR CIR,,,,CRAMERTON,NC,28032
194701,E,3004 C MISTY HARBOR CIR,,,,CRAMERTON,NC,28032
194702,E,3000 F MISTY HARBOR CIR,,,,CRAMERTON,NC,28032
194703,E,3000 E MISTY HARBOR CIR,,,,CRAMERTON,NC,28032
194704,E,3000 D MISTY HARBOR CIR,,,,CRAMERTON,NC,28032
194705,E,3000 C MISTY HARBOR CIR,,,,CRAMERTON,NC,28032
194706,E,3000 B MISTY HARBOR CIR,,,,CRAMERTON,NC,28032
194707,E,3000 A MISTY HARBOR CIR,,,,CRAMERTON,NC,28032
194708,E,2001 F CRAMERTON VILLAGE DR,,,,CRAMERTON,NC,28032
194709,E,2001 E CRAMERTON VILLAGE DR,,,,CRAMERTON,NC,28032
194710,E,2001 D CRAMERTON VILLAGE DR,,,,CRAMERTON,NC,28032
194711,E,2001 C CRAMERTON VILLAGE DR,,,,CRAMERTON,NC,28032
194712,E,2001 B CRAMERTON VILLAGE DR,,,,CRAMERTON,NC,28032
194713,E,2001 A CRAMERTON VILLAGE DR,,,,CRAMERTON,NC,28032
194714,E,2005 F CRAMERTON VILLAGE DR,,,,CRAMERTON,NC,28032
194715,E,2005 E CRAMERTON VILLAGE DR,,,,CRAMERTON,NC,28032
194716,E,2005 D CRAMERTON VILLAGE DR,,,,CRAMERTON,NC,28032
194717,E,2005 C CRAMERTON VILLAGE DR,,,,CRAMERTON,NC,28032
194718,E,2005 B CRAMERTON VILLAGE DR,,,,CRAMERTON,NC,28032
194719,E,2005 A CRAMERTON VILLAGE DR,,,,CRAMERTON,NC,28032
194720,E,2006 A CRAMERTON VILLAGE DR,,,,CRAMERTON,NC,28032
194721,E,2006 B CRAMERTON VILLAGE DR,,,,CRAMERTON,NC,28032
194722,E,2006 C CRAMERTON VILLAGE DR,,,,CRAMERTON,NC,28032
194723,E,2006 D CRAMERTON VILLAGE DR,,,,CRAMERTON,NC,28032
194724,E,2006 E CRAMERTON VILLAGE DR,,,,CRAMERTON,NC,28032
194725,E,2006 F CRAMERTON VILLAGE DR,,,,CRAMERTON,NC,28032
194726,E,2002 A CRAMERTON VILLAGE DR,,,,CRAMERTON,NC,28032
194727,E,2002 B CRAMERTON VILLAGE DR,,,,CRAMERTON,NC,28032
194728,E,2002 C CRAMERTON VILLAGE DR,,,,CRAMERTON,NC,28032
194729,E,2002 D CRAMERTON VILLAGE DR,,,,CRAMERTON,NC,28032
194730,E,2002 E CRAMERTON VILLAGE DR,,,,CRAMERTON,NC,28032
194731,E,2002 F CRAMERTON VILLAGE DR,,,,CRAMERTON,NC,28032
194733,E,241 MARKET ST,,,,CRAMERTON,NC,28032
194734,E,239 MARKET ST,,,,CRAMERTON,NC,28032
194737,E,229 MARKET ST,,,,CRAMERTON,NC,28032
194739,E,231 MARKET ST,,,,CRAMERTON,NC,28032
194751,E,111 MARKET ST,,,,CRAMERTON,NC,28032
194752,E,109 MARKET ST,,,,CRAMERTON,NC,28032
194756,E,22 GROVES ST,,,,CRAMERTON,NC,28032
194758,E,16 GROVES ST,,,,CRAMERTON,NC,28032
194761,E,10 GROVES ST,,,,CRAMERTON,NC,28032
194762,E,235 A MARKET ST,,,,CRAMERTON,NC,28032
194765,E,325 PEACH ORCHARD RD,,,,BELMONT,NC,28012
194766,E,5921 WILKINSON BLVD,,,,BELMONT,NC,28012
194767,E,5907 WILKINSON BLVD,,,,BELMONT,NC,28012
194768,E,5803 WILKINSON BLVD,,,,BELMONT,NC,28012
194770,E,1051 CRAMERTON VILLAGE DR,,,,CRAMERTON,NC,28032
194771,E,3008 MISTY HARBOR CIR,,,,CRAMERTON,NC,28032
194772,E,340 MAYFLOWER AVE,,,,CRAMERTON,NC,28032
194773,E,339 MAYFLOWER AVE,,,,CRAMERTON,NC,28032
194774,E,338 MAYFLOWER AVE,,,,CRAMERTON,NC,28032
194775,E,337 MAYFLOWER AVE,,,,CRAMERTON,NC,28032
194776,E,336 MAYFLOWER AVE,,,,CRAMERTON,NC,28032
194777,E,335 MAYFLOWER AVE,,,,CRAMERTON,NC,28032
194778,E,334 MAYFLOWER AVE,,,,CRAMERTON,NC,28032
194779,E,333 MAYFLOWER AVE,,,,CRAMERTON,NC,28032
194780,E,432 SIXTEENTH ST,,,,CRAMERTON,NC,28032
194781,E,434 SIXTEENTH ST,,,,CRAMERTON,NC,28032
194782,E,436 SIXTEENTH ST,,,,CRAMERTON,NC,28032
194783,E,438 SEVENTEENTH ST,,,,CRAMERTON,NC,28032
194784,E,440 SEVENTEENTH ST,,,,CRAMERTON,NC,28032
194785,E,442 SEVENTEENTH ST,,,,CRAMERTON,NC,28032
194786,E,444 SEVENTEENTH ST,,,,CRAMERTON,NC,28032
194787,E,446 SEVENTEENTH ST,,,,CRAMERTON,NC,28032
194788,E,448 SEVENTEENTH ST,,,,CRAMERTON,NC,28032
194789,E,447 SEVENTEENTH ST,,,,CRAMERTON,NC,28032
194790,E,341 MAYFLOWER AVE,,,,CRAMERTON,NC,28032
194791,E,342 MAYFLOWER AVE,,,,CRAMERTON,NC,28032
194792,E,343 MAYFLOWER AVE,,,,CRAMERTON,NC,28032
194793,E,344 MAYFLOWER AVE,,,,CRAMERTON,NC,28032
194794,E,445 SEVENTEENTH ST,,,,CRAMERTON,NC,28032
194795,E,443 SEVENTEENTH ST,,,,CRAMERTON,NC,28032
194796,E,441 SEVENTEENTH ST,,,,CRAMERTON,NC,28032
194797,E,439 SEVENTEENTH ST,,,,CRAMERTON,NC,28032
194798,E,601 WOODLAWN AVE,,,,CRAMERTON,NC,28032
194799,E,410 WOODLAWN AVE,,,,CRAMERTON,NC,28032
194800,E,412 WOODLAWN AVE,,,,CRAMERTON,NC,28032
194801,E,414 WOODLAWN AVE,,,,CRAMERTON,NC,28032
194802,E,416 WOODLAWN AVE,,,,CRAMERTON,NC,28032
194803,E,418 WOODLAWN AVE,,,,CRAMERTON,NC,28032
194804,E,420 WOODLAWN AVE,,,,CRAMERTON,NC,28032
194805,E,345 MAYFLOWER AVE,,,,CRAMERTON,NC,28032
194806,E,422 WOODLAWN AVE,,,,CRAMERTON,NC,28032
194807,E,424 WOODLAWN AVE,,,,CRAMERTON,NC,28032
194808,E,346 MAYFLOWER AVE,,,,CRAMERTON,NC,28032
194809,E,347 MAYFLOWER AVE,,,,CRAMERTON,NC,28032
194810,E,348 A MAYFLOWER AVE,,,,CRAMERTON,NC,28032
194811,E,349 MAYFLOWER AVE,,,,CRAMERTON,NC,28032
194812,E,425 WOODLAWN AVE,,,,CRAMERTON,NC,28032
194813,E,350 MAYFLOWER AVE,,,,CRAMERTON,NC,28032
194814,E,351 MAYFLOWER AVE,,,,CRAMERTON,NC,28032
194815,E,423 WOODLAWN AVE,,,,CRAMERTON,NC,28032
194816,E,421 WOODLAWN AVE,,,,CRAMERTON,NC,28032
194817,E,419 WOODLAWN AVE,,,,CRAMERTON,NC,28032
194818,E,417 WOODLAWN AVE,,,,CRAMERTON,NC,28032
194819,E,415 WOODLAWN AVE,,,,CRAMERTON,NC,28032
194820,E,413 WOODLAWN AVE,,,,CRAMERTON,NC,28032
194821,E,411 WOODLAWN AVE,,,,CRAMERTON,NC,28032
194822,E,600 WOODLAWN AVE,,,,CRAMERTON,NC,28032
194823,E,450 EIGHTEENTH ST,,,,CRAMERTON,NC,28032
194824,E,452 EIGHTEENTH ST,,,,CRAMERTON,NC,28032
194825,E,454 EIGHTEENTH ST,,,,CRAMERTON,NC,28032
194826,E,456 EIGHTEENTH ST,,,,CRAMERTON,NC,28032
194827,E,458 EIGHTEENTH ST,,,,CRAMERTON,NC,28032
194828,E,460 EIGHTEENTH ST,,,,CRAMERTON,NC,28032
194829,E,462 EIGHTEENTH ST,,,,CRAMERTON,NC,28032
194830,E,352 1/2 MAYFLOWER AVE,,,,CRAMERTON,NC,28032
194831,E,352 MAYFLOWER AVE,,,,CRAMERTON,NC,28032
194832,E,353 MAYFLOWER AVE,,,,CRAMERTON,NC,28032
194833,E,354 MAYFLOWER AVE,,,,CRAMERTON,NC,28032
194834,E,355 MAYFLOWER AVE,,,,CRAMERTON,NC,28032
194835,E,356 MAYFLOWER AVE,,,,CRAMERTON,NC,28032
194837,E,464 EIGHTEENTH ST,,,,CRAMERTON,NC,28032
194839,E,466 EIGHTEENTH ST,,,,CRAMERTON,NC,28032
194840,E,463 EIGHTEENTH ST,,,,CRAMERTON,NC,28032
194841,E,461 EIGHTEENTH ST,,,,CRAMERTON,NC,28032
194842,E,459 EIGHTEENTH ST,,,,CRAMERTON,NC,28032
194843,E,457 EIGHTEENTH ST,,,,CRAMERTON,NC,28032
194844,E,455 EIGHTEENTH ST,,,,CRAMERTON,NC,28032
194845,E,453 EIGHTEENTH ST,,,,CRAMERTON,NC,28032
194846,E,451 EIGHTEENTH ST,,,,CRAMERTON,NC,28032
194847,E,449 EIGHTEENTH ST,,,,CRAMERTON,NC,28032
194848,E,409 WOODLAWN AVE,,,,CRAMERTON,NC,28032
194849,E,407 WOODLAWN AVE,,,,CRAMERTON,NC,28032
194850,E,405 A FIFTEENTH ST,,,,CRAMERTON,NC,28032
194851,E,405 WOODLAWN AVE,,,,CRAMERTON,NC,28032
194852,E,404 WOODLAWN AVE,,,,CRAMERTON,NC,28032
194853,E,430 FIFTEENTH ST,,,,CRAMERTON,NC,28032
194854,E,406 WOODLAWN AVE,,,,CRAMERTON,NC,28032
194855,E,408 WOODLAWN AVE,,,,CRAMERTON,NC,28032
194856,E,602 WOODLAWN AVE,,,,CRAMERTON,NC,28032
194857,E,437 SIXTEENTH ST,,,,CRAMERTON,NC,28032
194858,E,435 SIXTEENTH ST,,,,CRAMERTON,NC,28032
194859,E,433 SIXTEENTH ST,,,,CRAMERTON,NC,28032
194860,E,332 MAYFLOWER AVE,,,,CRAMERTON,NC,28032
194861,E,331 MAYFLOWER AVE,,,,CRAMERTON,NC,28032
194862,E,330 MAYFLOWER AVE,,,,CRAMERTON,NC,28032
194863,E,329 MAYFLOWER AVE,,,,CRAMERTON,NC,28032
194864,E,428 FIFTEENTH ST,,,,CRAMERTON,NC,28032
194865,E,429 FIFTEENTH ST,,,,CRAMERTON,NC,28032
194866,E,328 MAYFLOWER AVE,,,,CRAMERTON,NC,28032
194867,E,327 MAYFLOWER AVE,,,,CRAMERTON,NC,28032
194868,E,326 MAYFLOWER AVE,,,,CRAMERTON,NC,28032
194869,E,325 MAYFLOWER AVE,,,,CRAMERTON,NC,28032
194870,E,324 MAYFLOWER AVE,,,,CRAMERTON,NC,28032
194871,E,323 MAYFLOWER AVE,,,,CRAMERTON,NC,28032
194872,E,322 MAYFLOWER AVE,,,,CRAMERTON,NC,28032
194873,E,321 MAYFLOWER AVE,,,,CRAMERTON,NC,28032
194874,E,320 MAYFLOWER AVE,,,,CRAMERTON,NC,28032
194875,E,319 MAYFLOWER AVE,,,,CRAMERTON,NC,28032
194876,E,318 MAYFLOWER AVE,,,,CRAMERTON,NC,28032
194877,E,317 MAYFLOWER AVE,,,,CRAMERTON,NC,28032
194878,E,316 MAYFLOWER AVE,,,,CRAMERTON,NC,28032
194879,E,315 MAYFLOWER AVE,,,,CRAMERTON,NC,28032
194880,E,314 MAYFLOWER AVE,,,,CRAMERTON,NC,28032
194881,E,313 MAYFLOWER AVE,,,,CRAMERTON,NC,28032
194882,E,312 MAYFLOWER AVE,,,,CRAMERTON,NC,28032
194883,E,311 MAYFLOWER AVE,,,,CRAMERTON,NC,28032
194884,E,310 MAYFLOWER AVE,,,,CRAMERTON,NC,28032
194885,E,309 MAYFLOWER AVE,,,,CRAMERTON,NC,28032
194886,E,308 MAYFLOWER AVE,,,,CRAMERTON,NC,28032
194887,E,307 MAYFLOWER AVE,,,,CRAMERTON,NC,28032
194888,E,306 MAYFLOWER AVE,,,,CRAMERTON,NC,28032
194889,E,294 THIRTEENTH ST,,,,CRAMERTON,NC,28032
194890,E,296 THIRTEENTH ST,,,,CRAMERTON,NC,28032
194891,E,298 THIRTEENTH ST,,,,CRAMERTON,NC,28032
194892,E,356 WOODLAWN AVE,,,,CRAMERTON,NC,28032
194893,E,358 WOODLAWN AVE,,,,CRAMERTON,NC,28032
194894,E,360 WOODLAWN AVE,,,,CRAMERTON,NC,28032
194895,E,362 WOODLAWN AVE,,,,CRAMERTON,NC,28032
194896,E,364 WOODLAWN AVE,,,,CRAMERTON,NC,28032
194897,E,366 WOODLAWN AVE,,,,CRAMERTON,NC,28032
194898,E,368 WOODLAWN AVE,,,,CRAMERTON,NC,28032
194899,E,370 WOODLAWN AVE,,,,CRAMERTON,NC,28032
194900,E,372 FOURTEENTH ST,,,,CRAMERTON,NC,28032
194901,E,427 FOURTEENTH ST,,,,CRAMERTON,NC,28032
194902,E,426 FOURTEENTH ST,,,,CRAMERTON,NC,28032
194903,E,374 FOURTEENTH ST,,,,CRAMERTON,NC,28032
194904,E,376 WOODLAWN AVE,,,,CRAMERTON,NC,28032
194905,E,378 WOODLAWN AVE,,,,CRAMERTON,NC,28032
194906,E,380 WOODLAWN AVE,,,,CRAMERTON,NC,28032
194907,E,382 WOODLAWN AVE,,,,CRAMERTON,NC,28032
194908,E,384 WOODLAWN AVE,,,,CRAMERTON,NC,28032
194909,E,386 WOODLAWN AVE,,,,CRAMERTON,NC,28032
194910,E,386 1/2 WOODLAWN AVE,,,,CRAMERTON,NC,28032
194911,E,388 WOODLAWN AVE,,,,CRAMERTON,NC,28032
194912,E,390 WOODLAWN AVE,,,,CRAMERTON,NC,28032
194913,E,392 WOODLAWN AVE,,,,CRAMERTON,NC,28032
194914,E,394 WOODLAWN AVE,,,,CRAMERTON,NC,28032
194915,E,396 WOODLAWN AVE,,,,CRAMERTON,NC,28032
194916,E,398 WOODLAWN AVE,,,,CRAMERTON,NC,28032
194917,E,400 WOODLAWN AVE,,,,CRAMERTON,NC,28032
194918,E,431 FIFTEENTH ST,,,,CRAMERTON,NC,28032
194919,E,402 WOODLAWN AVE,,,,CRAMERTON,NC,28032
194920,E,403 WOODLAWN AVE,,,,CRAMERTON,NC,28032
194921,E,401 WOODLAWN AVE,,,,CRAMERTON,NC,28032
194922,E,399 WOODLAWN AVE,,,,CRAMERTON,NC,28032
194923,E,397 WOODLAWN AVE,,,,CRAMERTON,NC,28032
194924,E,395 WOODLAWN AVE,,,,CRAMERTON,NC,28032
194925,E,393 WOODLAWN AVE,,,,CRAMERTON,NC,28032
194926,E,391 WOODLAWN AVE,,,,CRAMERTON,NC,28032
194927,E,389 WOODLAWN AVE,,,,CRAMERTON,NC,28032
194928,E,387 WOODLAWN AVE,,,,CRAMERTON,NC,28032
194929,E,385 WOODLAWN AVE,,,,CRAMERTON,NC,28032
194930,E,383 WOODLAWN AVE,,,,CRAMERTON,NC,28032
194931,E,381 WOODLAWN AVE,,,,CRAMERTON,NC,28032
194932,E,379 WOODLAWN AVE,,,,CRAMERTON,NC,28032
194933,E,377 WOODLAWN AVE,,,,CRAMERTON,NC,28032
194934,E,375 WOODLAWN AVE,,,,CRAMERTON,NC,28032
194935,E,373 WOODLAWN AVE,,,,CRAMERTON,NC,28032
194936,E,326 FOURTEENTH ST,,,,CRAMERTON,NC,28032
194938,E,371 WOODLAWN AVE,,,,CRAMERTON,NC,28032
194939,E,369 WOODLAWN AVE,,,,CRAMERTON,NC,28032
194940,E,367 WOODLAWN AVE,,,,CRAMERTON,NC,28032
194941,E,365 WOODLAWN AVE,,,,CRAMERTON,NC,28032
194942,E,363 WOODLAWN AVE,,,,CRAMERTON,NC,28032
194943,E,361 WOODLAWN AVE,,,,CRAMERTON,NC,28032
194944,E,359 WOODLAWN AVE,,,,CRAMERTON,NC,28032
194945,E,357 WOODLAWN AVE,,,,CRAMERTON,NC,28032
194946,E,355 WOODLAWN AVE,,,,CRAMERTON,NC,28032
194947,E,300 THIRTEENTH ST,,,,CRAMERTON,NC,28032
194948,E,302 THIRTEENTH ST,,,,CRAMERTON,NC,28032
194949,E,303 THIRTEENTH ST,,,,CRAMERTON,NC,28032
194950,E,301 THIRTEENTH ST,,,,CRAMERTON,NC,28032
194951,E,299 THIRTEENTH ST,,,,CRAMERTON,NC,28032
194952,E,297 THIRTEENTH ST,,,,CRAMERTON,NC,28032
194953,E,295 THIRTEENTH ST,,,,CRAMERTON,NC,28032
194954,E,290 MAYFLOWER AVE,,,,CRAMERTON,NC,28032
194955,E,291 TWELFTH ST,,,,CRAMERTON,NC,28032
194956,E,293 TWELFTH ST,,,,CRAMERTON,NC,28032
194957,E,295 TWELFTH ST,,,,CRAMERTON,NC,28032
194958,E,286 EIGHTH AVE,,,,CRAMERTON,NC,28032
194963,E,287 EIGHTH AVE,,,,CRAMERTON,NC,28032
194964,E,285 EIGHTH AVE,,,,CRAMERTON,NC,28032
194965,E,288 PARK ST,,,,CRAMERTON,NC,28032
194966,E,808 WASHINGTON ST,,,,CRAMERTON,NC,28032
194967,E,804 WASHINGTON ST,,,,CRAMERTON,NC,28032
194968,E,732 A WASHINGTON ST,,,,CRAMERTON,NC,28032
194969,E,728 WASHINGTON ST,,,,CRAMERTON,NC,28032
194970,E,726 WASHINGTON ST,,,,CRAMERTON,NC,28032
194971,E,724 WASHINGTON ST,,,,CRAMERTON,NC,28032
194972,E,722 WASHINGTON ST,,,,CRAMERTON,NC,28032
194973,E,720 WASHINGTON ST,,,,CRAMERTON,NC,28032
194974,E,289 SCOGGINS ST,,,,CRAMERTON,NC,28032
194975,E,719 WASHINGTON ST,,,,CRAMERTON,NC,28032
194976,E,721 WASHINGTON ST,,,,CRAMERTON,NC,28032
194977,E,723 WASHINGTON ST,,,,CRAMERTON,NC,28032
194978,E,725 WASHINGTON ST,,,,CRAMERTON,NC,28032
194979,E,286 PARK ST,,,,CRAMERTON,NC,28032
194980,E,285 PARK ST,,,,CRAMERTON,NC,28032
194981,E,284 EIGHTH AVE,,,,CRAMERTON,NC,28032
194982,E,283 EIGHTH AVE,,,,CRAMERTON,NC,28032
194983,E,282 EIGHTH AVE,,,,CRAMERTON,NC,28032
194985,E,281 EIGHTH AVE,,,,CRAMERTON,NC,28032
194986,E,287 SCOGGINS ST,,,,CRAMERTON,NC,28032
194987,E,288 SCOGGINS ST,,,,CRAMERTON,NC,28032
194988,E,280 EIGHTH AVE,,,,CRAMERTON,NC,28032
194989,E,279 EIGHTH AVE,,,,CRAMERTON,NC,28032
194990,E,278 EIGHTH AVE,,,,CRAMERTON,NC,28032
194991,E,277 EIGHTH AVE,,,,CRAMERTON,NC,28032
194992,E,276 EIGHTH AVE,,,,CRAMERTON,NC,28032
194993,E,275 EIGHTH AVE,,,,CRAMERTON,NC,28032
194994,E,274 EIGHTH AVE,,,,CRAMERTON,NC,28032
194995,E,273 EIGHTH AVE,,,,CRAMERTON,NC,28032
194996,E,272 EIGHTH AVE,,,,CRAMERTON,NC,28032
194997,E,532 BROOKLYN AVE,,,,CRAMERTON,NC,28032
194998,E,533 BROOKLYN AVE,,,,CRAMERTON,NC,28032
194999,E,534 BROOKLYN AVE,,,,CRAMERTON,NC,28032
195000,E,535 BROOKLYN AVE,,,,CRAMERTON,NC,28032
195001,E,536 BROOKLYN AVE,,,,CRAMERTON,NC,28032
195002,E,537 BROOKLYN AVE,,,,CRAMERTON,NC,28032
195003,E,601 WASHINGTON ST,,,,CRAMERTON,NC,28032
195004,E,607 WASHINGTON ST,,,,CRAMERTON,NC,28032
195005,E,609 WASHINGTON ST,,,,CRAMERTON,NC,28032
195006,E,611 WASHINGTON ST,,,,CRAMERTON,NC,28032
195007,E,613 WASHINGTON ST,,,,CRAMERTON,NC,28032
195008,E,615 WASHINGTON ST,,,,CRAMERTON,NC,28032
195009,E,617 WASHINGTON ST,,,,CRAMERTON,NC,28032
195010,E,614 WASHINGTON ST,,,,CRAMERTON,NC,28032
195011,E,612 WASHINGTON ST,,,,CRAMERTON,NC,28032
195012,E,610 A WASHINGTON ST,,,,CRAMERTON,NC,28032
195013,E,610 WASHINGTON ST,,,,CRAMERTON,NC,28032
195014,E,608 WASHINGTON ST,,,,CRAMERTON,NC,28032
195015,E,606 WASHINGTON ST,,,,CRAMERTON,NC,28032
195016,E,604 WASHINGTON ST,,,,CRAMERTON,NC,28032
195017,E,539 BROOKLYN AVE,,,,CRAMERTON,NC,28032
195018,E,541 BROOKLYN AVE,,,,CRAMERTON,NC,28032
195019,E,542 BROOKLYN AVE,,,,CRAMERTON,NC,28032
195033,E,485 LINCOLN ST,,,,CRAMERTON,NC,28032
195034,E,484 LINCOLN ST,,,,CRAMERTON,NC,28032
195035,E,483 LINCOLN ST,,,,CRAMERTON,NC,28032
195036,E,482 LINCOLN ST,,,,CRAMERTON,NC,28032
195037,E,480 LINCOLN ST,,,,CRAMERTON,NC,28032
195038,E,478 LINCOLN ST,,,,CRAMERTON,NC,28032
195039,E,479 LINCOLN ST,,,,CRAMERTON,NC,28032
195040,E,477 ELEVENTH ST,,,,CRAMERTON,NC,28032
195041,E,380 WASHINGTON ST,,,,CRAMERTON,NC,28032
195042,E,481 LINCOLN ST,,,,CRAMERTON,NC,28032
195043,E,384 1 WASHINGTON ST,,,,CRAMERTON,NC,28032
195044,E,486 HICKORY ST,,,,CRAMERTON,NC,28032
195045,E,487 HICKORY ST,,,,CRAMERTON,NC,28032
195046,E,488 LINCOLN ST,,,,CRAMERTON,NC,28032
195047,E,494 WASHINGTON ST,,,,CRAMERTON,NC,28032
195048,E,496 WASHINGTON ST,,,,CRAMERTON,NC,28032
195049,E,498 WASHINGTON ST,,,,CRAMERTON,NC,28032
195050,E,500 WASHINGTON ST,,,,CRAMERTON,NC,28032
195051,E,502 WASHINGTON ST,,,,CRAMERTON,NC,28032
195052,E,504 WASHINGTON ST,,,,CRAMERTON,NC,28032
195053,E,506 WASHINGTON ST,,,,CRAMERTON,NC,28032
195054,E,508 WASHINGTON ST,,,,CRAMERTON,NC,28032
195055,E,510 WASHINGTON ST,,,,CRAMERTON,NC,28032
195056,E,512 WASHINGTON ST,,,,CRAMERTON,NC,28032
195057,E,514 WASHINGTON ST,,,,CRAMERTON,NC,28032
195058,E,516 WASHINGTON ST,,,,CRAMERTON,NC,28032
195059,E,518 WASHINGTON ST,,,,CRAMERTON,NC,28032
195060,E,540 BROOKLYN AVE,,,,CRAMERTON,NC,28032
195061,E,538 BROOKLYN AVE,,,,CRAMERTON,NC,28032
195062,E,537 B BROOKLYN AVE,,,,CRAMERTON,NC,28032
195067,E,511 WASHINGTON ST,,,,CRAMERTON,NC,28032
195068,E,509 WASHINGTON ST,,,,CRAMERTON,NC,28032
195069,E,507 WASHINGTON ST,,,,CRAMERTON,NC,28032
195070,E,505 WASHINGTON ST,,,,CRAMERTON,NC,28032
195071,E,503 WASHINGTON ST,,,,CRAMERTON,NC,28032
195072,E,501 WASHINGTON ST,,,,CRAMERTON,NC,28032
195073,E,499 WASHINGTON ST,,,,CRAMERTON,NC,28032
195074,E,497 WASHINGTON ST,,,,CRAMERTON,NC,28032
195075,E,495 WASHINGTON ST,,,,CRAMERTON,NC,28032
195076,E,493 WASHINGTON ST,,,,CRAMERTON,NC,28032
195077,E,385 WASHINGTON ST,,,,CRAMERTON,NC,28032
195078,E,383 WASHINGTON ST,,,,CRAMERTON,NC,28032
195079,E,381 WASHINGTON ST,,,,CRAMERTON,NC,28032
195080,E,476 ELEVENTH ST,,,,CRAMERTON,NC,28032
195081,E,475 ELEVENTH ST,,,,CRAMERTON,NC,28032
195082,E,474 ELEVENTH ST,,,,CRAMERTON,NC,28032
195083,E,473 ELEVENTH ST,,,,CRAMERTON,NC,28032
195084,E,471 ELEVENTH ST,,,,CRAMERTON,NC,28032
195085,E,469 ELEVENTH ST,,,,CRAMERTON,NC,28032
195086,E,572 HIGH ST,,,,CRAMERTON,NC,28032
195087,E,467 ELEVENTH ST,,,,CRAMERTON,NC,28032
195088,E,574 HIGH ST,,,,CRAMERTON,NC,28032
195089,E,576 HIGH ST,,,,CRAMERTON,NC,28032
195090,E,578 HIGH ST,,,,CRAMERTON,NC,28032
195091,E,110 VICTORY LN,,,,CRAMERTON,NC,28032
195094,E,536 1/2 BROOKLYN AVE,,,,CRAMERTON,NC,28032
195095,E,535 B BROOKLYN AVE,,,,CRAMERTON,NC,28032
195099,E,534 C BROOKLYN AVE,,,,CRAMERTON,NC,28032
195100,E,530 BROOKLYN AVE,,,,CRAMERTON,NC,28032
195101,E,271 1/2 EIGHTH AVE,,,,CRAMERTON,NC,28032
195102,E,271 A EIGHTH AVE,,,,CRAMERTON,NC,28032
195103,E,271 EIGHTH AVE,,,,CRAMERTON,NC,28032
195105,E,270 EIGHTH AVE,,,,CRAMERTON,NC,28032
195106,E,269 EIGHTH AVE,,,,CRAMERTON,NC,28032
195107,E,268 EIGHTH AVE,,,,CRAMERTON,NC,28032
195108,E,267 EIGHTH AVE,,,,CRAMERTON,NC,28032
195109,E,266 EIGHTH AVE,,,,CRAMERTON,NC,28032
195110,E,262 A EIGHTH AVE,,,,CRAMERTON,NC,28032
195111,E,265 EIGHTH AVE,,,,CRAMERTON,NC,28032
195112,E,264 EIGHTH AVE,,,,CRAMERTON,NC,28032
195113,E,263 EIGHTH AVE,,,,CRAMERTON,NC,28032
195114,E,262 EIGHTH AVE,,,,CRAMERTON,NC,28032
195115,E,580 HIGH ST,,,,CRAMERTON,NC,28032
195116,E,579 HIGH ST,,,,CRAMERTON,NC,28032
195117,E,577 HIGH ST,,,,CRAMERTON,NC,28032
195118,E,575 HIGH ST,,,,CRAMERTON,NC,28032
195119,E,573 HIGH ST,,,,CRAMERTON,NC,28032
195120,E,571 HIGH ST,,,,CRAMERTON,NC,28032
195121,E,465 ELEVENTH ST,,,,CRAMERTON,NC,28032
195122,E,248 EIGHTH AVE,,,,CRAMERTON,NC,28032
195123,E,250 EIGHTH AVE,,,,CRAMERTON,NC,28032
195124,E,252 EIGHTH AVE,,,,CRAMERTON,NC,28032
195125,E,254 EIGHTH AVE,,,,CRAMERTON,NC,28032
195126,E,256 EIGHTH AVE,,,,CRAMERTON,NC,28032
195127,E,258 EIGHTH AVE,,,,CRAMERTON,NC,28032
195128,E,260 EIGHTH AVE,,,,CRAMERTON,NC,28032
195130,E,259 EIGHTH AVE,,,,CRAMERTON,NC,28032
195131,E,257 EIGHTH AVE,,,,CRAMERTON,NC,28032
195132,E,255 EIGHTH AVE,,,,CRAMERTON,NC,28032
195133,E,253 EIGHTH AVE,,,,CRAMERTON,NC,28032
195134,E,251 EIGHTH AVE,,,,CRAMERTON,NC,28032
195135,E,249 EIGHTH AVE,,,,CRAMERTON,NC,28032
195136,E,208 ARMSTRONG DR,,,,BELMONT,NC,28012
195137,E,210 ARMSTRONG DR,,,,BELMONT,NC,28012
195138,E,212 ARMSTRONG DR,,,,BELMONT,NC,28012
195139,E,214 ARMSTRONG DR,,,,BELMONT,NC,28012
195140,E,204 DAVIS LN,,,,BELMONT,NC,28012
195141,E,206 DAVIS LN,,,,BELMONT,NC,28012
195142,E,210 DAVIS LN,,,,BELMONT,NC,28012
195143,E,209 DAVIS LN,,,,BELMONT,NC,28012
195144,E,207 DAVIS LN,,,,BELMONT,NC,28012
195145,E,205 DAVIS LN,,,,BELMONT,NC,28012
195146,E,203 DAVIS LN,,,,BELMONT,NC,28012
195147,E,201 DAVIS LN,,,,BELMONT,NC,28012
195148,E,200 DAVIS LN,,,,BELMONT,NC,28012
195149,E,202 DAVIS LN,,,,BELMONT,NC,28012
195150,E,300 ARMSTRONG DR,,,,BELMONT,NC,28012
195151,E,302 ARMSTRONG DR,,,,BELMONT,NC,28012
195152,E,304 ARMSTRONG DR,,,,BELMONT,NC,28012
195153,E,306 ARMSTRONG DR,,,,BELMONT,NC,28012
195154,E,300 GREENWOOD PL,,,,BELMONT,NC,28012
195155,E,302 GREENWOOD PL,,,,BELMONT,NC,28012
195156,E,304 GREENWOOD PL,,,,BELMONT,NC,28012
195157,E,306 GREENWOOD PL,,,,BELMONT,NC,28012
195158,E,308 GREENWOOD PL,,,,BELMONT,NC,28012
195159,E,301 GREENWOOD PL,,,,BELMONT,NC,28012
195160,E,400 ARMSTRONG DR,,,,BELMONT,NC,28012
195161,E,402 ARMSTRONG DR,,,,BELMONT,NC,28012
195162,E,404 ARMSTRONG DR,,,,BELMONT,NC,28012
195164,E,406 ARMSTRONG DR,,,,BELMONT,NC,28012
195165,E,408 ARMSTRONG DR,,,,BELMONT,NC,28012
195167,E,101 TREELINE DR,,,,BELMONT,NC,28012
195168,E,401 RIDGEWAY DR,,,,BELMONT,NC,28012
195169,E,403 RIDGEWAY DR,,,,BELMONT,NC,28012
195170,E,405 RIDGEWAY DR,,,,BELMONT,NC,28012
195171,E,407 ROGERS CT,,,,BELMONT,NC,28012
195172,E,410 ROGERS CT,,,,BELMONT,NC,28012
195173,E,406 ROGERS CT,,,,BELMONT,NC,28012
195174,E,404 ROGERS CT,,,,BELMONT,NC,28012
195175,E,503 BENTLEY CT,,,,BELMONT,NC,28012
195176,E,505 BENTLEY CT,,,,BELMONT,NC,28012
195177,E,509 BENTLEY CT,,,,BELMONT,NC,28012
195179,E,510 BENTLEY CT,,,,BELMONT,NC,28012
195180,E,601 RIDGEWAY DR,,,,BELMONT,NC,28012
195181,E,603 RIDGEWAY DR,,,,BELMONT,NC,28012
195182,E,605 RIDGEWAY DR,,,,BELMONT,NC,28012
195183,E,609 RIDGEWAY DR,,,,BELMONT,NC,28012
195184,E,613 RIDGEWAY DR,,,,BELMONT,NC,28012
195185,E,615 RIDGEWAY DR,,,,BELMONT,NC,28012
195186,E,614 RIDGEWAY DR,,,,BELMONT,NC,28012
195187,E,612 RIDGEWAY DR,,,,BELMONT,NC,28012
195188,E,610 RIDGEWAY DR,,,,BELMONT,NC,28012
195189,E,606 RIDGEWAY DR,,,,BELMONT,NC,28012
195190,E,604 RIDGEWAY DR,,,,BELMONT,NC,28012
195191,E,602 RIDGEWAY DR,,,,BELMONT,NC,28012
195192,E,600 RIDGEWAY DR,,,,BELMONT,NC,28012
195193,E,506 RIDGEWAY DR,,,,BELMONT,NC,28012
195194,E,504 RIDGEWAY DR,,,,BELMONT,NC,28012
195195,E,502 RIDGEWAY DR,,,,BELMONT,NC,28012
195196,E,500 RIDGEWAY DR,,,,BELMONT,NC,28012
195197,E,404 RIDGEWAY DR,,,,BELMONT,NC,28012
195198,E,402 RIDGEWAY DR,,,,BELMONT,NC,28012
195199,E,400 RIDGEWAY DR,,,,BELMONT,NC,28012
195200,E,310 RIDGEWAY DR,,,,BELMONT,NC,28012
195201,E,102 TREELINE DR,,,,BELMONT,NC,28012
195202,E,100 TREELINE DR,,,,BELMONT,NC,28012
195205,E,321 LAKEWOOD RD,,,,BELMONT,NC,28012
195206,E,319 LAKEWOOD RD,,,,BELMONT,NC,28012
195207,E,311 LAKEWOOD RD,,,,BELMONT,NC,28012
195208,E,303 LAKEWOOD RD,,,,BELMONT,NC,28012
195209,E,317 LAKEWOOD RD,,,,BELMONT,NC,28012
195211,E,791 EAGLE RD,,,,BELMONT,NC,28012
195212,E,789 EAGLE RD,,,,BELMONT,NC,28012
195213,E,785 EAGLE RD,,,,BELMONT,NC,28012
195214,E,781 EAGLE RD,,,,BELMONT,NC,28012
195215,E,202 U ARMSTRONG DR,,,,BELMONT,NC,28012
195217,E,488 ELEVENTH ST,,,,CRAMERTON,NC,28032
195227,E,230 A DAWSON ST,,,,CRAMERTON,NC,28032
195231,E,651 EAGLE RD,,,,BELMONT,NC,28012
195233,E,700 EAGLE RD,,,,BELMONT,NC,28012
195235,E,215 ARMSTRONG DR,,,,BELMONT,NC,28012
195236,E,211 ARMSTRONG DR,,,,BELMONT,NC,28012
195237,E,209 ARMSTRONG DR,,,,BELMONT,NC,28012
195239,E,401 ARMSTRONG DR,,,,BELMONT,NC,28012
195240,E,305 ARMSTRONG DR,,,,BELMONT,NC,28012
195241,E,301 ARMSTRONG DR,,,,BELMONT,NC,28012
195242,E,205 ARMSTRONG DR,,,,BELMONT,NC,28012
195243,E,207 ARMSTRONG DR,,,,BELMONT,NC,28012
195245,E,24 LAKE DR,,,,BELMONT,NC,28012
195246,E,28 LAKE DR,,,,BELMONT,NC,28012
195247,E,32 LAKE DR,,,,BELMONT,NC,28012
195249,E,213 OAK DR,,,,BELMONT,NC,28012
195250,E,210 OAK DR,,,,BELMONT,NC,28012
195251,E,211 OAK DR,,,,BELMONT,NC,28012
195252,E,208 OAK DR,,,,BELMONT,NC,28012
195253,E,209 OAK DR,,,,BELMONT,NC,28012
195254,E,206 OAK DR,,,,BELMONT,NC,28012
195255,E,207 OAK DR,,,,BELMONT,NC,28012
195256,E,204 OAK DR,,,,BELMONT,NC,28012
195257,E,205 OAK DR,,,,BELMONT,NC,28012
195258,E,200 OAK DR,,,,BELMONT,NC,28012
195259,E,101 ARMSTRONG DR,,,,BELMONT,NC,28012
195260,E,100 OLD LAKEWOOD RD,,,,BELMONT,NC,28012
195261,E,102 OLD LAKEWOOD RD,,,,BELMONT,NC,28012
195262,E,104 OLD LAKEWOOD RD,,,,BELMONT,NC,28012
195263,E,106 OLD LAKEWOOD RD,,,,BELMONT,NC,28012
195264,E,108 OLD LAKEWOOD RD,,,,BELMONT,NC,28012
195265,E,110 OLD LAKEWOOD RD,,,,BELMONT,NC,28012
195266,E,112 OLD LAKEWOOD RD,,,,BELMONT,NC,28012
195267,E,114 LAKEWOOD RD,,,,BELMONT,NC,28012
195269,E,302 LAKEWOOD RD,,,,BELMONT,NC,28012
195270,E,306 LAKEWOOD RD,,,,BELMONT,NC,28012
195271,E,310 LAKEWOOD RD,,,,BELMONT,NC,28012
195272,E,312 LAKEWOOD RD,,,,BELMONT,NC,28012
195273,E,314 LAKEWOOD RD,,,,BELMONT,NC,28012
195275,E,206 ARMSTRONG DR,,,,BELMONT,NC,28012
195279,E,472 ELEVENTH ST,,,,CRAMERTON,NC,28032
195280,E,470 ELEVENTH ST,,,,CRAMERTON,NC,28032
195281,E,468 ELEVENTH ST,,,,CRAMERTON,NC,28032
195282,E,466 ELEVENTH ST,,,,CRAMERTON,NC,28032
195283,E,464 ELEVENTH ST,,,,CRAMERTON,NC,28032
195284,E,1 JULIAN ST,,,,CRAMERTON,NC,28032
195285,E,241 EIGHTH AVE,,,,CRAMERTON,NC,28032
195286,E,242 EIGHTH AVE,,,,CRAMERTON,NC,28032
195287,E,247 EIGHTH AVE,,,,CRAMERTON,NC,28032
195288,E,246 EIGHTH AVE,,,,CRAMERTON,NC,28032
195289,E,245 A EIGHTH AVE,,,,CRAMERTON,NC,28032
195290,E,244 EIGHTH AVE,,,,CRAMERTON,NC,28032
195291,E,243 EIGHTH AVE,,,,CRAMERTON,NC,28032
195292,E,239 EIGHTH AVE,,,,CRAMERTON,NC,28032
195293,E,238 EIGHTH AVE,,,,CRAMERTON,NC,28032
195294,E,237 EIGHTH AVE,,,,CRAMERTON,NC,28032
195295,E,235 EIGHTH AVE,,,,CRAMERTON,NC,28032
195297,E,240 EIGHTH AVE,,,,CRAMERTON,NC,28032
195299,E,2 JULIAN ST,,,,CRAMERTON,NC,28032
195303,E,224 TENTH ST,,,,CRAMERTON,NC,28032
195304,E,225 TENTH ST,,,,CRAMERTON,NC,28032
195305,E,223 TENTH ST,,,,CRAMERTON,NC,28032
195306,E,221 TENTH ST,,,,CRAMERTON,NC,28032
195307,E,219 TENTH ST,,,,CRAMERTON,NC,28032
195308,E,217 TENTH ST,,,,CRAMERTON,NC,28032
195309,E,215 TENTH ST,,,,CRAMERTON,NC,28032
195310,E,234 EIGHTH AVE,,,,CRAMERTON,NC,28032
195311,E,159 EIGHTH AVE,,,,CRAMERTON,NC,28032
195312,E,158 EIGHTH AVE,,,,CRAMERTON,NC,28032
195313,E,226 POPLAR ST,,,,CRAMERTON,NC,28032
195314,E,212 TENTH ST,,,,CRAMERTON,NC,28032
195315,E,214 TENTH ST,,,,CRAMERTON,NC,28032
195316,E,227 POPLAR ST,,,,CRAMERTON,NC,28032
195317,E,216 TENTH ST,,,,CRAMERTON,NC,28032
195318,E,218 TENTH ST,,,,CRAMERTON,NC,28032
195319,E,220 TENTH ST,,,,CRAMERTON,NC,28032
195320,E,222 TENTH ST,,,,CRAMERTON,NC,28032
195321,E,235 DAWSON ST,,,,CRAMERTON,NC,28032
195322,E,234 DAWSON ST,,,,CRAMERTON,NC,28032
195323,E,232 DAWSON ST,,,,CRAMERTON,NC,28032
195324,E,233 DAWSON ST,,,,CRAMERTON,NC,28032
195325,E,231 DAWSON ST,,,,CRAMERTON,NC,28032
195326,E,230 DAWSON ST,,,,CRAMERTON,NC,28032
195327,E,228 DAWSON ST,,,,CRAMERTON,NC,28032
195328,E,229 DAWSON ST,,,,CRAMERTON,NC,28032
195329,E,157 EIGHTH AVE,,,,CRAMERTON,NC,28032
195330,E,156 EIGHTH AVE,,,,CRAMERTON,NC,28032
195331,E,155 EIGHTH AVE,,,,CRAMERTON,NC,28032
195332,E,154 EIGHTH AVE,,,,CRAMERTON,NC,28032
195333,E,153 EIGHTH AVE,,,,CRAMERTON,NC,28032
195335,E,137 EIGHTH AVE,,,,CRAMERTON,NC,28032
195336,E,149 EIGHTH AVE,,,,CRAMERTON,NC,28032
195337,E,141 EIGHTH AVE,,,,CRAMERTON,NC,28032
195338,E,160 EIGHTH AVE,,,,CRAMERTON,NC,28032
195339,E,176 NINTH ST,,,,CRAMERTON,NC,28032
195340,E,161 EIGHTH AVE,,,,CRAMERTON,NC,28032
195341,E,177 CENTER ST,,,,CRAMERTON,NC,28032
195342,E,162 EIGHTH AVE,,,,CRAMERTON,NC,28032
195343,E,178 CENTER ST,,,,CRAMERTON,NC,28032
195344,E,163 EIGHTH AVE,,,,CRAMERTON,NC,28032
195345,E,179 CENTER ST,,,,CRAMERTON,NC,28032
195346,E,164 EIGHTH AVE,,,,CRAMERTON,NC,28032
195347,E,180 CENTER ST,,,,CRAMERTON,NC,28032
195348,E,181 CENTER ST,,,,CRAMERTON,NC,28032
195349,E,165 EIGHTH AVE,,,,CRAMERTON,NC,28032
195351,E,182 CENTER ST,,,,CRAMERTON,NC,28032
195352,E,183 CENTER ST,,,,CRAMERTON,NC,28032
195353,E,167 EIGHTH AVE,,,,CRAMERTON,NC,28032
195354,E,184 CENTER ST,,,,CRAMERTON,NC,28032
195355,E,168 EIGHTH AVE,,,,CRAMERTON,NC,28032
195356,E,185 CENTER ST,,,,CRAMERTON,NC,28032
195357,E,169 EIGHTH AVE,,,,CRAMERTON,NC,28032
195358,E,186 CENTER ST,,,,CRAMERTON,NC,28032
195359,E,170 EIGHTH AVE,,,,CRAMERTON,NC,28032
195360,E,187 CENTER ST,,,,CRAMERTON,NC,28032
195361,E,171 EIGHTH AVE,,,,CRAMERTON,NC,28032
195362,E,188 CENTER ST,,,,CRAMERTON,NC,28032
195363,E,189 CENTER ST,,,,CRAMERTON,NC,28032
195364,E,190 CENTER ST,,,,CRAMERTON,NC,28032
195365,E,172 EIGHTH AVE,,,,CRAMERTON,NC,28032
195366,E,173 EIGHTH AVE,,,,CRAMERTON,NC,28032
195367,E,191 CENTER ST,,,,CRAMERTON,NC,28032
195368,E,192 CENTER ST,,,,CRAMERTON,NC,28032
195369,E,174 EIGHTH AVE,,,,CRAMERTON,NC,28032
195370,E,175 TENTH ST,,,,CRAMERTON,NC,28032
195371,E,193 TENTH ST,,,,CRAMERTON,NC,28032
195372,E,211 FRONT ST,,,,CRAMERTON,NC,28032
195373,E,210 FRONT ST,,,,CRAMERTON,NC,28032
195374,E,209 FRONT ST,,,,CRAMERTON,NC,28032
195375,E,208 FRONT ST,,,,CRAMERTON,NC,28032
195376,E,207 FRONT ST,,,,CRAMERTON,NC,28032
195377,E,206 FRONT ST,,,,CRAMERTON,NC,28032
195378,E,205 FRONT ST,,,,CRAMERTON,NC,28032
195379,E,204 FRONT ST,,,,CRAMERTON,NC,28032
195380,E,203 FRONT ST,,,,CRAMERTON,NC,28032
195381,E,202 FRONT ST,,,,CRAMERTON,NC,28032
195382,E,201 FRONT ST,,,,CRAMERTON,NC,28032
195383,E,200 FRONT ST,,,,CRAMERTON,NC,28032
195384,E,199 FRONT ST,,,,CRAMERTON,NC,28032
195385,E,198 FRONT ST,,,,CRAMERTON,NC,28032
195386,E,197 FRONT ST,,,,CRAMERTON,NC,28032
195387,E,196 FRONT ST,,,,CRAMERTON,NC,28032
195388,E,195 FRONT ST,,,,CRAMERTON,NC,28032
195389,E,194 FRONT ST,,,,CRAMERTON,NC,28032
195390,E,480 ELEVENTH ST,,,,CRAMERTON,NC,28032
195394,E,201 TREELINE DR,,,,BELMONT,NC,28012
195396,E,207 TREELINE DR,,,,BELMONT,NC,28012
195397,E,407 HOLLY DR,,,,BELMONT,NC,28012
195398,E,411 HOLLY DR,,,,BELMONT,NC,28012
195399,E,415 HOLLY DR,,,,BELMONT,NC,28012
195400,E,419 HOLLY DR,,,,BELMONT,NC,28012
195401,E,421 HOLLY DR,,,,BELMONT,NC,28012
195402,E,425 HOLLY DR,,,,BELMONT,NC,28012
195403,E,429 HOLLY DR,,,,BELMONT,NC,28012
195404,E,431 HOLLY DR,,,,BELMONT,NC,28012
195405,E,422 HOLLY DR,,,,BELMONT,NC,28012
195407,E,414 HOLLY DR,,,,BELMONT,NC,28012
195408,E,310 BERRY CT,,,,BELMONT,NC,28012
195409,E,410 HOLLY DR,,,,BELMONT,NC,28012
195410,E,406 HOLLY DR,,,,BELMONT,NC,28012
195411,E,301 TREELINE DR,,,,BELMONT,NC,28012
195412,E,305 TREELINE DR,,,,BELMONT,NC,28012
195413,E,309 TREELINE DR,,,,BELMONT,NC,28012
195414,E,313 TREELINE DR,,,,BELMONT,NC,28012
195415,E,317 TREELINE DR,,,,BELMONT,NC,28012
195416,E,321 TREELINE DR,,,,BELMONT,NC,28012
195417,E,325 TREELINE DR,,,,BELMONT,NC,28012
195418,E,329 TREELINE DR,,,,BELMONT,NC,28012
195419,E,331 TREELINE DR,,,,BELMONT,NC,28012
195420,E,320 TREELINE DR,,,,BELMONT,NC,28012
195421,E,316 TREELINE DR,,,,BELMONT,NC,28012
195422,E,312 TREELINE DR,,,,BELMONT,NC,28012
195423,E,308 TREELINE DR,,,,BELMONT,NC,28012
195424,E,304 TREELINE DR,,,,BELMONT,NC,28012
195425,E,312 HOLLY DR,,,,BELMONT,NC,28012
195426,E,212 TREELINE DR,,,,BELMONT,NC,28012
195427,E,208 TREELINE DR,,,,BELMONT,NC,28012
195428,E,204 TREELINE DR,,,,BELMONT,NC,28012
195429,E,200 TREELINE DR,,,,BELMONT,NC,28012
195430,E,204 WOODRIDGE DR,,,,BELMONT,NC,28012
195431,E,206 WOODRIDGE DR,,,,BELMONT,NC,28012
195432,E,210 WOODRIDGE DR,,,,BELMONT,NC,28012
195433,E,214 WOODRIDGE DR,,,,BELMONT,NC,28012
195434,E,218 WOODRIDGE DR,,,,BELMONT,NC,28012
195435,E,222 WOODRIDGE DR,,,,BELMONT,NC,28012
195436,E,302 WOODRIDGE DR,,,,BELMONT,NC,28012
195437,E,306 WOODRIDGE DR,,,,BELMONT,NC,28012
195438,E,310 WOODRIDGE DR,,,,BELMONT,NC,28012
195439,E,311 WOODRIDGE DR,,,,BELMONT,NC,28012
195440,E,307 WOODRIDGE DR,,,,BELMONT,NC,28012
195441,E,303 WOODRIDGE DR,,,,BELMONT,NC,28012
195442,E,223 WOODRIDGE DR,,,,BELMONT,NC,28012
195443,E,219 WOODRIDGE DR,,,,BELMONT,NC,28012
195444,E,215 WOODRIDGE DR,,,,BELMONT,NC,28012
195445,E,211 WOODRIDGE DR,,,,BELMONT,NC,28012
195446,E,207 WOODRIDGE DR,,,,BELMONT,NC,28012
195447,E,203 WOODRIDGE DR,,,,BELMONT,NC,28012
195448,E,337 RIDGEWAY DR,,,,BELMONT,NC,28012
195449,E,335 RIDGEWAY DR,,,,BELMONT,NC,28012
195451,E,202 WOODRIDGE DR,,,,BELMONT,NC,28012
195454,E,350 EASTWOOD DR,,,,BELMONT,NC,28012
195456,E,1310 ARMSTRONG FORD RD,,,,BELMONT,NC,28012
195457,E,1308 ARMSTRONG FORD RD,,,,BELMONT,NC,28012
195458,E,1306 ARMSTRONG FORD RD,,,,BELMONT,NC,28012
195459,E,1304 ARMSTRONG FORD RD,,,,BELMONT,NC,28012
195460,E,1302 ARMSTRONG FORD RD,,,,BELMONT,NC,28012
195461,E,1300 ARMSTRONG FORD RD,,,,BELMONT,NC,28012
195463,E,103 TIMBERLANE DR,,,,BELMONT,NC,28012
195464,E,105 TIMBERLANE DR,,,,BELMONT,NC,28012
195465,E,201 TIMBERLANE DR,,,,BELMONT,NC,28012
195466,E,203 TIMBERLANE DR,,,,BELMONT,NC,28012
195467,E,205 TIMBERLANE DR,,,,BELMONT,NC,28012
195468,E,207 TIMBERLANE DR,,,,BELMONT,NC,28012
195469,E,208 TIMBERLANE DR,,,,BELMONT,NC,28012
195470,E,204 TIMBERLANE DR,,,,BELMONT,NC,28012
195471,E,202 TIMBERLANE DR,,,,BELMONT,NC,28012
195472,E,102 SOUTH FORK LN,,,,BELMONT,NC,28012
195473,E,102 TIMBERLANE DR,,,,BELMONT,NC,28012
195474,E,104 SOUTH FORK LN,,,,BELMONT,NC,28012
195475,E,106 SOUTH FORK LN,,,,BELMONT,NC,28012
195476,E,108 SOUTH FORK LN,,,,BELMONT,NC,28012
195477,E,110 SOUTH FORK LN,,,,BELMONT,NC,28012
195478,E,202 SOUTH FORK LN,,,,BELMONT,NC,28012
195479,E,204 SOUTH FORK LN,,,,BELMONT,NC,28012
195480,E,206 SOUTH FORK LN,,,,BELMONT,NC,28012
195481,E,208 SOUTH FORK LN,,,,BELMONT,NC,28012
195482,E,210 SOUTH FORK LN,,,,BELMONT,NC,28012
195483,E,212 SOUTH FORK LN,,,,BELMONT,NC,28012
195484,E,301 SOUTH FORK LN,,,,BELMONT,NC,28012
195485,E,217 SOUTH FORK LN,,,,BELMONT,NC,28012
195486,E,213 SOUTH FORK LN,,,,BELMONT,NC,28012
195487,E,209 SOUTH FORK LN,,,,BELMONT,NC,28012
195488,E,205 SOUTH FORK LN,,,,BELMONT,NC,28012
195489,E,201 SOUTH FORK LN,,,,BELMONT,NC,28012
195490,E,1700 CHESTERFIELD DR,,,,BELMONT,NC,28012
195491,E,105 SOUTH FORK LN,,,,BELMONT,NC,28012
195492,E,303 SOUTH FORK LN,,,,BELMONT,NC,28012
195493,E,1704 CHESTERFIELD DR,,,,BELMONT,NC,28012
195494,E,1800 CHESTERFIELD DR,,,,BELMONT,NC,28012
195495,E,1708 CHESTERFIELD DR,,,,BELMONT,NC,28012
195496,E,1712 CHESTERFIELD DR,,,,BELMONT,NC,28012
195497,E,1716 CHESTERFIELD DR,,,,BELMONT,NC,28012
195498,E,1720 CHESTERFIELD DR,,,,BELMONT,NC,28012
195499,E,1806 CHESTERFIELD DR,,,,BELMONT,NC,28012
195500,E,1812 CHESTERFIELD DR,,,,BELMONT,NC,28012
195501,E,1818 CHESTERFIELD DR,,,,BELMONT,NC,28012
195502,E,1900 CHESTERFIELD DR,,,,BELMONT,NC,28012
195503,E,1908 CHESTERFIELD DR,,,,BELMONT,NC,28012
195504,E,1916 CHESTERFIELD DR,,,,BELMONT,NC,28012
195505,E,1924 CHESTERFIELD DR,,,,BELMONT,NC,28012
195506,E,2300 CIMARRON BLVD,,,,BELMONT,NC,28012
195507,E,228 TIMBERLANE DR,,,,BELMONT,NC,28012
195508,E,226 TIMBERLANE DR,,,,BELMONT,NC,28012
195509,E,224 TIMBERLANE DR,,,,BELMONT,NC,28012
195510,E,222 TIMBERLANE DR,,,,BELMONT,NC,28012
195511,E,220 TIMBERLANE DR,,,,BELMONT,NC,28012
195513,E,216 TIMBERLANE DR,,,,BELMONT,NC,28012
195514,E,214 TIMBERLANE DR,,,,BELMONT,NC,28012
195515,E,212 TIMBERLANE DR,,,,BELMONT,NC,28012
195516,E,210 TIMBERLANE DR,,,,BELMONT,NC,28012
195517,E,209 TIMBERLANE DR,,,,BELMONT,NC,28012
195518,E,211 TIMBERLANE DR,,,,BELMONT,NC,28012
195519,E,213 TIMBERLANE DR,,,,BELMONT,NC,28012
195520,E,215 TIMBERLANE DR,,,,BELMONT,NC,28012
195521,E,217 TIMBERLANE DR,,,,BELMONT,NC,28012
195522,E,219 TIMBERLANE DR,,,,BELMONT,NC,28012
195523,E,221 TIMBERLANE DR,,,,BELMONT,NC,28012
195524,E,223 TIMBERLANE DR,,,,BELMONT,NC,28012
195525,E,225 TIMBERLANE DR,,,,BELMONT,NC,28012
195526,E,2202 CIMARRON BLVD,,,,BELMONT,NC,28012
195527,E,218 TIMBERLANE DR,,,,BELMONT,NC,28012
195528,E,1312 ARMSTRONG FORD RD,,,,BELMONT,NC,28012
195529,E,1314 ARMSTRONG FORD RD,,,,BELMONT,NC,28012
195530,E,1316 ARMSTRONG FORD RD,,,,BELMONT,NC,28012
195531,E,1318 ARMSTRONG FORD RD,,,,BELMONT,NC,28012
195532,E,1320 ARMSTRONG FORD RD,,,,BELMONT,NC,28012
195533,E,1322 ARMSTRONG FORD RD,,,,BELMONT,NC,28012
195534,E,1324 ARMSTRONG FORD RD,,,,BELMONT,NC,28012
195535,E,1326 ARMSTRONG FORD RD,,,,BELMONT,NC,28012
195536,E,1328 ARMSTRONG FORD RD,,,,BELMONT,NC,28012
195537,E,2200 U CIMARRON BLVD,,,,BELMONT,NC,28012
195538,E,2201 CIMARRON BLVD,,,,BELMONT,NC,28012
195539,E,2203 CIMARRON BLVD,,,,BELMONT,NC,28012
195540,E,2205 CIMARRON BLVD,,,,BELMONT,NC,28012
195541,E,2301 CIMARRON BLVD,,,,BELMONT,NC,28012
195542,E,2303 CIMARRON BLVD,,,,BELMONT,NC,28012
195543,E,2305 CIMARRON BLVD,,,,BELMONT,NC,28012
195544,E,2307 CIMARRON BLVD,,,,BELMONT,NC,28012
195545,E,2501 SHAGGY BARK CT,,,,BELMONT,NC,28012
195546,E,2503 SHAGGY BARK CT,,,,BELMONT,NC,28012
195547,E,2509 SHAGGY BARK CT,,,,BELMONT,NC,28012
195548,E,2515 SHAGGY BARK CT,,,,BELMONT,NC,28012
195549,E,2523 SHAGGY BARK CT,,,,BELMONT,NC,28012
195550,E,2529 SHAGGY BARK CT,,,,BELMONT,NC,28012
195551,E,2535 SHAGGY BARK CT,,,,BELMONT,NC,28012
195552,E,2541 SHAGGY BARK CT,,,,BELMONT,NC,28012
195553,E,2547 SHAGGY BARK CT,,,,BELMONT,NC,28012
195555,E,2559 SHAGGY BARK CT,,,,BELMONT,NC,28012
195556,E,2565 SHAGGY BARK CT,,,,BELMONT,NC,28012
195559,E,2566 SHAGGY BARK CT,,,,BELMONT,NC,28012
195560,E,2560 SHAGGY BARK CT,,,,BELMONT,NC,28012
195561,E,2554 SHAGGY BARK CT,,,,BELMONT,NC,28012
195562,E,2548 SHAGGY BARK CT,,,,BELMONT,NC,28012
195563,E,2542 SHAGGY BARK CT,,,,BELMONT,NC,28012
195564,E,2536 SHAGGY BARK CT,,,,BELMONT,NC,28012
195565,E,2530 SHAGGY BARK CT,,,,BELMONT,NC,28012
195566,E,2524 SHAGGY BARK CT,,,,BELMONT,NC,28012
195567,E,2516 SHAGGY BARK CT,,,,BELMONT,NC,28012
195568,E,2508 SHAGGY BARK CT,,,,BELMONT,NC,28012
195569,E,2403 CIMARRON BLVD,,,,BELMONT,NC,28012
195570,E,2405 CIMARRON BLVD,,,,BELMONT,NC,28012
195571,E,2407 CIMARRON BLVD,,,,BELMONT,NC,28012
195572,E,2711 GREENMONT CIR,,,,BELMONT,NC,28012
195573,E,2404 CIMARRON BLVD,,,,BELMONT,NC,28012
195574,E,2402 CIMARRON BLVD,,,,BELMONT,NC,28012
195575,E,1925 CHESTERFIELD DR,,,,BELMONT,NC,28012
195576,E,1917 CHESTERFIELD DR,,,,BELMONT,NC,28012
195577,E,1911 CHESTERFIELD DR,,,,BELMONT,NC,28012
195578,E,2111 FERNCLIFF LN,,,,BELMONT,NC,28012
195579,E,2121 FERNCLIFF LN,,,,BELMONT,NC,28012
195580,E,2701 GREENMONT CIR,,,,BELMONT,NC,28012
195581,E,2705 GREENMONT CIR,,,,BELMONT,NC,28012
195582,E,2140 FERNCLIFF LN,,,,BELMONT,NC,28012
195583,E,2130 FERNCLIFF LN,,,,BELMONT,NC,28012
195584,E,2120 FERNCLIFF LN,,,,BELMONT,NC,28012
195585,E,2110 FERNCLIFF LN,,,,BELMONT,NC,28012
195586,E,1819 CHESTERFIELD DR,,,,BELMONT,NC,28012
195587,E,1813 CHESTERFIELD DR,,,,BELMONT,NC,28012
195588,E,1807 CHESTERFIELD DR,,,,BELMONT,NC,28012
195589,E,1801 CHESTERFIELD DR,,,,BELMONT,NC,28012
195590,E,2005 SILVERTIP CT,,,,BELMONT,NC,28012
195591,E,2009 SILVERTIP CT,,,,BELMONT,NC,28012
195592,E,2013 SILVERTIP CT,,,,BELMONT,NC,28012
195593,E,2017 SILVERTIP CT,,,,BELMONT,NC,28012
195594,E,2016 SILVERTIP CT,,,,BELMONT,NC,28012
195595,E,2012 SILVERTIP CT,,,,BELMONT,NC,28012
195596,E,2008 SILVERTIP CT,,,,BELMONT,NC,28012
195597,E,2004 SILVERTIP CT,,,,BELMONT,NC,28012
195598,E,1717 CHESTERFIELD DR,,,,BELMONT,NC,28012
195599,E,1713 CHESTERFIELD DR,,,,BELMONT,NC,28012
195600,E,1709 CHESTERFIELD DR,,,,BELMONT,NC,28012
195601,E,3418 SHADY COVE CT,,,,BELMONT,NC,28012
195602,E,3412 SHADY COVE CT,,,,BELMONT,NC,28012
195603,E,3424 SHADY COVE CT,,,,BELMONT,NC,28012
195604,E,3436 SHADY COVE CT,,,,BELMONT,NC,28012
195605,E,3448 SHADY COVE CT,,,,BELMONT,NC,28012
195606,E,3460 SHADY COVE CT,,,,BELMONT,NC,28012
195607,E,3472 SHADY COVE CT,,,,BELMONT,NC,28012
195608,E,3484 SHADY COVE CT,,,,BELMONT,NC,28012
195609,E,3496 SHADY COVE CT,,,,BELMONT,NC,28012
195610,E,3495 SHADY COVE CT,,,,BELMONT,NC,28012
195611,E,3483 SHADY COVE CT,,,,BELMONT,NC,28012
195612,E,3471 SHADY COVE CT,,,,BELMONT,NC,28012
195613,E,3459 SHADY COVE CT,,,,BELMONT,NC,28012
195614,E,3447 SHADY COVE CT,,,,BELMONT,NC,28012
195615,E,3435 SHADY COVE CT,,,,BELMONT,NC,28012
195616,E,3423 SHADY COVE CT,,,,BELMONT,NC,28012
195617,E,3411 SHADY COVE CT,,,,BELMONT,NC,28012
195618,E,2700 GREENMONT CIR,,,,BELMONT,NC,28012
195619,E,2706 GREENMONT CIR,,,,BELMONT,NC,28012
195620,E,2712 GREENMONT CIR,,,,BELMONT,NC,28012
195621,E,3304 HAWTHORNE LN,,,,BELMONT,NC,28012
195622,E,3308 HAWTHORNE LN,,,,BELMONT,NC,28012
195623,E,3312 HAWTHORNE LN,,,,BELMONT,NC,28012
195624,E,3316 HAWTHORNE LN,,,,BELMONT,NC,28012
195625,E,3320 HAWTHORNE LN,,,,BELMONT,NC,28012
195626,E,3324 HAWTHORNE LN,,,,BELMONT,NC,28012
195627,E,3328 HAWTHORNE LN,,,,BELMONT,NC,28012
195628,E,3332 HAWTHORNE LN,,,,BELMONT,NC,28012
195629,E,3336 HAWTHORNE LN,,,,BELMONT,NC,28012
195630,E,3340 HAWTHORNE LN,,,,BELMONT,NC,28012
195631,E,3341 HAWTHORNE LN,,,,BELMONT,NC,28012
195632,E,3337 HAWTHORNE LN,,,,BELMONT,NC,28012
195635,E,3325 HAWTHORNE LN,,,,BELMONT,NC,28012
195637,E,3317 HAWTHORNE LN,,,,BELMONT,NC,28012
195638,E,3313 HAWTHORNE LN,,,,BELMONT,NC,28012
195639,E,3309 HAWTHORNE LN,,,,BELMONT,NC,28012
195640,E,3305 HAWTHORNE LN,,,,BELMONT,NC,28012
195641,E,3301 HAWTHORNE LN,,,,BELMONT,NC,28012
195642,E,3200 GRANGE CT,,,,BELMONT,NC,28012
195643,E,3202 GRANGE CT,,,,BELMONT,NC,28012
195644,E,3204 GRANGE CT,,,,BELMONT,NC,28012
195645,E,3206 GRANGE CT,,,,BELMONT,NC,28012
195648,E,3210 GRANGE CT,,,,BELMONT,NC,28012
195649,E,3214 GRANGE CT,,,,BELMONT,NC,28012
195650,E,3216 GRANGE CT,,,,BELMONT,NC,28012
195651,E,3218 GRANGE CT,,,,BELMONT,NC,28012
195652,E,3220 GRANGE CT,,,,BELMONT,NC,28012
195653,E,3222 GRANGE CT,,,,BELMONT,NC,28012
195654,E,3224 GRANGE CT,,,,BELMONT,NC,28012
195655,E,3226 GRANGE CT,,,,BELMONT,NC,28012
195656,E,3228 GRANGE CT,,,,BELMONT,NC,28012
195657,E,3230 GRANGE CT,,,,BELMONT,NC,28012
195658,E,3232 GRANGE CT,,,,BELMONT,NC,28012
195661,E,3227 GRANGE CT,,,,BELMONT,NC,28012
195662,E,3225 GRANGE CT,,,,BELMONT,NC,28012
195663,E,3223 GRANGE CT,,,,BELMONT,NC,28012
195664,E,3221 GRANGE CT,,,,BELMONT,NC,28012
195665,E,3219 GRANGE CT,,,,BELMONT,NC,28012
195666,E,3217 GRANGE CT,,,,BELMONT,NC,28012
195667,E,3215 GRANGE CT,,,,BELMONT,NC,28012
195668,E,3213 GRANGE CT,,,,BELMONT,NC,28012
195669,E,3211 GRANGE CT,,,,BELMONT,NC,28012
195670,E,3209 GRANGE CT,,,,BELMONT,NC,28012
195671,E,3207 GRANGE CT,,,,BELMONT,NC,28012
195672,E,3201 GRANGE CT,,,,BELMONT,NC,28012
195673,E,3100 GREYSTOKE CT,,,,BELMONT,NC,28012
195674,E,3110 GREYSTOKE CT,,,,BELMONT,NC,28012
195675,E,3120 GREYSTOKE CT,,,,BELMONT,NC,28012
195676,E,3130 GREYSTOKE CT,,,,BELMONT,NC,28012
195677,E,3140 GREYSTOKE CT,,,,BELMONT,NC,28012
195678,E,3150 GREYSTOKE CT,,,,BELMONT,NC,28012
195679,E,3160 GREYSTOKE CT,,,,BELMONT,NC,28012
195680,E,3170 GREYSTOKE CT,,,,BELMONT,NC,28012
195681,E,3180 GREYSTOKE CT,,,,BELMONT,NC,28012
195682,E,3191 GREYSTOKE CT,,,,BELMONT,NC,28012
195683,E,3189 GREYSTOKE CT,,,,BELMONT,NC,28012
195684,E,3179 GREYSTOKE CT,,,,BELMONT,NC,28012
195685,E,3169 GREYSTOKE CT,,,,BELMONT,NC,28012
195686,E,3159 GREYSTOKE CT,,,,BELMONT,NC,28012
195687,E,3149 GREYSTOKE CT,,,,BELMONT,NC,28012
195688,E,3139 GREYSTOKE CT,,,,BELMONT,NC,28012
195689,E,3129 GREYSTOKE CT,,,,BELMONT,NC,28012
195690,E,3119 GREYSTOKE CT,,,,BELMONT,NC,28012
195691,E,3109 GREYSTOKE CT,,,,BELMONT,NC,28012
195692,E,3105 GREYSTOKE CT,,,,BELMONT,NC,28012
195693,E,3101 GREYSTOKE CT,,,,BELMONT,NC,28012
195694,E,3005 GREENMONT CIR,,,,BELMONT,NC,28012
195695,E,3003 GREENMONT CIR,,,,BELMONT,NC,28012
195696,E,3001 GREENMONT CIR,,,,BELMONT,NC,28012
195697,E,2919 GREENMONT CIR,,,,BELMONT,NC,28012
195698,E,2913 GREENMONT CIR,,,,BELMONT,NC,28012
195699,E,2907 GREENMONT CIR,,,,BELMONT,NC,28012
195700,E,2901 GREENMONT CIR,,,,BELMONT,NC,28012
195701,E,2811 GREENMONT CIR,,,,BELMONT,NC,28012
195702,E,1705 CHESTERFIELD DR,,,,BELMONT,NC,28012
195703,E,2553 SHAGGY BARK CT,,,,BELMONT,NC,28012
195704,E,3007 GREENMONT CIR,,,,BELMONT,NC,28012
195705,E,3009 GREENMONT CIR,,,,BELMONT,NC,28012
195706,E,3011 GREENMONT CIR,,,,BELMONT,NC,28012
195707,E,3013 GREENMONT CIR,,,,BELMONT,NC,28012
195708,E,3015 GREENMONT CIR,,,,BELMONT,NC,28012
195709,E,3017 GREENMONT CIR,,,,BELMONT,NC,28012
195710,E,3019 GREENMONT CIR,,,,BELMONT,NC,28012
195711,E,3021 GREENMONT CIR,,,,BELMONT,NC,28012
195712,E,3023 GREENMONT CIR,,,,BELMONT,NC,28012
195713,E,3025 GREENMONT CIR,,,,BELMONT,NC,28012
195714,E,3027 GREENMONT CIR,,,,BELMONT,NC,28012
195715,E,3029 GREENMONT CIR,,,,BELMONT,NC,28012
195716,E,3031 GREENMONT CIR,,,,BELMONT,NC,28012
195717,E,3033 GREENMONT CIR,,,,BELMONT,NC,28012
195718,E,3035 GREENMONT CIR,,,,BELMONT,NC,28012
195719,E,3037 GREENMONT CIR,,,,BELMONT,NC,28012
195720,E,3039 GREENMONT CIR,,,,BELMONT,NC,28012
195721,E,3041 GREENMONT CIR,,,,BELMONT,NC,28012
195722,E,3043 GREENMONT CIR,,,,BELMONT,NC,28012
195723,E,3045 GREENMONT CIR,,,,BELMONT,NC,28012
195724,E,3044 GREENMONT CIR,,,,BELMONT,NC,28012
195725,E,3042 GREENMONT CIR,,,,BELMONT,NC,28012
195726,E,3040 GREENMONT CIR,,,,BELMONT,NC,28012
195727,E,3038 GREENMONT CIR,,,,BELMONT,NC,28012
195728,E,3036 GREENMONT CIR,,,,BELMONT,NC,28012
195729,E,3034 GREENMONT CIR,,,,BELMONT,NC,28012
195730,E,3032 GREENMONT CIR,,,,BELMONT,NC,28012
195731,E,3030 GREENMONT CIR,,,,BELMONT,NC,28012
195732,E,3028 GREENMONT CIR,,,,BELMONT,NC,28012
195733,E,3026 GREENMONT CIR,,,,BELMONT,NC,28012
195734,E,3024 GREENMONT CIR,,,,BELMONT,NC,28012
195735,E,3022 GREENMONT CIR,,,,BELMONT,NC,28012
195736,E,3020 GREENMONT CIR,,,,BELMONT,NC,28012
195741,E,142 EIGHTH AVE,,,,CRAMERTON,NC,28032
195743,E,119 B CENTER ST,,,,CRAMERTON,NC,28032
195744,E,117 CENTER ST,,,,CRAMERTON,NC,28032
195745,E,115 CENTER ST,,,,CRAMERTON,NC,28032
195746,E,113 CENTER ST,,,,CRAMERTON,NC,28032
195747,E,111 CENTER ST,,,,CRAMERTON,NC,28032
195748,E,109 CENTER ST,,,,CRAMERTON,NC,28032
195749,E,5 MAIN ST,,,,CRAMERTON,NC,28032
195754,E,155 N MAIN ST,,,,CRAMERTON,NC,28032
195755,E,136 EIGHTH AVE,,,,CRAMERTON,NC,28032
195756,E,135 EIGHTH AVE,,,,CRAMERTON,NC,28032
195757,E,134 EIGHTH AVE,,,,CRAMERTON,NC,28032
195758,E,133 EIGHTH AVE,,,,CRAMERTON,NC,28032
195759,E,132 EIGHTH AVE,,,,CRAMERTON,NC,28032
195760,E,131 EIGHTH AVE,,,,CRAMERTON,NC,28032
195761,E,129 EIGHTH AVE,,,,CRAMERTON,NC,28032
195762,E,128 EIGHTH AVE,,,,CRAMERTON,NC,28032
195763,E,127 EIGHTH AVE,,,,CRAMERTON,NC,28032
195765,E,76 RIVERSIDE DR,,,,CRAMERTON,NC,28032
195773,E,104 SEVENTH ST,,,,CRAMERTON,NC,28032
195774,E,154 N MAIN ST,,,,CRAMERTON,NC,28032
195775,E,125 SEVENTH ST,,,,CRAMERTON,NC,28032
195776,E,123 A SEVENTH ST,,,,CRAMERTON,NC,28032
195777,E,121 A SEVENTH ST,,,,CRAMERTON,NC,28032
195778,E,119 SEVENTH ST,,,,CRAMERTON,NC,28032
195779,E,117 SEVENTH ST,,,,CRAMERTON,NC,28032
195780,E,115 SEVENTH ST,,,,CRAMERTON,NC,28032
195781,E,113 SEVENTH ST,,,,CRAMERTON,NC,28032
195783,E,109 RIVERSIDE DR,,,,CRAMERTON,NC,28032
195784,E,110 RIVERSIDE DR,,,,CRAMERTON,NC,28032
195785,E,112 SEVENTH ST,,,,CRAMERTON,NC,28032
195786,E,114 SEVENTH ST,,,,CRAMERTON,NC,28032
195787,E,116 SEVENTH ST,,,,CRAMERTON,NC,28032
195788,E,118 SEVENTH ST,,,,CRAMERTON,NC,28032
195789,E,120 SEVENTH ST,,,,CRAMERTON,NC,28032
195790,E,122 SEVENTH ST,,,,CRAMERTON,NC,28032
195791,E,124 SEVENTH ST,,,,CRAMERTON,NC,28032
195792,E,126 SEVENTH ST,,,,CRAMERTON,NC,28032
195794,E,152 N MAIN ST,,,,CRAMERTON,NC,28032
195796,E,108 DOGWOOD ST,,,,CRAMERTON,NC,28032
195797,E,107 DOGWOOD ST,,,,CRAMERTON,NC,28032
195798,E,106 DOGWOOD ST,,,,CRAMERTON,NC,28032
195799,E,105 RIVERSIDE DR,,,,CRAMERTON,NC,28032
195800,E,97 SIXTH ST,,,,CRAMERTON,NC,28032
195801,E,99 SIXTH ST,,,,CRAMERTON,NC,28032
195802,E,101 SIXTH ST,,,,CRAMERTON,NC,28032
195803,E,103 SIXTH ST,,,,CRAMERTON,NC,28032
195804,E,151 N MAIN ST,,,,CRAMERTON,NC,28032
195805,E,150 N MAIN ST,,,,CRAMERTON,NC,28032
195806,E,149 N MAIN ST,,,,CRAMERTON,NC,28032
195808,E,102 SIXTH ST,,,,CRAMERTON,NC,28032
195809,E,100 SIXTH ST,,,,CRAMERTON,NC,28032
195810,E,98 SIXTH ST,,,,CRAMERTON,NC,28032
195811,E,94 RIVERSIDE DR,,,,CRAMERTON,NC,28032
195812,E,95 ELM ST,,,,CRAMERTON,NC,28032
195813,E,96 ELM ST,,,,CRAMERTON,NC,28032
195814,E,171 S MAIN ST,,,,CRAMERTON,NC,28032
195815,E,91 FIFTH ST,,,,CRAMERTON,NC,28032
195816,E,89 FIFTH ST,,,,CRAMERTON,NC,28032
195817,E,87 FIFTH ST,,,,CRAMERTON,NC,28032
195818,E,85 FIFTH ST,,,,CRAMERTON,NC,28032
195819,E,83 FIFTH ST,,,,CRAMERTON,NC,28032
195821,E,80 FIFTH ST,,,,CRAMERTON,NC,28032
195822,E,82 FIFTH ST,,,,CRAMERTON,NC,28032
195823,E,84 FIFTH ST,,,,CRAMERTON,NC,28032
195824,E,86 FIFTH ST,,,,CRAMERTON,NC,28032
195825,E,88 FIFTH ST,,,,CRAMERTON,NC,28032
195826,E,90 FIFTH ST,,,,CRAMERTON,NC,28032
195828,E,148 N MAIN ST,,,,CRAMERTON,NC,28032
195830,E,173 S MAIN ST,,,,CRAMERTON,NC,28032
195831,E,79 CHERRY ST,,,,CRAMERTON,NC,28032
195832,E,78 CHERRY ST,,,,CRAMERTON,NC,28032
195833,E,77 MYRTLE ST,,,,CRAMERTON,NC,28032
195834,E,76 MYRTLE ST,,,,CRAMERTON,NC,28032
195835,E,75 RIVERSIDE DR,,,,CRAMERTON,NC,28032
195836,E,57 FOURTH ST,,,,CRAMERTON,NC,28032
195837,E,59 FOURTH ST,,,,CRAMERTON,NC,28032
195838,E,61 FOURTH ST,,,,CRAMERTON,NC,28032
195839,E,63 FOURTH ST,,,,CRAMERTON,NC,28032
195840,E,65 FOURTH ST,,,,CRAMERTON,NC,28032
195841,E,67 FOURTH ST,,,,CRAMERTON,NC,28032
195842,E,69 FOURTH ST,,,,CRAMERTON,NC,28032
195843,E,71 FOURTH ST,,,,CRAMERTON,NC,28032
195844,E,73 FOURTH ST,,,,CRAMERTON,NC,28032
195845,E,146 N MAIN ST,,,,CRAMERTON,NC,28032
195846,E,145 N MAIN ST,,,,CRAMERTON,NC,28032
195847,E,74 FOURTH ST,,,,CRAMERTON,NC,28032
195848,E,72 FOURTH ST,,,,CRAMERTON,NC,28032
195849,E,70 FOURTH ST,,,,CRAMERTON,NC,28032
195850,E,68 FOURTH ST,,,,CRAMERTON,NC,28032
195851,E,66 FOURTH ST,,,,CRAMERTON,NC,28032
195852,E,64 FOURTH ST,,,,CRAMERTON,NC,28032
195853,E,56 MAPLE ST,,,,CRAMERTON,NC,28032
195854,E,62 FOURTH ST,,,,CRAMERTON,NC,28032
195855,E,55 MAPLE ST,,,,CRAMERTON,NC,28032
195856,E,60 FOURTH ST,,,,CRAMERTON,NC,28032
195857,E,58 FOURTH ST,,,,CRAMERTON,NC,28032
195858,E,54 RIVERSIDE DR,,,,CRAMERTON,NC,28032
195859,E,37 THIRD ST,,,,CRAMERTON,NC,28032
195860,E,39 THIRD ST,,,,CRAMERTON,NC,28032
195861,E,41 THIRD ST,,,,CRAMERTON,NC,28032
195862,E,43 THIRD ST,,,,CRAMERTON,NC,28032
195863,E,45 THIRD ST,,,,CRAMERTON,NC,28032
195864,E,47 THIRD ST,,,,CRAMERTON,NC,28032
195865,E,49 THIRD ST,,,,CRAMERTON,NC,28032
195866,E,51 THIRD ST,,,,CRAMERTON,NC,28032
195867,E,53 THIRD ST,,,,CRAMERTON,NC,28032
195869,E,143 N MAIN ST,,,,CRAMERTON,NC,28032
195870,E,52 THIRD ST,,,,CRAMERTON,NC,28032
195871,E,50 THIRD ST,,,,CRAMERTON,NC,28032
195872,E,48 THIRD ST,,,,CRAMERTON,NC,28032
195873,E,46 THIRD ST,,,,CRAMERTON,NC,28032
195874,E,44 THIRD ST,,,,CRAMERTON,NC,28032
195875,E,42 THIRD ST,,,,CRAMERTON,NC,28032
195876,E,40 THIRD ST,,,,CRAMERTON,NC,28032
195877,E,38 THIRD ST,,,,CRAMERTON,NC,28032
195878,E,36 THIRD ST,,,,CRAMERTON,NC,28032
195879,E,35 RIVERSIDE DR,,,,CRAMERTON,NC,28032
195880,E,17 SECOND ST,,,,CRAMERTON,NC,28032
195881,E,19 SECOND ST,,,,CRAMERTON,NC,28032
195882,E,21 SECOND ST,,,,CRAMERTON,NC,28032
195883,E,23 SECOND ST,,,,CRAMERTON,NC,28032
195884,E,25 SECOND ST,,,,CRAMERTON,NC,28032
195885,E,27 SECOND ST,,,,CRAMERTON,NC,28032
195886,E,29 SECOND ST,,,,CRAMERTON,NC,28032
195887,E,31 SECOND ST,,,,CRAMERTON,NC,28032
195888,E,33 SECOND ST,,,,CRAMERTON,NC,28032
195889,E,142 N MAIN ST,,,,CRAMERTON,NC,28032
195890,E,141 N MAIN ST,,,,CRAMERTON,NC,28032
195891,E,34 SECOND ST,,,,CRAMERTON,NC,28032
195892,E,32 SECOND ST,,,,CRAMERTON,NC,28032
195893,E,30 SECOND ST,,,,CRAMERTON,NC,28032
195894,E,28 SECOND ST,,,,CRAMERTON,NC,28032
195895,E,26 SECOND ST,,,,CRAMERTON,NC,28032
195896,E,24 SECOND ST,,,,CRAMERTON,NC,28032
195897,E,22 SECOND ST,,,,CRAMERTON,NC,28032
195898,E,20 SECOND ST,,,,CRAMERTON,NC,28032
195899,E,18 SECOND ST,,,,CRAMERTON,NC,28032
195901,E,1 FIRST ST,,,,CRAMERTON,NC,28032
195902,E,3 FIRST ST,,,,CRAMERTON,NC,28032
195903,E,5 FIRST ST,,,,CRAMERTON,NC,28032
195904,E,7 FIRST ST,,,,CRAMERTON,NC,28032
195905,E,9 FIRST ST,,,,CRAMERTON,NC,28032
195906,E,11 FIRST ST,,,,CRAMERTON,NC,28032
195907,E,13 FIRST ST,,,,CRAMERTON,NC,28032
195908,E,15 FIRST ST,,,,CRAMERTON,NC,28032
195909,E,140 N MAIN ST,,,,CRAMERTON,NC,28032
195910,E,139 N MAIN ST,,,,CRAMERTON,NC,28032
195911,E,14 FIRST ST,,,,CRAMERTON,NC,28032
195912,E,12 FIRST ST,,,,CRAMERTON,NC,28032
195913,E,10 FIRST ST,,,,CRAMERTON,NC,28032
195914,E,8 FIRST ST,,,,CRAMERTON,NC,28032
195915,E,6 FIRST ST,,,,CRAMERTON,NC,28032
195916,E,4 FIRST ST,,,,CRAMERTON,NC,28032
195917,E,2 FIRST ST,,,,CRAMERTON,NC,28032
195920,E,10 RIVERSIDE DR,,,,CRAMERTON,NC,28032
195935,E,543 BALTIMORE DR,,,,CRAMERTON,NC,28032
195936,E,545 BALTIMORE DR,,,,CRAMERTON,NC,28032
195937,E,547 BALTIMORE DR,,,,CRAMERTON,NC,28032
195938,E,549 BALTIMORE DR,,,,CRAMERTON,NC,28032
195939,E,557 PATTERSON ST,,,,CRAMERTON,NC,28032
195941,E,560 PATTERSON ST,,,,CRAMERTON,NC,28032
195942,E,559 PATTERSON ST,,,,CRAMERTON,NC,28032
195943,E,558 PATTERSON ST,,,,CRAMERTON,NC,28032
195944,E,556 PATTERSON ST,,,,CRAMERTON,NC,28032
195946,E,553 BALTIMORE DR,,,,CRAMERTON,NC,28032
195947,E,555 BALTIMORE DR,,,,CRAMERTON,NC,28032
195948,E,563 BALTIMORE DR,,,,CRAMERTON,NC,28032
195949,E,565 BALTIMORE DR,,,,CRAMERTON,NC,28032
195950,E,567 BALTIMORE DR,,,,CRAMERTON,NC,28032
195951,E,569 BALTIMORE DR,,,,CRAMERTON,NC,28032
195954,E,570 BALTIMORE DR,,,,CRAMERTON,NC,28032
195955,E,568 BALTIMORE DR,,,,CRAMERTON,NC,28032
195956,E,566 BALTIMORE DR,,,,CRAMERTON,NC,28032
195957,E,564 BALTIMORE DR,,,,CRAMERTON,NC,28032
195958,E,554 BALTIMORE DR,,,,CRAMERTON,NC,28032
195961,E,550 BALTIMORE DR,,,,CRAMERTON,NC,28032
195962,E,548 BALTIMORE DR,,,,CRAMERTON,NC,28032
195963,E,546 BALTIMORE DR,,,,CRAMERTON,NC,28032
195964,E,544 BALTIMORE DR,,,,CRAMERTON,NC,28032
195965,E,530 BALTIMORE DR,,,,CRAMERTON,NC,28032
195966,E,561 BALTIMORE DR,,,,CRAMERTON,NC,28032
195967,E,575 BALTIMORE DR,,,,CRAMERTON,NC,28032
195970,E,601 CRAMER MOUNTAIN RD,,,,GASTONIA,NC,28056
195974,E,2900 DODSWORTH DR,,,,CRAMERTON,NC,28032
195977,E,112 BOYTER CT,,,,CRAMERTON,NC,28032
195980,E,110 BOYTER CT,,,,CRAMERTON,NC,28032
195981,E,108 BOYTER CT,,,,CRAMERTON,NC,28032
195982,E,106 BOYTER CT,,,,CRAMERTON,NC,28032
195983,E,104 BOYTER CT,,,,CRAMERTON,NC,28032
195984,E,102 BOYTER CT,,,,CRAMERTON,NC,28032
195985,E,301 MAYMONT DR,,,,CRAMERTON,NC,28032
195986,E,303 MAYMONT DR,,,,CRAMERTON,NC,28032
195987,E,2909 DODSWORTH DR,,,,CRAMERTON,NC,28032
195988,E,302 MAYMONT DR,,,,CRAMERTON,NC,28032
195989,E,303 U MAYMONT DR,,,,CRAMERTON,NC,28032
195990,E,305 MAYMONT DR,,,,CRAMERTON,NC,28032
195991,E,203 MAYS MILLS DR,,,,CRAMERTON,NC,28032
195993,E,205 MAYS MILLS DR,,,,CRAMERTON,NC,28032
195994,E,101 BERRY MOUNTAIN RD,,,,CRAMERTON,NC,28032
195997,E,105 BERRY MOUNTAIN RD,,,,CRAMERTON,NC,28032
195998,E,109 BERRY MOUNTAIN RD,,,,CRAMERTON,NC,28032
196000,E,116 BERRY MOUNTAIN RD,,,,CRAMERTON,NC,28032
196001,E,114 BERRY MOUNTAIN RD,,,,CRAMERTON,NC,28032
196002,E,112 BERRY MOUNTAIN RD,,,,CRAMERTON,NC,28032
196003,E,110 BERRY MOUNTAIN RD,,,,CRAMERTON,NC,28032
196004,E,413 MAYMONT DR,,,,CRAMERTON,NC,28032
196005,E,104 BERRY MOUNTAIN RD,,,,CRAMERTON,NC,28032
196006,E,403 MAYMONT DR,,,,CRAMERTON,NC,28032
196007,E,200 MAYS MILLS DR,,,,CRAMERTON,NC,28032
196009,E,104 OLD DAM WAY,,,,CRAMERTON,NC,28032
196010,E,103 OLD DAM WAY,,,,CRAMERTON,NC,28032
196011,E,108 OLD DAM WAY,,,,CRAMERTON,NC,28032
196012,E,400 MAYMONT DR,,,,CRAMERTON,NC,28032
196013,E,404 MAYMONT DR,,,,CRAMERTON,NC,28032
196014,E,406 MAYMONT DR,,,,CRAMERTON,NC,28032
196015,E,408 MAYMONT DR,,,,CRAMERTON,NC,28032
196016,E,410 MAYMONT DR,,,,CRAMERTON,NC,28032
196017,E,414 MAYMONT DR,,,,CRAMERTON,NC,28032
196019,E,118 BERRY MOUNTAIN RD,,,,CRAMERTON,NC,28032
196020,E,120 BERRY MOUNTAIN RD,,,,CRAMERTON,NC,28032
196021,E,122 BERRY MOUNTAIN RD,,,,CRAMERTON,NC,28032
196023,E,126 BERRY MOUNTAIN RD,,,,CRAMERTON,NC,28032
196025,E,130 BERRY MOUNTAIN RD,,,,CRAMERTON,NC,28032
196026,E,132 BERRY MOUNTAIN RD,,,,CRAMERTON,NC,28032
196027,E,134 BERRY MOUNTAIN RD,,,,CRAMERTON,NC,28032
196028,E,123 BERRY MOUNTAIN RD,,,,CRAMERTON,NC,28032
196030,E,121 BERRY MOUNTAIN RD,,,,CRAMERTON,NC,28032
196031,E,127 BERRY MOUNTAIN RD,,,,CRAMERTON,NC,28032
196033,E,148 BERRY MOUNTAIN RD,,,,CRAMERTON,NC,28032
196034,E,137 BERRY MOUNTAIN RD,,,,CRAMERTON,NC,28032
196038,E,138 BERRY MOUNTAIN RD,,,,CRAMERTON,NC,28032
196039,E,136 BERRY MOUNTAIN RD,,,,CRAMERTON,NC,28032
196040,E,104 HIDDEN PASTURES DR,,,,CRAMERTON,NC,28032
196041,E,106 HIDDEN PASTURES DR,,,,CRAMERTON,NC,28032
196042,E,108 HIDDEN PASTURES DR,,,,CRAMERTON,NC,28032
196043,E,110 HIDDEN PASTURES DR,,,,CRAMERTON,NC,28032
196044,E,112 HIDDEN PASTURES DR,,,,CRAMERTON,NC,28032
196045,E,114 HIDDEN PASTURES DR,,,,CRAMERTON,NC,28032
196046,E,116 HIDDEN PASTURES DR,,,,CRAMERTON,NC,28032
196047,E,118 HIDDEN PASTURES DR,,,,CRAMERTON,NC,28032
196048,E,610 HANNA WOODS DR,,,,CRAMERTON,NC,28032
196049,E,614 HANNA WOODS DR,,,,CRAMERTON,NC,28032
196050,E,615 HANNA WOODS DR,,,,CRAMERTON,NC,28032
196051,E,611 HANNA WOODS DR,,,,CRAMERTON,NC,28032
196052,E,107 HIDDEN PASTURES DR,,,,CRAMERTON,NC,28032
196053,E,105 HIDDEN PASTURES DR,,,,CRAMERTON,NC,28032
196054,E,103 HIDDEN PASTURES DR,,,,CRAMERTON,NC,28032
196055,E,101 HIDDEN PASTURES DR,,,,CRAMERTON,NC,28032
196056,E,231 MAYS MILLS DR,,,,CRAMERTON,NC,28032
196057,E,229 MAYS MILLS DR,,,,CRAMERTON,NC,28032
196058,E,227 MAYS MILLS DR,,,,CRAMERTON,NC,28032
196059,E,225 MAYS MILLS DR,,,,CRAMERTON,NC,28032
196060,E,223 MAYS MILLS DR,,,,CRAMERTON,NC,28032
196061,E,221 MAYS MILLS DR,,,,CRAMERTON,NC,28032
196062,E,219 MAYS MILLS DR,,,,CRAMERTON,NC,28032
196063,E,217 MAYS MILLS DR,,,,CRAMERTON,NC,28032
196064,E,215 MAYS MILLS DR,,,,CRAMERTON,NC,28032
196067,E,302 LORD CT,,,,CRAMERTON,NC,28032
196068,E,304 LORD CT,,,,CRAMERTON,NC,28032
196069,E,306 LORD CT,,,,CRAMERTON,NC,28032
196070,E,308 LORD CT,,,,CRAMERTON,NC,28032
196071,E,305 LORD CT,,,,CRAMERTON,NC,28032
196074,E,208 MAYS MILLS DR,,,,CRAMERTON,NC,28032
196075,E,210 MAYS MILLS DR,,,,CRAMERTON,NC,28032
196076,E,212 MAYS MILLS DR,,,,CRAMERTON,NC,28032
196077,E,214 MAYS MILLS DR,,,,CRAMERTON,NC,28032
196078,E,218 MAYS MILLS DR,,,,CRAMERTON,NC,28032
196079,E,222 MAYS MILLS DR,,,,CRAMERTON,NC,28032
196083,E,500 CRAMER MOUNTAIN RD,,,,CRAMERTON,NC,28032
196088,E,5441 OLD COURSE DR,,,,CRAMERTON,NC,28032
196089,E,5439 OLD COURSE DR,,,,CRAMERTON,NC,28032
196090,E,5437 OLD COURSE DR,,,,CRAMERTON,NC,28032
196091,E,5435 OLD COURSE DR,,,,CRAMERTON,NC,28032
196092,E,5433 OLD COURSE DR,,,,CRAMERTON,NC,28032
196093,E,5431 OLD COURSE DR,,,,CRAMERTON,NC,28032
196094,E,5427 ANDERSON CT,,,,CRAMERTON,NC,28032
196095,E,5429 OLD COURSE DR,,,,CRAMERTON,NC,28032
196096,E,5425 ANDERSON CT,,,,CRAMERTON,NC,28032
196097,E,5423 ANDERSON CT,,,,CRAMERTON,NC,28032
196098,E,5421 ANDERSON CT,,,,CRAMERTON,NC,28032
196100,E,5417 ANDERSON CT,,,,CRAMERTON,NC,28032
196101,E,5415 ANDERSON CT,,,,CRAMERTON,NC,28032
196102,E,5413 ANDERSON CT,,,,CRAMERTON,NC,28032
196103,E,5411 OLD COURSE DR,,,,CRAMERTON,NC,28032
196106,E,5442 WELCH CT,,,,CRAMERTON,NC,28032
196107,E,5440 WELCH CT,,,,CRAMERTON,NC,28032
196108,E,5438 WELCH CT,,,,CRAMERTON,NC,28032
196109,E,5436 WELCH CT,,,,CRAMERTON,NC,28032
196110,E,5434 OLD COURSE DR,,,,CRAMERTON,NC,28032
196111,E,5432 OLD COURSE DR,,,,CRAMERTON,NC,28032
196114,E,5430 OLD COURSE DR,,,,CRAMERTON,NC,28032
196115,E,5428 OLD COURSE DR,,,,CRAMERTON,NC,28032
196116,E,5426 OLD COURSE DR,,,,CRAMERTON,NC,28032
196119,E,5420 DAWSON CT,,,,CRAMERTON,NC,28032
196120,E,5418 DAWSON CT,,,,CRAMERTON,NC,28032
196121,E,5416 DAWSON CT,,,,CRAMERTON,NC,28032
196122,E,5414 DAWSON CT,,,,CRAMERTON,NC,28032
196123,E,5412 OLD COURSE DR,,,,CRAMERTON,NC,28032
196124,E,5410 OLD COURSE DR,,,,CRAMERTON,NC,28032
196126,E,416 MAYMONT DR,,,,CRAMERTON,NC,28032
196127,E,418 MAYMONT DR,,,,CRAMERTON,NC,28032
196128,E,100 CRAMER MOUNTAIN WOODS,,,,CRAMERTON,NC,28032
196129,E,102 CRAMER MOUNTAIN WOODS,,,,CRAMERTON,NC,28032
196130,E,104 CRAMER MOUNTAIN WOODS,,,,CRAMERTON,NC,28032
196131,E,106 CRAMER MOUNTAIN WOODS,,,,CRAMERTON,NC,28032
196132,E,108 CRAMER MOUNTAIN WOODS,,,,CRAMERTON,NC,28032
196133,E,110 CRAMER MOUNTAIN WOODS,,,,CRAMERTON,NC,28032
196134,E,112 CRAMER MOUNTAIN WOODS,,,,CRAMERTON,NC,28032
196135,E,114 CRAMER MOUNTAIN WOODS,,,,CRAMERTON,NC,28032
196136,E,109 CRAMER MOUNTAIN WOODS,,,,CRAMERTON,NC,28032
196137,E,118 CRAMER MOUNTAIN WOODS,,,,CRAMERTON,NC,28032
196138,E,200 KEYHOLE CT,,,,CRAMERTON,NC,28032
196139,E,202 KEYHOLE CT,,,,CRAMERTON,NC,28032
196140,E,204 KEYHOLE CT,,,,CRAMERTON,NC,28032
196141,E,206 KEYHOLE CT,,,,CRAMERTON,NC,28032
196142,E,208 KEYHOLE CT,,,,CRAMERTON,NC,28032
196143,E,210 KEYHOLE CT,,,,CRAMERTON,NC,28032
196144,E,212 KEYHOLE CT,,,,CRAMERTON,NC,28032
196145,E,101 CRAMER MOUNTAIN WOODS,,,,CRAMERTON,NC,28032
196146,E,420 MAYMONT DR,,,,CRAMERTON,NC,28032
196147,E,424 MAYMONT DR,,,,CRAMERTON,NC,28032
196148,E,428 MAYMONT DR,,,,CRAMERTON,NC,28032
196149,E,506 MAYMONT DR,,,,CRAMERTON,NC,28032
196152,E,514 MAYMONT DR,,,,CRAMERTON,NC,28032
196154,E,507 MAYMONT DR,,,,CRAMERTON,NC,28032
196155,E,509 MAYMONT DR,,,,CRAMERTON,NC,28032
196156,E,511 MAYMONT DR,,,,CRAMERTON,NC,28032
196157,E,513 MAYMONT DR,,,,CRAMERTON,NC,28032
196158,E,506 STUART RIDGE,,,,CRAMERTON,NC,28032
196161,E,514 STUART RIDGE,,,,CRAMERTON,NC,28032
196162,E,516 STUART RIDGE,,,,CRAMERTON,NC,28032
196163,E,518 STUART RIDGE,,,,CRAMERTON,NC,28032
196164,E,100 MAYFLOWER CT,,,,CRAMERTON,NC,28032
196165,E,101 MAYFLOWER CT,,,,CRAMERTON,NC,28032
196166,E,103 MAYFLOWER CT,,,,CRAMERTON,NC,28032
196170,E,526 STUART RIDGE,,,,CRAMERTON,NC,28032
196171,E,528 STUART RIDGE,,,,CRAMERTON,NC,28032
196172,E,530 STUART RIDGE,,,,CRAMERTON,NC,28032
196173,E,529 STUART RIDGE,,,,CRAMERTON,NC,28032
196174,E,527 STUART RIDGE,,,,CRAMERTON,NC,28032
196175,E,525 STUART RIDGE,,,,CRAMERTON,NC,28032
196176,E,523 STUART RIDGE,,,,CRAMERTON,NC,28032
196177,E,521 STUART RIDGE,,,,CRAMERTON,NC,28032
196178,E,519 STUART RIDGE,,,,CRAMERTON,NC,28032
196179,E,517 STUART RIDGE,,,,CRAMERTON,NC,28032
196180,E,515 STUART RIDGE,,,,CRAMERTON,NC,28032
196181,E,513 STUART RIDGE,,,,CRAMERTON,NC,28032
196182,E,511 STUART RIDGE,,,,CRAMERTON,NC,28032
196183,E,202 TINKHAM TRL,,,,CRAMERTON,NC,28032
196184,E,204 TINKHAM TRL,,,,CRAMERTON,NC,28032
196185,E,206 TINKHAM TRL,,,,CRAMERTON,NC,28032
196186,E,208 TINKHAM TRL,,,,CRAMERTON,NC,28032
196187,E,209 TINKHAM TRL,,,,CRAMERTON,NC,28032
196188,E,207 TINKHAM TRL,,,,CRAMERTON,NC,28032
196189,E,205 TINKHAM TRL,,,,CRAMERTON,NC,28032
196190,E,203 TINKHAM TRL,,,,CRAMERTON,NC,28032
196191,E,509 STUART RIDGE,,,,CRAMERTON,NC,28032
196192,E,505 STUART RIDGE,,,,CRAMERTON,NC,28032
196193,E,302 MAYWORTH WAY,,,,CRAMERTON,NC,28032
196194,E,304 MAYWORTH WAY,,,,CRAMERTON,NC,28032
196195,E,306 MAYWORTH WAY,,,,CRAMERTON,NC,28032
196196,E,308 MAYWORTH WAY,,,,CRAMERTON,NC,28032
196198,E,311 MAYWORTH WAY,,,,CRAMERTON,NC,28032
196199,E,309 MAYWORTH WAY,,,,CRAMERTON,NC,28032
196202,E,303 MAYWORTH WAY,,,,CRAMERTON,NC,28032
196203,E,301 MAYWORTH WAY,,,,CRAMERTON,NC,28032
196204,E,503 STUART RIDGE,,,,CRAMERTON,NC,28032
196205,E,501 STUART RIDGE,,,,CRAMERTON,NC,28032
196206,E,503 MAYMONT DR,,,,CRAMERTON,NC,28032
196207,E,402 MAJOR RUN,,,,CRAMERTON,NC,28032
196208,E,404 MAJOR RUN,,,,CRAMERTON,NC,28032
196209,E,406 MAJOR RUN,,,,CRAMERTON,NC,28032
196210,E,408 MAJOR RUN,,,,CRAMERTON,NC,28032
196211,E,410 MAJOR RUN,,,,CRAMERTON,NC,28032
196212,E,412 MAJOR RUN,,,,CRAMERTON,NC,28032
196213,E,414 MAJOR RUN,,,,CRAMERTON,NC,28032
196214,E,415 MAJOR RUN,,,,CRAMERTON,NC,28032
196215,E,413 MAJOR RUN,,,,CRAMERTON,NC,28032
196216,E,411 MAJOR RUN,,,,CRAMERTON,NC,28032
196219,E,405 MAJOR RUN,,,,CRAMERTON,NC,28032
196220,E,403 MAJOR RUN,,,,CRAMERTON,NC,28032
196221,E,501 MAYMONT DR,,,,CRAMERTON,NC,28032
196222,E,150 HIDDEN PASTURES DR,,,,CRAMERTON,NC,28032
196223,E,148 HIDDEN PASTURES DR,,,,CRAMERTON,NC,28032
196224,E,1005 DAN MAPLES DR,,,,CRAMERTON,NC,28032
196225,E,144 HIDDEN PASTURES DR,,,,CRAMERTON,NC,28032
196226,E,142 HIDDEN PASTURES DR,,,,CRAMERTON,NC,28032
196227,E,140 HIDDEN PASTURES DR,,,,CRAMERTON,NC,28032
196228,E,138 HIDDEN PASTURES DR,,,,CRAMERTON,NC,28032
196229,E,136 HIDDEN PASTURES DR,,,,CRAMERTON,NC,28032
196230,E,134 HIDDEN PASTURES DR,,,,CRAMERTON,NC,28032
196231,E,132 HIDDEN PASTURES DR,,,,CRAMERTON,NC,28032
196232,E,204 GALEY RIDGE,,,,CRAMERTON,NC,28032
196233,E,203 GALEY RIDGE,,,,CRAMERTON,NC,28032
196234,E,202 GALEY RIDGE,,,,CRAMERTON,NC,28032
196235,E,201 GALEY RIDGE,,,,CRAMERTON,NC,28032
196236,E,200 GALEY RIDGE,,,,CRAMERTON,NC,28032
196237,E,128 HIDDEN PASTURES DR,,,,CRAMERTON,NC,28032
196238,E,126 HIDDEN PASTURES DR,,,,CRAMERTON,NC,28032
196239,E,124 HIDDEN PASTURES DR,,,,CRAMERTON,NC,28032
196240,E,122 HIDDEN PASTURES DR,,,,CRAMERTON,NC,28032
196241,E,120 HIDDEN PASTURES DR,,,,CRAMERTON,NC,28032
196242,E,101 FLATROCK PASTURES DR,,,,CRAMERTON,NC,28032
196243,E,103 FLATROCK PASTURES DR,,,,CRAMERTON,NC,28032
196244,E,105 FLATROCK PASTURES DR,,,,CRAMERTON,NC,28032
196245,E,107 FLATROCK PASTURES DR,,,,CRAMERTON,NC,28032
196246,E,109 FLATROCK PASTURES DR,,,,CRAMERTON,NC,28032
196247,E,111 FLATROCK PASTURES DR,,,,CRAMERTON,NC,28032
196248,E,113 FLATROCK PASTURES DR,,,,CRAMERTON,NC,28032
196249,E,115 FLATROCK PASTURES DR,,,,CRAMERTON,NC,28032
196250,E,1023 DAN MAPLES DR,,,,CRAMERTON,NC,28032
196251,E,1027 DAN MAPLES DR,,,,CRAMERTON,NC,28032
196252,E,611 ELLIS CT,,,,CRAMERTON,NC,28032
196253,E,612 ELLIS CT,,,,CRAMERTON,NC,28032
196254,E,610 ELLIS CT,,,,CRAMERTON,NC,28032
196260,E,1040 DAN MAPLES DR,,,,CRAMERTON,NC,28032
196261,E,1036 DAN MAPLES DR,,,,CRAMERTON,NC,28032
196262,E,1032 DAN MAPLES DR,,,,CRAMERTON,NC,28032
196263,E,1028 DAN MAPLES DR,,,,CRAMERTON,NC,28032
196271,E,2926 DODSWORTH DR,,,,CRAMERTON,NC,28032
196272,E,3000 DODSWORTH DR,,,,CRAMERTON,NC,28032
196273,E,3002 DODSWORTH DR,,,,CRAMERTON,NC,28032
196278,E,3012 DODSWORTH DR,,,,CRAMERTON,NC,28032
196281,E,3018 DODSWORTH DR,,,,CRAMERTON,NC,28032
196282,E,3020 DODSWORTH DR,,,,CRAMERTON,NC,28032
196283,E,3022 DODSWORTH DR,,,,CRAMERTON,NC,28032
196284,E,3024 DODSWORTH DR,,,,CRAMERTON,NC,28032
196285,E,3046 DODSWORTH DR,,,,CRAMERTON,NC,28032
196286,E,3035 DODSWORTH DR,,,,CRAMERTON,NC,28032
196287,E,3033 DODSWORTH DR,,,,CRAMERTON,NC,28032
196288,E,3031 DODSWORTH DR,,,,CRAMERTON,NC,28032
196289,E,3029 DODSWORTH DR,,,,CRAMERTON,NC,28032
196290,E,3025 DODSWORTH DR,,,,CRAMERTON,NC,28032
196291,E,3021 DODSWORTH DR,,,,CRAMERTON,NC,28032
196292,E,3017 DODSWORTH DR,,,,CRAMERTON,NC,28032
196293,E,3011 DODSWORTH DR,,,,CRAMERTON,NC,28032
196296,E,201 FLATROCK PASTURES DR,,,,CRAMERTON,NC,28032
196297,E,203 FLATROCK PASTURES DR,,,,CRAMERTON,NC,28032
196298,E,205 FLATROCK PASTURES DR,,,,CRAMERTON,NC,28032
196299,E,207 FLATROCK PASTURES DR,,,,CRAMERTON,NC,28032
196300,E,209 FLATROCK PASTURES DR,,,,CRAMERTON,NC,28032
196301,E,211 FLATROCK PASTURES DR,,,,CRAMERTON,NC,28032
196302,E,213 FLATROCK PASTURES DR,,,,CRAMERTON,NC,28032
196303,E,215 FLATROCK PASTURES DR,,,,CRAMERTON,NC,28032
196306,E,522 MAYMONT DR,,,,CRAMERTON,NC,28032
196307,E,600 MAYMONT DR,,,,CRAMERTON,NC,28032
196308,E,200 CRAMER MOUNTAIN RD,,,,CRAMERTON,NC,28032
196309,E,426 WOODLAWN AVE,,,,CRAMERTON,NC,28032
196310,E,427 WOODLAWN AVE,,,,CRAMERTON,NC,28032
196313,E,235 CRAMERTON RD,,,,GASTONIA,NC,28056
196316,E,125 HAMPTON CT,,,,CRAMERTON,NC,28032
196317,E,2000 HAMPTON MEADOWS LN,,,,CRAMERTON,NC,28032
196318,E,299 TWELFTH ST,,,,CRAMERTON,NC,28032
196321,E,469 EIGHTEENTH ST,,,,CRAMERTON,NC,28032
198788,E,7003 DOLPHIN ST,,,,GASTONIA,NC,28056
198789,E,7007 DOLPHIN ST,,,,GASTONIA,NC,28056
198790,E,7105 MARLIN ST,,,,GASTONIA,NC,28056
198791,E,7109 MARLIN ST,,,,GASTONIA,NC,28056
198792,E,7111 MARLIN ST,,,,GASTONIA,NC,28056
198793,E,7115 MARLIN ST,,,,GASTONIA,NC,28056
198794,E,7119 MARLIN ST,,,,GASTONIA,NC,28056
198795,E,7123 MARLIN ST,,,,GASTONIA,NC,28056
198796,E,7125 MARLIN ST,,,,GASTONIA,NC,28056
198797,E,7127 MARLIN ST,,,,GASTONIA,NC,28056
198798,E,7131 MARLIN ST,,,,GASTONIA,NC,28056
198799,E,7133 MARLIN ST,,,,GASTONIA,NC,28056
198800,E,7137 MARLIN ST,,,,GASTONIA,NC,28056
198801,E,7143 MARLIN ST,,,,GASTONIA,NC,28056
198802,E,7145 MARLIN ST,,,,GASTONIA,NC,28056
198803,E,7147 MARLIN ST,,,,GASTONIA,NC,28056
198804,E,7149 MARLIN ST,,,,GASTONIA,NC,28056
198805,E,7153 MARLIN ST,,,,GASTONIA,NC,28056
198806,E,7159 MARLIN ST,,,,GASTONIA,NC,28056
198807,E,7163 MARLIN ST,,,,GASTONIA,NC,28056
198808,E,7167 MARLIN ST,,,,GASTONIA,NC,28056
198809,E,7171 MARLIN ST,,,,GASTONIA,NC,28056
198810,E,7177 MARLIN ST,,,,GASTONIA,NC,28056
198811,E,7178 MARLIN ST,,,,GASTONIA,NC,28056
198812,E,7176 MARLIN ST,,,,GASTONIA,NC,28056
198813,E,7174 MARLIN ST,,,,GASTONIA,NC,28056
198814,E,7170 MARLIN ST,,,,GASTONIA,NC,28056
198815,E,7166 MARLIN ST,,,,GASTONIA,NC,28056
198816,E,7160 MARLIN ST,,,,GASTONIA,NC,28056
198817,E,7201 POMPANO PL,,,,GASTONIA,NC,28056
198818,E,7205 POMPANO PL,,,,GASTONIA,NC,28056
198819,E,7209 POMPANO PL,,,,GASTONIA,NC,28056
198820,E,7213 POMPANO PL,,,,GASTONIA,NC,28056
198821,E,7217 POMPANO PL,,,,GASTONIA,NC,28056
198822,E,7219 POMPANO PL,,,,GASTONIA,NC,28056
198823,E,7221 POMPANO PL,,,,GASTONIA,NC,28056
198824,E,7225 POMPANO PL,,,,GASTONIA,NC,28056
198825,E,7227 POMPANO PL,,,,GASTONIA,NC,28056
198826,E,7229 POMPANO PL,,,,GASTONIA,NC,28056
198827,E,7230 POMPANO PL,,,,GASTONIA,NC,28056
198828,E,7228 POMPANO PL,,,,GASTONIA,NC,28056
198829,E,7224 POMPANO PL,,,,GASTONIA,NC,28056
198830,E,7222 POMPANO PL,,,,GASTONIA,NC,28056
198831,E,7303 WAHOO CT,,,,GASTONIA,NC,28056
198832,E,7305 WAHOO CT,,,,GASTONIA,NC,28056
198833,E,7306 WAHOO CT,,,,GASTONIA,NC,28056
198834,E,7304 WAHOO CT,,,,GASTONIA,NC,28056
198835,E,7302 WAHOO CT,,,,GASTONIA,NC,28056
198836,E,7300 WAHOO CT,,,,GASTONIA,NC,28056
198837,E,7212 POMPANO PL,,,,GASTONIA,NC,28056
198838,E,7208 POMPANO PL,,,,GASTONIA,NC,28056
198839,E,7204 POMPANO PL,,,,GASTONIA,NC,28056
198840,E,7200 POMPANO PL,,,,GASTONIA,NC,28056
198841,E,7015 DOLPHIN ST,,,,GASTONIA,NC,28056
198842,E,7110 MARLIN ST,,,,GASTONIA,NC,28056
198843,E,7114 MARLIN ST,,,,GASTONIA,NC,28056
198844,E,7118 MARLIN ST,,,,GASTONIA,NC,28056
198845,E,7122 MARLIN ST,,,,GASTONIA,NC,28056
198846,E,7130 MARLIN ST,,,,GASTONIA,NC,28056
198847,E,7134 MARLIN ST,,,,GASTONIA,NC,28056
198848,E,7138 MARLIN ST,,,,GASTONIA,NC,28056
198849,E,7144 MARLIN ST,,,,GASTONIA,NC,28056
198850,E,7148 MARLIN ST,,,,GASTONIA,NC,28056
198851,E,7152 MARLIN ST,,,,GASTONIA,NC,28056
198852,E,7047 DOLPHIN ST,,,,GASTONIA,NC,28056
198853,E,7043 DOLPHIN ST,,,,GASTONIA,NC,28056
198854,E,7039 DOLPHIN ST,,,,GASTONIA,NC,28056
198855,E,7035 DOLPHIN ST,,,,GASTONIA,NC,28056
198856,E,7031 DOLPHIN ST,,,,GASTONIA,NC,28056
198857,E,7027 DOLPHIN ST,,,,GASTONIA,NC,28056
198858,E,7023 DOLPHIN ST,,,,GASTONIA,NC,28056
198859,E,7019 DOLPHIN ST,,,,GASTONIA,NC,28056
198867,E,7002 DOLPHIN ST,,,,GASTONIA,NC,28056
198868,E,7006 DOLPHIN ST,,,,GASTONIA,NC,28056
198869,E,7010 DOLPHIN ST,,,,GASTONIA,NC,28056
198870,E,7014 DOLPHIN ST,,,,GASTONIA,NC,28056
199183,E,7 GROVES ST,,,,CRAMERTON,NC,28032
199651,E,7034 DOLPHIN ST,,,,GASTONIA,NC,28056
199729,E,69 RIVERSIDE DR,,,,CRAMERTON,NC,28032
199730,E,139 EIGHTH AVE,,,,CRAMERTON,NC,28032
199753,E,3321 HAWTHORNE LN,,,,BELMONT,NC,28012
202140,E,236 EIGHTH AVE,,,,CRAMERTON,NC,28032
202361,E,7021 WEAVERS RUN,,,,CRAMERTON,NC,28032
202362,E,7017 WEAVERS RUN,,,,CRAMERTON,NC,28032
202363,E,7013 WEAVERS RUN,,,,CRAMERTON,NC,28032
202364,E,7009 WEAVERS RUN,,,,CRAMERTON,NC,28032
202365,E,7005 WEAVERS RUN,,,,CRAMERTON,NC,28032
202366,E,7001 WEAVERS RUN,,,,CRAMERTON,NC,28032
202367,E,7000 WEAVERS RUN,,,,CRAMERTON,NC,28032
202368,E,7004 WEAVERS RUN,,,,CRAMERTON,NC,28032
202369,E,7008 WEAVERS RUN,,,,CRAMERTON,NC,28032
202370,E,7012 WEAVERS RUN,,,,CRAMERTON,NC,28032
202371,E,7204 PINFEATHER CIR,,,,CRAMERTON,NC,28032
202372,E,7208 PINFEATHER CIR,,,,CRAMERTON,NC,28032
202373,E,7212 PINFEATHER CIR,,,,CRAMERTON,NC,28032
202374,E,7209 PINFEATHER CIR,,,,CRAMERTON,NC,28032
202375,E,7205 PINFEATHER CIR,,,,CRAMERTON,NC,28032
202376,E,7016 WEAVERS RUN,,,,CRAMERTON,NC,28032
202377,E,7020 WEAVERS RUN,,,,CRAMERTON,NC,28032
202378,E,7304 GINGHAM DR,,,,CRAMERTON,NC,28032
202379,E,7308 GINGHAM DR,,,,CRAMERTON,NC,28032
202380,E,7312 GINGHAM DR,,,,CRAMERTON,NC,28032
202381,E,7309 GINGHAM DR,,,,CRAMERTON,NC,28032
202382,E,7305 GINGHAM DR,,,,CRAMERTON,NC,28032
202383,E,7100 WEAVERS RUN,,,,CRAMERTON,NC,28032
202384,E,7104 WEAVERS RUN,,,,CRAMERTON,NC,28032
202385,E,7108 WEAVERS RUN,,,,CRAMERTON,NC,28032
202386,E,7404 GABERDINE CT,,,,CRAMERTON,NC,28032
202387,E,7408 GABERDINE CT,,,,CRAMERTON,NC,28032
202388,E,7405 GABERDINE CT,,,,CRAMERTON,NC,28032
202389,E,7120 WEAVERS RUN,,,,CRAMERTON,NC,28032
202390,E,7124 WEAVERS RUN,,,,CRAMERTON,NC,28032
202391,E,7128 WEAVERS RUN,,,,CRAMERTON,NC,28032
202392,E,7132 WEAVERS RUN,,,,CRAMERTON,NC,28032
202393,E,7137 WEAVERS RUN,,,,CRAMERTON,NC,28032
202394,E,7133 WEAVERS RUN,,,,CRAMERTON,NC,28032
202395,E,7129 WEAVERS RUN,,,,CRAMERTON,NC,28032
202396,E,7125 WEAVERS RUN,,,,CRAMERTON,NC,28032
202397,E,7121 WEAVERS RUN,,,,CRAMERTON,NC,28032
202398,E,7117 WEAVERS RUN,,,,CRAMERTON,NC,28032
202399,E,7113 WEAVERS RUN,,,,CRAMERTON,NC,28032
202400,E,7109 WEAVERS RUN,,,,CRAMERTON,NC,28032
202401,E,7105 WEAVERS RUN,,,,CRAMERTON,NC,28032
202402,E,7101 WEAVERS RUN,,,,CRAMERTON,NC,28032
202446,E,3047 A MISTY HARBOR CIR,,,,CRAMERTON,NC,28032
202447,E,3047 B MISTY HARBOR CIR,,,,CRAMERTON,NC,28032
202448,E,3047 C MISTY HARBOR CIR,,,,CRAMERTON,NC,28032
202449,E,3047 D MISTY HARBOR CIR,,,,CRAMERTON,NC,28032
202450,E,3047 E MISTY HARBOR CIR,,,,CRAMERTON,NC,28032
202451,E,3047 F MISTY HARBOR CIR,,,,CRAMERTON,NC,28032
202452,E,3048 A MISTY HARBOR CIR,,,,CRAMERTON,NC,28032
202453,E,3048 B MISTY HARBOR CIR,,,,CRAMERTON,NC,28032
202454,E,3048 C MISTY HARBOR CIR,,,,CRAMERTON,NC,28032
202455,E,3048 D MISTY HARBOR CIR,,,,CRAMERTON,NC,28032
202456,E,3048 E MISTY HARBOR CIR,,,,CRAMERTON,NC,28032
202457,E,3048 F MISTY HARBOR CIR,,,,CRAMERTON,NC,28032
202458,E,3044 A MISTY HARBOR CIR,,,,CRAMERTON,NC,28032
202459,E,3044 B MISTY HARBOR CIR,,,,CRAMERTON,NC,28032
202460,E,3044 C MISTY HARBOR CIR,,,,CRAMERTON,NC,28032
202461,E,3044 D MISTY HARBOR CIR,,,,CRAMERTON,NC,28032
202486,E,3039 A MISTY HARBOR CIR,,,,CRAMERTON,NC,28032
202487,E,3039 B MISTY HARBOR CIR,,,,CRAMERTON,NC,28032
202488,E,3039 C MISTY HARBOR CIR,,,,CRAMERTON,NC,28032
202489,E,3039 D MISTY HARBOR CIR,,,,CRAMERTON,NC,28032
202490,E,3039 E MISTY HARBOR CIR,,,,CRAMERTON,NC,28032
202491,E,3039 F MISTY HARBOR CIR,,,,CRAMERTON,NC,28032
202492,E,5001 A RIVERBED LN,,,,CRAMERTON,NC,28032
202493,E,5001 B RIVERBED LN,,,,CRAMERTON,NC,28032
202494,E,5001 C RIVERBED LN,,,,CRAMERTON,NC,28032
202495,E,5001 D RIVERBED LN,,,,CRAMERTON,NC,28032
202496,E,5001 E RIVERBED LN,,,,CRAMERTON,NC,28032
202497,E,5001 F RIVERBED LN,,,,CRAMERTON,NC,28032
202498,E,5000 A RIVERBED LN,,,,CRAMERTON,NC,28032
202499,E,5000 B RIVERBED LN,,,,CRAMERTON,NC,28032
202500,E,5000 C RIVERBED LN,,,,CRAMERTON,NC,28032
202501,E,5000 D RIVERBED LN,,,,CRAMERTON,NC,28032
202502,E,5000 E RIVERBED LN,,,,CRAMERTON,NC,28032
202503,E,5000 F RIVERBED LN,,,,CRAMERTON,NC,28032
202504,E,3035 A MISTY HARBOR CIR,,,,CRAMERTON,NC,28032
202505,E,3035 B MISTY HARBOR CIR,,,,CRAMERTON,NC,28032
202506,E,3035 C MISTY HARBOR CIR,,,,CRAMERTON,NC,28032
202507,E,3035 D MISTY HARBOR CIR,,,,CRAMERTON,NC,28032
202508,E,3035 E MISTY HARBOR CIR,,,,CRAMERTON,NC,28032
202509,E,3035 F MISTY HARBOR CIR,,,,CRAMERTON,NC,28032
202510,E,3031 A MISTY HARBOR CIR,,,,CRAMERTON,NC,28032
202511,E,3031 B MISTY HARBOR CIR,,,,CRAMERTON,NC,28032
202512,E,3031 C MISTY HARBOR CIR,,,,CRAMERTON,NC,28032
202513,E,3031 D MISTY HARBOR CIR,,,,CRAMERTON,NC,28032
202514,E,3031 E MISTY HARBOR CIR,,,,CRAMERTON,NC,28032
202515,E,3031 F MISTY HARBOR CIR,,,,CRAMERTON,NC,28032
202516,E,3029 A MISTY HARBOR CIR,,,,CRAMERTON,NC,28032
202517,E,3029 B MISTY HARBOR CIR,,,,CRAMERTON,NC,28032
202518,E,3029 C MISTY HARBOR CIR,,,,CRAMERTON,NC,28032
202519,E,3029 D MISTY HARBOR CIR,,,,CRAMERTON,NC,28032
202520,E,3029 E MISTY HARBOR CIR,,,,CRAMERTON,NC,28032
202521,E,3029 F MISTY HARBOR CIR,,,,CRAMERTON,NC,28032
202522,E,3028 A MISTY HARBOR CIR,,,,CRAMERTON,NC,28032
202523,E,3028 B MISTY HARBOR CIR,,,,CRAMERTON,NC,28032
202524,E,3028 C MISTY HARBOR CIR,,,,CRAMERTON,NC,28032
202525,E,3028 D MISTY HARBOR CIR,,,,CRAMERTON,NC,28032
202526,E,3028 E MISTY HARBOR CIR,,,,CRAMERTON,NC,28032
202527,E,3028 F MISTY HARBOR CIR,,,,CRAMERTON,NC,28032
202528,E,3025 A MISTY HARBOR CIR,,,,CRAMERTON,NC,28032
202529,E,3025 B MISTY HARBOR CIR,,,,CRAMERTON,NC,28032
202530,E,3025 C MISTY HARBOR CIR,,,,CRAMERTON,NC,28032
202531,E,3025 D MISTY HARBOR CIR,,,,CRAMERTON,NC,28032
202532,E,3025 E MISTY HARBOR CIR,,,,CRAMERTON,NC,28032
202533,E,3025 F MISTY HARBOR CIR,,,,CRAMERTON,NC,28032
202549,E,5 GROVES ST,,,,CRAMERTON,NC,28032
203148,E,913 HOKE TRL,,,,CRAMERTON,NC,28032
203149,E,911 HOKE TRL,,,,CRAMERTON,NC,28032
203692,E,1000 TOMSHIRE DR,,,,GASTONIA,NC,28056
203693,E,1004 TOMSHIRE DR,,,,GASTONIA,NC,28056
203694,E,1008 TOMSHIRE DR,,,,GASTONIA,NC,28056
203695,E,1012 TOMSHIRE DR,,,,GASTONIA,NC,28056
203696,E,1016 TOMSHIRE DR,,,,GASTONIA,NC,28056
203698,E,1024 TOMSHIRE DR,,,,GASTONIA,NC,28056
203699,E,3004 LAURIE CT,,,,GASTONIA,NC,28056
203700,E,3008 LAURIE CT,,,,GASTONIA,NC,28056
203701,E,3009 LAURIE CT,,,,GASTONIA,NC,28056
203702,E,3005 LAURIE CT,,,,GASTONIA,NC,28056
203703,E,2000 TOMSHIRE DR,,,,GASTONIA,NC,28056
203704,E,2004 TOMSHIRE DR,,,,GASTONIA,NC,28056
203705,E,2008 TOMSHIRE DR,,,,GASTONIA,NC,28056
203706,E,2012 TOMSHIRE DR,,,,GASTONIA,NC,28056
203707,E,2016 TOMSHIRE DR,,,,GASTONIA,NC,28056
203708,E,2013 TOMSHIRE DR,,,,GASTONIA,NC,28056
203709,E,2009 TOMSHIRE DR,,,,GASTONIA,NC,28056
203710,E,2005 TOMSHIRE DR,,,,GASTONIA,NC,28056
203711,E,2001 TOMSHIRE DR,,,,GASTONIA,NC,28056
203712,E,1029 TOMSHIRE DR,,,,GASTONIA,NC,28056
203713,E,1025 TOMSHIRE DR,,,,GASTONIA,NC,28056
203714,E,1021 TOMSHIRE DR,,,,GASTONIA,NC,28056
203715,E,4033 AVERY PL,,,,GASTONIA,NC,28056
203716,E,4029 AVERY PL,,,,GASTONIA,NC,28056
203717,E,4025 AVERY PL,,,,GASTONIA,NC,28056
203720,E,4013 AVERY PL,,,,GASTONIA,NC,28056
203721,E,4009 AVERY PL,,,,GASTONIA,NC,28056
203722,E,4005 AVERY PL,,,,GASTONIA,NC,28056
203723,E,1001 TOMSHIRE DR,,,,GASTONIA,NC,28056
203724,E,4024 AVERY PL,,,,GASTONIA,NC,28056
203725,E,4028 AVERY PL,,,,GASTONIA,NC,28056
203726,E,4002 AVERY PL,,,,GASTONIA,NC,28056
203729,E,1000 U TOMSHIRE DR,,,,GASTONIA,NC,28056
204956,E,5800 WILKINSON BLVD,,,,BELMONT,NC,28012
204981,E,409 MAJOR RUN,,,,CRAMERTON,NC,28032
205306,E,4000 ST ANDREWS CT,,,,CRAMERTON,NC,28032
205307,E,4002 ST ANDREWS CT,,,,CRAMERTON,NC,28032
205308,E,4004 ST ANDREWS CT,,,,CRAMERTON,NC,28032
205309,E,4006 ST ANDREWS CT,,,,CRAMERTON,NC,28032
205312,E,4012 ST ANDREWS CT,,,,CRAMERTON,NC,28032
205313,E,4014 ST ANDREWS CT,,,,CRAMERTON,NC,28032
205314,E,4016 ST ANDREWS CT,,,,CRAMERTON,NC,28032
205315,E,4018 ST ANDREWS CT,,,,CRAMERTON,NC,28032
205316,E,4020 ST ANDREWS CT,,,,CRAMERTON,NC,28032
205317,E,4022 ST ANDREWS CT,,,,CRAMERTON,NC,28032
205318,E,4019 ST ANDREWS CT,,,,CRAMERTON,NC,28032
205319,E,4017 ST ANDREWS CT,,,,CRAMERTON,NC,28032
205320,E,4015 ST ANDREWS CT,,,,CRAMERTON,NC,28032
205321,E,4013 ST ANDREWS CT,,,,CRAMERTON,NC,28032
205322,E,4011 ST ANDREWS CT,,,,CRAMERTON,NC,28032
205323,E,4007 ST ANDREWS CT,,,,CRAMERTON,NC,28032
205324,E,4005 ST ANDREWS CT,,,,CRAMERTON,NC,28032
205325,E,4003 ST ANDREWS CT,,,,CRAMERTON,NC,28032
205326,E,4001 ST ANDREWS CT,,,,CRAMERTON,NC,28032
205327,E,5309 OLD COURSE DR,,,,CRAMERTON,NC,28032
205328,E,5305 OLD COURSE DR,,,,CRAMERTON,NC,28032
205331,E,5304 OLD COURSE DR,,,,CRAMERTON,NC,28032
205332,E,5306 OLD COURSE DR,,,,CRAMERTON,NC,28032
205333,E,5308 OLD COURSE DR,,,,CRAMERTON,NC,28032
205334,E,5310 OLD COURSE DR,,,,CRAMERTON,NC,28032
205335,E,5312 OLD COURSE DR,,,,CRAMERTON,NC,28032
205336,E,5314 OLD COURSE DR,,,,CRAMERTON,NC,28032
205337,E,5316 OLD COURSE DR,,,,CRAMERTON,NC,28032
205338,E,5400 OLD COURSE DR,,,,CRAMERTON,NC,28032
205399,E,7022 DOLPHIN ST,,,,GASTONIA,NC,28056
205400,E,7026 DOLPHIN ST,,,,GASTONIA,NC,28056
207680,E,6004 A BOATHOUSE LN,,,,CRAMERTON,NC,28032
207681,E,6004 B BOATHOUSE LN,,,,CRAMERTON,NC,28032
207682,E,6004 C BOATHOUSE LN,,,,CRAMERTON,NC,28032
207683,E,6004 D BOATHOUSE LN,,,,CRAMERTON,NC,28032
207684,E,6004 E BOATHOUSE LN,,,,CRAMERTON,NC,28032
207685,E,6000 A BOATHOUSE LN,,,,CRAMERTON,NC,28032
207687,E,6000 B BOATHOUSE LN,,,,CRAMERTON,NC,28032
207688,E,6000 C BOATHOUSE LN,,,,CRAMERTON,NC,28032
207689,E,6000 D BOATHOUSE LN,,,,CRAMERTON,NC,28032
207690,E,6000 E BOATHOUSE LN,,,,CRAMERTON,NC,28032
207691,E,6001 A BOATHOUSE LN,,,,CRAMERTON,NC,28032
207697,E,6001 B BOATHOUSE LN,,,,CRAMERTON,NC,28032
207698,E,6001 C BOATHOUSE LN,,,,CRAMERTON,NC,28032
207699,E,6001 D BOATHOUSE LN,,,,CRAMERTON,NC,28032
207700,E,6001 E BOATHOUSE LN,,,,CRAMERTON,NC,28032
207723,E,6005 A BOATHOUSE LN,,,,CRAMERTON,NC,28032
207724,E,6005 B BOATHOUSE LN,,,,CRAMERTON,NC,28032
207725,E,6005 C BOATHOUSE LN,,,,CRAMERTON,NC,28032
207726,E,6005 D BOATHOUSE LN,,,,CRAMERTON,NC,28032
207727,E,6005 E BOATHOUSE LN,,,,CRAMERTON,NC,28032
207788,E,1001 OLD CHESTNUT WAY,,,,CRAMERTON,NC,28032
207789,E,1005 OLD CHESTNUT WAY,,,,CRAMERTON,NC,28032
207790,E,1009 OLD CHESTNUT WAY,,,,CRAMERTON,NC,28032
207791,E,2032 PIN OAK PL,,,,CRAMERTON,NC,28032
207792,E,2028 PIN OAK PL,,,,CRAMERTON,NC,28032
207793,E,2024 PIN OAK PL,,,,CRAMERTON,NC,28032
207794,E,2020 PIN OAK PL,,,,CRAMERTON,NC,28032
207795,E,2016 PIN OAK PL,,,,CRAMERTON,NC,28032
207796,E,2012 PIN OAK PL,,,,CRAMERTON,NC,28032
207797,E,2001 PIN OAK PL,,,,CRAMERTON,NC,28032
207798,E,2005 PIN OAK PL,,,,CRAMERTON,NC,28032
207799,E,2009 PIN OAK PL,,,,CRAMERTON,NC,28032
207800,E,2013 PIN OAK PL,,,,CRAMERTON,NC,28032
207801,E,2017 PIN OAK PL,,,,CRAMERTON,NC,28032
207802,E,2021 PIN OAK PL,,,,CRAMERTON,NC,28032
207803,E,2025 PIN OAK PL,,,,CRAMERTON,NC,28032
207804,E,2029 PIN OAK PL,,,,CRAMERTON,NC,28032
207805,E,2033 PIN OAK PL,,,,CRAMERTON,NC,28032
207806,E,2037 PIN OAK PL,,,,CRAMERTON,NC,28032
207807,E,2041 PIN OAK PL,,,,CRAMERTON,NC,28032
207808,E,2045 PIN OAK PL,,,,CRAMERTON,NC,28032
207809,E,2049 PIN OAK PL,,,,CRAMERTON,NC,28032
207810,E,2053 PIN OAK PL,,,,CRAMERTON,NC,28032
207811,E,2057 PIN OAK PL,,,,CRAMERTON,NC,28032
207812,E,2061 PIN OAK PL,,,,CRAMERTON,NC,28032
207813,E,2065 PIN OAK PL,,,,CRAMERTON,NC,28032
207814,E,2069 PIN OAK PL,,,,CRAMERTON,NC,28032
207815,E,2073 PIN OAK PL,,,,CRAMERTON,NC,28032
207816,E,2077 PIN OAK PL,,,,CRAMERTON,NC,28032
207817,E,2072 PIN OAK PL,,,,CRAMERTON,NC,28032
207818,E,2068 PIN OAK PL,,,,CRAMERTON,NC,28032
207819,E,2064 PIN OAK PL,,,,CRAMERTON,NC,28032
207820,E,2060 PIN OAK PL,,,,CRAMERTON,NC,28032
207821,E,2056 PIN OAK PL,,,,CRAMERTON,NC,28032
207822,E,2052 PIN OAK PL,,,,CRAMERTON,NC,28032
207823,E,2048 PIN OAK PL,,,,CRAMERTON,NC,28032
207824,E,1020 OLD CHESTNUT WAY,,,,CRAMERTON,NC,28032
207825,E,1016 OLD CHESTNUT WAY,,,,CRAMERTON,NC,28032
207826,E,1012 OLD CHESTNUT WAY,,,,CRAMERTON,NC,28032
207827,E,1008 OLD CHESTNUT WAY,,,,CRAMERTON,NC,28032
207828,E,1001 A OLD CHESTNUT WAY,,,,CRAMERTON,NC,28032
208723,E,3406 SHADY COVE CT,,,,BELMONT,NC,28012
208724,E,2600 GREENMONT CIR,,,,BELMONT,NC,28012
208725,E,2601 GREENMONT CIR,,,,BELMONT,NC,28012
208726,E,2607 GREENMONT CIR,,,,BELMONT,NC,28012
208727,E,2613 GREENMONT CIR,,,,BELMONT,NC,28012
209250,E,5001 NEWPORT LANDING WAY,,,,GASTONIA,NC,28056
209251,E,5005 NEWPORT LANDING WAY,,,,GASTONIA,NC,28056
209252,E,5009 NEWPORT LANDING WAY,,,,GASTONIA,NC,28056
209253,E,5013 NEWPORT LANDING WAY,,,,GASTONIA,NC,28056
209254,E,5017 NEWPORT LANDING WAY,,,,GASTONIA,NC,28056
209255,E,5021 NEWPORT LANDING WAY,,,,GASTONIA,NC,28056
209256,E,5025 NEWPORT LANDING WAY,,,,GASTONIA,NC,28056
209257,E,6001 CARSON SPRINGS CT,,,,GASTONIA,NC,28056
209258,E,6005 CARSON SPRINGS CT,,,,GASTONIA,NC,28056
209259,E,6009 CARSON SPRINGS CT,,,,GASTONIA,NC,28056
209260,E,6008 CARSON SPRINGS CT,,,,GASTONIA,NC,28056
209261,E,6004 CARSON SPRINGS CT,,,,GASTONIA,NC,28056
209262,E,6000 CARSON SPRINGS CT,,,,GASTONIA,NC,28056
209263,E,5115 NEWPORT LANDING WAY,,,,GASTONIA,NC,28056
209264,E,5119 NEWPORT LANDING WAY,,,,GASTONIA,NC,28056
209265,E,7001 COPPER RIDGE CT,,,,GASTONIA,NC,28056
209266,E,7005 COPPER RIDGE CT,,,,GASTONIA,NC,28056
209267,E,7009 COPPER RIDGE CT,,,,GASTONIA,NC,28056
209268,E,7008 COPPER RIDGE CT,,,,GASTONIA,NC,28056
209269,E,7004 COPPER RIDGE CT,,,,GASTONIA,NC,28056
209270,E,7000 COPPER RIDGE CT,,,,GASTONIA,NC,28056
209271,E,5224 NEWPORT LANDING WAY,,,,GASTONIA,NC,28056
209272,E,5220 NEWPORT LANDING WAY,,,,GASTONIA,NC,28056
209273,E,5216 NEWPORT LANDING WAY,,,,GASTONIA,NC,28056
209274,E,5212 NEWPORT LANDING WAY,,,,GASTONIA,NC,28056
209275,E,5208 NEWPORT LANDING WAY,,,,GASTONIA,NC,28056
209276,E,5204 NEWPORT LANDING WAY,,,,GASTONIA,NC,28056
209277,E,5200 NEWPORT LANDING WAY,,,,GASTONIA,NC,28056
209278,E,5140 NEWPORT LANDING WAY,,,,GASTONIA,NC,28056
209279,E,5136 NEWPORT LANDING WAY,,,,GASTONIA,NC,28056
209280,E,5132 NEWPORT LANDING WAY,,,,GASTONIA,NC,28056
209281,E,5128 NEWPORT LANDING WAY,,,,GASTONIA,NC,28056
209282,E,5124 NEWPORT LANDING WAY,,,,GASTONIA,NC,28056
209283,E,5120 NEWPORT LANDING WAY,,,,GASTONIA,NC,28056
209284,E,5116 NEWPORT LANDING WAY,,,,GASTONIA,NC,28056
209285,E,5112 NEWPORT LANDING WAY,,,,GASTONIA,NC,28056
209286,E,5108 NEWPORT LANDING WAY,,,,GASTONIA,NC,28056
209287,E,5104 NEWPORT LANDING WAY,,,,GASTONIA,NC,28056
209288,E,5100 NEWPORT LANDING WAY,,,,GASTONIA,NC,28056
209289,E,5036 NEWPORT LANDING WAY,,,,GASTONIA,NC,28056
209290,E,5032 NEWPORT LANDING WAY,,,,GASTONIA,NC,28056
209291,E,5028 NEWPORT LANDING WAY,,,,GASTONIA,NC,28056
209292,E,5024 NEWPORT LANDING WAY,,,,GASTONIA,NC,28056
209293,E,5020 NEWPORT LANDING WAY,,,,GASTONIA,NC,28056
209727,E,501 CRAMER MOUNTAIN RD,,,,CRAMERTON,NC,28032
209870,E,3010 DODSWORTH DR,,,,CRAMERTON,NC,28032
210114,E,4269 S NEW HOPE RD,,,,GASTONIA,NC,28056
210314,E,102 CRAMER MOUNTAIN RD,,,,CRAMERTON,NC,28032
211994,E,118 LAKEWOOD RD,,,,BELMONT,NC,28012
212139,E,1000 102 HAVEN CIR,,,,BELMONT,NC,28012
212385,E,512 STUART RIDGE,,,,CRAMERTON,NC,28032
214210,E,6121 WILKINSON BLVD,,,,BELMONT,NC,28012
215666,E,2028 CRAMER PLACE CT,,,,CRAMERTON,NC,28032
215667,E,2024 CRAMER PLACE CT,,,,CRAMERTON,NC,28032
215668,E,2020 CRAMER PLACE CT,,,,CRAMERTON,NC,28032
215669,E,2016 CRAMER PLACE CT,,,,CRAMERTON,NC,28032
215670,E,2012 CRAMER PLACE CT,,,,CRAMERTON,NC,28032
215671,E,2008 CRAMER PLACE CT,,,,CRAMERTON,NC,28032
215672,E,2004 CRAMER PLACE CT,,,,CRAMERTON,NC,28032
215673,E,2000 CRAMER PLACE CT,,,,CRAMERTON,NC,28032
215674,E,2001 CRAMER PLACE CT,,,,CRAMERTON,NC,28032
215675,E,2005 CRAMER PLACE CT,,,,CRAMERTON,NC,28032
215676,E,2009 CRAMER PLACE CT,,,,CRAMERTON,NC,28032
215677,E,2013 CRAMER PLACE CT,,,,CRAMERTON,NC,28032
215678,E,1104 STUARTS LANDING DR,,,,CRAMERTON,NC,28032
215679,E,1108 STUARTS LANDING DR,,,,CRAMERTON,NC,28032
215680,E,1112 STUARTS LANDING DR,,,,CRAMERTON,NC,28032
215681,E,1116 STUARTS LANDING DR,,,,CRAMERTON,NC,28032
215682,E,1120 STUARTS LANDING DR,,,,CRAMERTON,NC,28032
215683,E,1134 STUARTS LANDING DR,,,,CRAMERTON,NC,28032
215684,E,1138 STUARTS LANDING DR,,,,CRAMERTON,NC,28032
215685,E,1142 STUARTS LANDING DR,,,,CRAMERTON,NC,28032
215686,E,1146 STUARTS LANDING DR,,,,CRAMERTON,NC,28032
215687,E,1150 STUARTS LANDING DR,,,,CRAMERTON,NC,28032
215688,E,1154 STUARTS LANDING DR,,,,CRAMERTON,NC,28032
215696,E,3028 CALLAWAY CT,,,,CRAMERTON,NC,28032
215700,E,1169 STUARTS LANDING DR,,,,CRAMERTON,NC,28032
215701,E,1165 STUARTS LANDING DR,,,,CRAMERTON,NC,28032
215702,E,1161 STUARTS LANDING DR,,,,CRAMERTON,NC,28032
215703,E,1109 STUARTS LANDING DR,,,,CRAMERTON,NC,28032
215704,E,1105 STUARTS LANDING DR,,,,CRAMERTON,NC,28032
215705,E,1101 STUARTS LANDING DR,,,,CRAMERTON,NC,28032
215706,E,1017 STUARTS LANDING DR,,,,CRAMERTON,NC,28032
215707,E,1013 STUARTS LANDING DR,,,,CRAMERTON,NC,28032
215708,E,1009 STUARTS LANDING DR,,,,CRAMERTON,NC,28032
215709,E,1005 STUARTS LANDING DR,,,,CRAMERTON,NC,28032
215710,E,1001 STUARTS LANDING DR,,,,CRAMERTON,NC,28032
215716,E,508 CRAMER MOUNTAIN RD,,,,CRAMERTON,NC,28032
216483,E,4571 S NEW HOPE RD,,,,GASTONIA,NC,28056
217132,E,2920 DODSWORTH DR,,,,CRAMERTON,NC,28032
217795,E,4008 ST ANDREWS CT,,,,CRAMERTON,NC,28032
217797,E,4010 ST ANDREWS CT,,,,CRAMERTON,NC,28032
217799,E,5419 ANDERSON CT,,,,CRAMERTON,NC,28032
217850,E,307 MAYWORTH WAY,,,,CRAMERTON,NC,28032
218133,E,100 VICTORY LN,,,,CRAMERTON,NC,28032
218137,E,226 TENTH ST,,,,CRAMERTON,NC,28032
218357,E,233 MARKET ST,,,,CRAMERTON,NC,28032
219159,E,410 ARMSTRONG DR,,,,BELMONT,NC,28012
219315,E,900 GASTON RD,,,,GASTONIA,NC,28056
219372,E,330 HAMRICK RD,,,,CRAMERTON,NC,28032
219593,E,101 U HIDDEN PASTURES DR,,,,CRAMERTON,NC,28032
219624,E,29 LAKEWOOD RD,,,,BELMONT,NC,28012
219646,E,4017 AVERY PL,,,,GASTONIA,NC,28056
219648,E,4021 AVERY PL,,,,GASTONIA,NC,28056
219999,E,661 EAGLE RD,,,,BELMONT,NC,28012
220000,E,671 EAGLE RD,,,,BELMONT,NC,28012
220022,E,5221 NEWPORT LANDING WAY,,,,GASTONIA,NC,28056
220099,E,735 HANNA WOODS DR,,,,CRAMERTON,NC,28032
220100,E,731 HANNA WOODS DR,,,,CRAMERTON,NC,28032
220353,E,1016 U ORCHARD GROVES CT,,,,BELMONT,NC,28012
220359,E,1005 SOUTH FORK VILLAGE DR,,,,BELMONT,NC,28012
220570,E,4805 S NEW HOPE RD,,,,BELMONT,NC,28012
220572,E,4701 S NEW HOPE RD,,,,BELMONT,NC,28012
220573,E,4721 S NEW HOPE RD,,,,BELMONT,NC,28012
220574,E,4801 S NEW HOPE RD,,,,BELMONT,NC,28012
220874,E,2924 DODSWORTH DR,,,,CRAMERTON,NC,28032
220950,E,3003 DODSWORTH DR,,,,CRAMERTON,NC,28032
221053,E,102 MAYFLOWER CT,,,,CRAMERTON,NC,28032
221283,E,5300 OLD COURSE DR,,,,CRAMERTON,NC,28032
221287,E,571 BALTIMORE DR,,,,CRAMERTON,NC,28032
221294,E,5302 OLD COURSE DR,,,,CRAMERTON,NC,28032
221454,E,124 HUBARD ST,,,,BELMONT,NC,28012
221455,E,6000 WILKINSON BLVD,,,,BELMONT,NC,28012
221459,E,3208 GRANGE CT,,,,BELMONT,NC,28012
221609,E,166 EIGHTH AVE,,,,CRAMERTON,NC,28032
221629,E,2910 DODSWORTH DR,,,,CRAMERTON,NC,28032
222139,E,100 HIDDEN PASTURES DR,,,,CRAMERTON,NC,28032
222689,E,301 CRAMER MOUNTAIN RD,,,,CRAMERTON,NC,28032
222765,E,3016 GREENMONT CIR,,,,BELMONT,NC,28012
222785,E,3231 GRANGE CT,,,,BELMONT,NC,28012
222938,E,3018 GREENMONT CIR,,,,BELMONT,NC,28012
223321,E,1020 TOMSHIRE DR,,,,GASTONIA,NC,28056
223512,E,147 BERRY MOUNTAIN RD,,,,CRAMERTON,NC,28032
223540,E,144 N MAIN ST,,,,CRAMERTON,NC,28032
223641,E,3333 HAWTHORNE LN,,,,BELMONT,NC,28012
224115,E,102 101 HIDDEN PASTURES DR,,,,CRAMERTON,NC,28032
224116,E,102 102 HIDDEN PASTURES DR,,,,CRAMERTON,NC,28032
224117,E,102 103 HIDDEN PASTURES DR,,,,CRAMERTON,NC,28032
224118,E,102 104 HIDDEN PASTURES DR,,,,CRAMERTON,NC,28032
224119,E,102 105 HIDDEN PASTURES DR,,,,CRAMERTON,NC,28032
224120,E,102 106 HIDDEN PASTURES DR,,,,CRAMERTON,NC,28032
224121,E,102 107 HIDDEN PASTURES DR,,,,CRAMERTON,NC,28032
224122,E,102 201 HIDDEN PASTURES DR,,,,CRAMERTON,NC,28032
224123,E,102 202 HIDDEN PASTURES DR,,,,CRAMERTON,NC,28032
224124,E,102 203 HIDDEN PASTURES DR,,,,CRAMERTON,NC,28032
224125,E,102 204 HIDDEN PASTURES DR,,,,CRAMERTON,NC,28032
224126,E,102 205 HIDDEN PASTURES DR,,,,CRAMERTON,NC,28032
224127,E,102 206 HIDDEN PASTURES DR,,,,CRAMERTON,NC,28032
224128,E,102 207 HIDDEN PASTURES DR,,,,CRAMERTON,NC,28032
224129,E,102 208 HIDDEN PASTURES DR,,,,CRAMERTON,NC,28032
224130,E,102 209 HIDDEN PASTURES DR,,,,CRAMERTON,NC,28032
224131,E,102 210 HIDDEN PASTURES DR,,,,CRAMERTON,NC,28032
224132,E,102 211 HIDDEN PASTURES DR,,,,CRAMERTON,NC,28032
224133,E,102 212 HIDDEN PASTURES DR,,,,CRAMERTON,NC,28032
224134,E,102 213 HIDDEN PASTURES DR,,,,CRAMERTON,NC,28032
224135,E,102 214 HIDDEN PASTURES DR,,,,CRAMERTON,NC,28032
224136,E,102 215 HIDDEN PASTURES DR,,,,CRAMERTON,NC,28032
224137,E,102 216 HIDDEN PASTURES DR,,,,CRAMERTON,NC,28032
224138,E,102 217 HIDDEN PASTURES DR,,,,CRAMERTON,NC,28032
224141,E,102 A HIDDEN PASTURES DR,,,,CRAMERTON,NC,28032
224142,E,102 HIDDEN PASTURES DR,,,,CRAMERTON,NC,28032
224220,E,213 CRAMERTON MILLS PKWY,,,,CRAMERTON,NC,28032
224221,E,209 CRAMERTON MILLS PKWY,,,,CRAMERTON,NC,28032
224222,E,205 CRAMERTON MILLS PKWY,,,,CRAMERTON,NC,28032
224223,E,201 CRAMERTON MILLS PKWY,,,,CRAMERTON,NC,28032
224224,E,125 CRAMERTON MILLS PKWY,,,,CRAMERTON,NC,28032
224225,E,121 CRAMERTON MILLS PKWY,,,,CRAMERTON,NC,28032
224226,E,117 CRAMERTON MILLS PKWY,,,,CRAMERTON,NC,28032
224227,E,113 CRAMERTON MILLS PKWY,,,,CRAMERTON,NC,28032
224228,E,109 CRAMERTON MILLS PKWY,,,,CRAMERTON,NC,28032
224229,E,105 CRAMERTON MILLS PKWY,,,,CRAMERTON,NC,28032
224230,E,101 CRAMERTON MILLS PKWY,,,,CRAMERTON,NC,28032
224231,E,216 CRAMERTON MILLS PKWY,,,,CRAMERTON,NC,28032
224232,E,212 CRAMERTON MILLS PKWY,,,,CRAMERTON,NC,28032
224233,E,208 CRAMERTON MILLS PKWY,,,,CRAMERTON,NC,28032
224234,E,204 CRAMERTON MILLS PKWY,,,,CRAMERTON,NC,28032
224235,E,200 CRAMERTON MILLS PKWY,,,,CRAMERTON,NC,28032
224236,E,124 CRAMERTON MILLS PKWY,,,,CRAMERTON,NC,28032
224237,E,120 CRAMERTON MILLS PKWY,,,,CRAMERTON,NC,28032
224238,E,116 CRAMERTON MILLS PKWY,,,,CRAMERTON,NC,28032
224239,E,112 CRAMERTON MILLS PKWY,,,,CRAMERTON,NC,28032
224240,E,108 CRAMERTON MILLS PKWY,,,,CRAMERTON,NC,28032
224241,E,235 HAMRICK RD,,,,CRAMERTON,NC,28032
224242,E,239 HAMRICK RD,,,,CRAMERTON,NC,28032
224243,E,243 HAMRICK RD,,,,CRAMERTON,NC,28032
224246,E,105 MEYERS RIDGE RD,,,,CRAMERTON,NC,28032
224247,E,109 MEYERS RIDGE RD,,,,CRAMERTON,NC,28032
224249,E,113 EMORY LN,,,,CRAMERTON,NC,28032
224250,E,100 MEYERS RIDGE RD,,,,CRAMERTON,NC,28032
224251,E,104 MEYERS RIDGE RD,,,,CRAMERTON,NC,28032
224252,E,108 MEYERS RIDGE RD,,,,CRAMERTON,NC,28032
224253,E,112 MEYERS RIDGE RD,,,,CRAMERTON,NC,28032
224254,E,116 MEYERS RIDGE RD,,,,CRAMERTON,NC,28032
224255,E,201 MEYERS RIDGE RD,,,,CRAMERTON,NC,28032
224256,E,205 MEYERS RIDGE RD,,,,CRAMERTON,NC,28032
224257,E,209 MEYERS RIDGE RD,,,,CRAMERTON,NC,28032
224258,E,200 MEYERS RIDGE RD,,,,CRAMERTON,NC,28032
224259,E,204 MEYERS RIDGE RD,,,,CRAMERTON,NC,28032
224260,E,208 MEYERS RIDGE RD,,,,CRAMERTON,NC,28032
224261,E,212 MEYERS RIDGE RD,,,,CRAMERTON,NC,28032
224262,E,100 KEATS ALY,,,,CRAMERTON,NC,28032
224263,E,104 KEATS ALY,,,,CRAMERTON,NC,28032
224264,E,108 KEATS ALY,,,,CRAMERTON,NC,28032
224265,E,112 KEATS ALY,,,,CRAMERTON,NC,28032
224266,E,116 KEATS ALY,,,,CRAMERTON,NC,28032
224267,E,120 KEATS ALY,,,,CRAMERTON,NC,28032
224268,E,200 KEATS ALY,,,,CRAMERTON,NC,28032
224269,E,204 KEATS ALY,,,,CRAMERTON,NC,28032
224270,E,208 KEATS ALY,,,,CRAMERTON,NC,28032
224271,E,212 KEATS ALY,,,,CRAMERTON,NC,28032
224272,E,216 KEATS ALY,,,,CRAMERTON,NC,28032
224273,E,217 MAC ALY,,,,CRAMERTON,NC,28032
224274,E,213 MAC ALY,,,,CRAMERTON,NC,28032
224275,E,209 MAC ALY,,,,CRAMERTON,NC,28032
224276,E,205 MAC ALY,,,,CRAMERTON,NC,28032
224277,E,201 MAC ALY,,,,CRAMERTON,NC,28032
224278,E,121 MAC ALY,,,,CRAMERTON,NC,28032
224279,E,117 MAC ALY,,,,CRAMERTON,NC,28032
224280,E,113 MAC ALY,,,,CRAMERTON,NC,28032
224281,E,109 MAC ALY,,,,CRAMERTON,NC,28032
224282,E,105 MAC ALY,,,,CRAMERTON,NC,28032
224283,E,101 MAC ALY,,,,CRAMERTON,NC,28032
224284,E,217 CRAMERTON MILLS PKWY,,,,CRAMERTON,NC,28032
224980,E,237 MARKET ST,,,,CRAMERTON,NC,28032
224982,E,235 MARKET ST,,,,CRAMERTON,NC,28032
225000,E,4018 FOXES TRL,,,,CRAMERTON,NC,28032
225550,E,150 EIGHTH AVE,,,,CRAMERTON,NC,28032
226021,E,209 MAYS MILLS DR,,,,CRAMERTON,NC,28032
226088,E,1678 ARMSTRONG FORD RD,,,,BELMONT,NC,28012
226408,E,3016 DODSWORTH DR,,,,CRAMERTON,NC,28032
226490,E,1398 ARMSTRONG FORD RD,,,,BELMONT,NC,28012
226688,E,247 HAMRICK RD,,,,CRAMERTON,NC,28032
226758,E,102 OLD DAM WAY,,,,CRAMERTON,NC,28032
226821,E,5444 WELCH CT,,,,CRAMERTON,NC,28032
226855,E,3037 CALLAWAY CT,,,,CRAMERTON,NC,28032
226856,E,3033 CALLAWAY CT,,,,CRAMERTON,NC,28032
226857,E,3029 CALLAWAY CT,,,,CRAMERTON,NC,28032
226858,E,3025 CALLAWAY CT,,,,CRAMERTON,NC,28032
226859,E,3021 CALLAWAY CT,,,,CRAMERTON,NC,28032
226860,E,3017 CALLAWAY CT,,,,CRAMERTON,NC,28032
226861,E,3013 CALLAWAY CT,,,,CRAMERTON,NC,28032
226862,E,3009 CALLAWAY CT,,,,CRAMERTON,NC,28032
226863,E,3005 CALLAWAY CT,,,,CRAMERTON,NC,28032
226864,E,3001 CALLAWAY CT,,,,CRAMERTON,NC,28032
226915,E,251 HAMRICK RD,,,,CRAMERTON,NC,28032
226940,E,1130 STUARTS LANDING DR,,,,CRAMERTON,NC,28032
226943,E,3000 CALLAWAY CT,,,,CRAMERTON,NC,28032
226944,E,3004 CALLAWAY CT,,,,CRAMERTON,NC,28032
226945,E,3008 CALLAWAY CT,,,,CRAMERTON,NC,28032
226946,E,3012 CALLAWAY CT,,,,CRAMERTON,NC,28032
226947,E,3016 CALLAWAY CT,,,,CRAMERTON,NC,28032
226948,E,3020 CALLAWAY CT,,,,CRAMERTON,NC,28032
226949,E,3024 CALLAWAY CT,,,,CRAMERTON,NC,28032
227546,E,1462 ARMSTRONG FORD RD,,,,BELMONT,NC,28012
228061,E,4235 S NEW HOPE RD,,,,GASTONIA,NC,28056
300412,E,508 MAYMONT DR,,,,CRAMERTON,NC,28032
300414,E,512 MAYMONT DR,,,,CRAMERTON,NC,28032
300565,E,5001 THOMASVILLE DR,,,,BELMONT,NC,28012
300566,E,5005 THOMASVILLE DR,,,,BELMONT,NC,28012
300567,E,5009 THOMASVILLE DR,,,,BELMONT,NC,28012
300568,E,5013 THOMASVILLE DR,,,,BELMONT,NC,28012
300569,E,5017 THOMASVILLE DR,,,,BELMONT,NC,28012
300570,E,5021 THOMASVILLE DR,,,,BELMONT,NC,28012
300571,E,5025 THOMASVILLE DR,,,,BELMONT,NC,28012
300572,E,5029 THOMASVILLE DR,,,,BELMONT,NC,28012
300573,E,5033 THOMASVILLE DR,,,,BELMONT,NC,28012
300574,E,5037 THOMASVILLE DR,,,,BELMONT,NC,28012
300575,E,5041 THOMASVILLE DR,,,,BELMONT,NC,28012
300576,E,5045 THOMASVILLE DR,,,,BELMONT,NC,28012
300577,E,5049 THOMASVILLE DR,,,,BELMONT,NC,28012
300578,E,5000 THOMASVILLE DR,,,,BELMONT,NC,28012
300579,E,5004 THOMASVILLE DR,,,,BELMONT,NC,28012
300580,E,5008 THOMASVILLE DR,,,,BELMONT,NC,28012
300581,E,5065 THOMASVILLE DR,,,,BELMONT,NC,28012
300582,E,5069 THOMASVILLE DR,,,,BELMONT,NC,28012
300583,E,5073 THOMASVILLE DR,,,,BELMONT,NC,28012
300584,E,5077 THOMASVILLE DR,,,,BELMONT,NC,28012
300585,E,5081 THOMASVILLE DR,,,,BELMONT,NC,28012
300587,E,5060 THOMASVILLE DR,,,,BELMONT,NC,28012
300588,E,5056 THOMASVILLE DR,,,,BELMONT,NC,28012
300589,E,5052 THOMASVILLE DR,,,,BELMONT,NC,28012
300590,E,5048 THOMASVILLE DR,,,,BELMONT,NC,28012
300591,E,5044 THOMASVILLE DR,,,,BELMONT,NC,28012
300592,E,5040 THOMASVILLE DR,,,,BELMONT,NC,28012
300593,E,5036 THOMASVILLE DR,,,,BELMONT,NC,28012
300594,E,5032 THOMASVILLE DR,,,,BELMONT,NC,28012
300595,E,5028 THOMASVILLE DR,,,,BELMONT,NC,28012
300596,E,5024 THOMASVILLE DR,,,,BELMONT,NC,28012
300597,E,5020 THOMASVILLE DR,,,,BELMONT,NC,28012
300598,E,5016 THOMASVILLE DR,,,,BELMONT,NC,28012
300599,E,5012 THOMASVILLE DR,,,,BELMONT,NC,28012
300808,E,478 ELEVENTH ST,,,,CRAMERTON,NC,28032
301167,E,5222 COURTYARD LN,,,,BELMONT,NC,28012
301168,E,5224 COURTYARD LN,,,,BELMONT,NC,28012
301169,E,5226 COURTYARD LN,,,,BELMONT,NC,28012
301170,E,5228 COURTYARD LN,,,,BELMONT,NC,28012
301171,E,5230 COURTYARD LN,,,,BELMONT,NC,28012
301172,E,5232 COURTYARD LN,,,,BELMONT,NC,28012
301173,E,5234 COURTYARD LN,,,,BELMONT,NC,28012
301174,E,5202 COURTYARD LN,,,,BELMONT,NC,28012
301175,E,5204 COURTYARD LN,,,,BELMONT,NC,28012
301176,E,5206 COURTYARD LN,,,,BELMONT,NC,28012
301177,E,5208 COURTYARD LN,,,,BELMONT,NC,28012
301178,E,5210 COURTYARD LN,,,,BELMONT,NC,28012
301179,E,5212 COURTYARD LN,,,,BELMONT,NC,28012
301180,E,5214 COURTYARD LN,,,,BELMONT,NC,28012
301181,E,5216 COURTYARD LN,,,,BELMONT,NC,28012
301182,E,5218 COURTYARD LN,,,,BELMONT,NC,28012
301221,E,213 MAYS MILL DR,,,,CRAMERTON,NC,28032
301317,E,5238 COURTYARD LN,,,,BELMONT,NC,28012
301318,E,5240 COURTYARD LN,,,,BELMONT,NC,28012
301319,E,5242 COURTYARD LN,,,,BELMONT,NC,28012
301320,E,5244 COURTYARD LN,,,,BELMONT,NC,28012
301321,E,5246 COURTYARD LN,,,,BELMONT,NC,28012
301322,E,5248 COURTYARD LN,,,,BELMONT,NC,28012
301323,E,5250 COURTYARD LN,,,,BELMONT,NC,28012
301324,E,5252 COURTYARD LN,,,,BELMONT,NC,28012
301325,E,5254 COURTYARD LN,,,,BELMONT,NC,28012
301326,E,5256 COURTYARD LN,,,,BELMONT,NC,28012
301327,E,5258 COURTYARD LN,,,,BELMONT,NC,28012
301328,E,5260 COURTYARD LN,,,,BELMONT,NC,28012
301329,E,5262 COURTYARD LN,,,,BELMONT,NC,28012
301330,E,5264 COURTYARD LN,,,,BELMONT,NC,28012
301331,E,5266 COURTYARD LN,,,,BELMONT,NC,28012
301332,E,5268 COURTYARD LN,,,,BELMONT,NC,28012
301333,E,5270 COURTYARD LN,,,,BELMONT,NC,28012
301334,E,5272 COURTYARD LN,,,,BELMONT,NC,28012
301335,E,5274 COURTYARD LN,,,,BELMONT,NC,28012
301336,E,5276 COURTYARD LN,,,,BELMONT,NC,28012
301337,E,5278 COURTYARD LN,,,,BELMONT,NC,28012
301338,E,5280 COURTYARD LN,,,,BELMONT,NC,28012
301339,E,5282 COURTYARD LN,,,,BELMONT,NC,28012
301340,E,5284 COURTYARD LN,,,,BELMONT,NC,28012
301341,E,5285 COURTYARD LN,,,,BELMONT,NC,28012
301342,E,5283 COURTYARD LN,,,,BELMONT,NC,28012
301343,E,5279 COURTYARD LN,,,,BELMONT,NC,28012
301344,E,5277 COURTYARD LN,,,,BELMONT,NC,28012
301345,E,5275 COURTYARD LN,,,,BELMONT,NC,28012
301346,E,5109 PORTICO PL,,,,BELMONT,NC,28012
301347,E,5107 PORTICO PL,,,,BELMONT,NC,28012
301348,E,5105 PORTICO PL,,,,BELMONT,NC,28012
301349,E,5101 PORTICO PL,,,,BELMONT,NC,28012
301350,E,5100 PORTICO PL,,,,BELMONT,NC,28012
301351,E,5102 PORTICO PL,,,,BELMONT,NC,28012
301352,E,5104 PORTICO PL,,,,BELMONT,NC,28012
301353,E,5106 PORTICO PL,,,,BELMONT,NC,28012
301354,E,5110 PORTICO PL,,,,BELMONT,NC,28012
301355,E,5112 PORTICO PL,,,,BELMONT,NC,28012
301356,E,5015 VITA WAY,,,,BELMONT,NC,28012
301357,E,5013 VITA WAY,,,,BELMONT,NC,28012
301358,E,5011 VITA WAY,,,,BELMONT,NC,28012
301359,E,5009 VITA WAY,,,,BELMONT,NC,28012
301360,E,5005 VITA WAY,,,,BELMONT,NC,28012
301361,E,5003 VITA WAY,,,,BELMONT,NC,28012
301362,E,5004 VITA WAY,,,,BELMONT,NC,28012
301363,E,5006 VITA WAY,,,,BELMONT,NC,28012
301364,E,5008 VITA WAY,,,,BELMONT,NC,28012
301365,E,5010 VITA WAY,,,,BELMONT,NC,28012
301366,E,5012 VITA WAY,,,,BELMONT,NC,28012
301367,E,5014 VITA WAY,,,,BELMONT,NC,28012
301368,E,5247 COURTYARD LN,,,,BELMONT,NC,28012
301369,E,5239 COURTYARD LN,,,,BELMONT,NC,28012
301370,E,5237 COURTYARD LN,,,,BELMONT,NC,28012
301371,E,5235 COURTYARD LN,,,,BELMONT,NC,28012
301372,E,5233 COURTYARD LN,,,,BELMONT,NC,28012
301373,E,5201 COURTYARD LN,,,,BELMONT,NC,28012
301374,E,5229 COURTYARD LN,,,,BELMONT,NC,28012
301720,E,6001 SANTEE RIVER WAY,,,,BELMONT,NC,28012
301721,E,6005 SANTEE RIVER WAY,,,,CRAMERTON,NC,28012
301722,E,2104 NEW HOPE BRANCH WAY,,,,BELMONT,NC,28012
301723,E,2100 NEW HOPE BRANCH WAY,,,,BELMONT,NC,28012
301724,E,2048 NEW HOPE BRANCH WAY,,,,BELMONT,NC,28012
301725,E,2044 NEW HOPE BRANCH WAY,,,,BELMONT,NC,28012
301726,E,2040 NEW HOPE BRANCH WAY,,,,BELMONT,NC,28012
301727,E,2036 NEW HOPE BRANCH WAY,,,,BELMONT,NC,28012
301728,E,2032 NEW HOPE BRANCH WAY,,,,BELMONT,NC,28012
301729,E,2028 NEW HOPE BRANCH WAY,,,,BELMONT,NC,28012
301730,E,2024 NEW HOPE BRANCH WAY,,,,BELMONT,NC,28012
301731,E,2020 NEW HOPE BRANCH WAY,,,,BELMONT,NC,28012
301732,E,2016 NEW HOPE BRANCH WAY,,,,BELMONT,NC,28012
301733,E,2012 NEW HOPE BRANCH WAY,,,,BELMONT,NC,28012
301734,E,2008 NEW HOPE BRANCH WAY,,,,BELMONT,NC,28012
301735,E,2004 NEW HOPE BRANCH WAY,,,,BELMONT,NC,28012
301736,E,1020 MILLBRIDGE RD,,,,BELMONT,NC,28012
301737,E,1016 MILLBRIDGE RD,,,,BELMONT,NC,28012
301738,E,1012 MILLBRIDGE RD,,,,BELMONT,NC,28012
301739,E,1005 MILLBRIDGE RD,,,,BELMONT,NC,28012
301740,E,1009 MILLBRIDGE RD,,,,BELMONT,NC,28012
301741,E,1013 MILLBRIDGE RD,,,,BELMONT,NC,28012
301742,E,1017 MILLBRIDGE RD,,,,BELMONT,NC,28012
301743,E,1021 MILLBRIDGE RD,,,,BELMONT,NC,28012
301744,E,1025 MILLBRIDGE RD,,,,CRAMERTON,NC,28012
301745,E,1101 MILLBRIDGE RD,,,,BELMONT,NC,28012
301746,E,1105 MILLBRIDGE RD,,,,BELMONT,NC,28012
301747,E,1109 MILLBRIDGE RD,,,,BELMONT,NC,28012
301748,E,1113 MILLBRIDGE RD,,,,BELMONT,NC,28012
301749,E,1117 MILLBRIDGE RD,,,,BELMONT,NC,28012
301750,E,1121 MILLBRIDGE RD,,,,BELMONT,NC,28012
301751,E,1125 MILLBRIDGE RD,,,,BELMONT,NC,28012
301752,E,1137 MILLBRIDGE RD,,,,BELMONT,NC,28012
301753,E,1136 MILLBRIDGE RD,,,,BELMONT,NC,28012
301754,E,1124 MILLBRIDGE RD,,,,BELMONT,NC,28012
301755,E,1120 MILLBRIDGE RD,,,,BELMONT,NC,28012
301756,E,1116 MILLBRIDGE RD,,,,BELMONT,NC,28012
301757,E,1112 MILLBRIDGE RD,,,,BELMONT,NC,28012
301758,E,1108 MILLBRIDGE RD,,,,BELMONT,NC,28012
301759,E,1104 MILLBRIDGE RD,,,,BELMONT,NC,28012
301760,E,1100 MILLBRIDGE RD,,,,BELMONT,NC,28012
301761,E,2005 NEW HOPE BRANCH WAY,,,,BELMONT,NC,28012
301762,E,2009 NEW HOPE BRANCH WAY,,,,BELMONT,NC,28012
301763,E,2013 NEW HOPE BRANCH WAY,,,,BELMONT,NC,28012
301764,E,2017 NEW HOPE BRANCH WAY,,,,BELMONT,NC,28012
301765,E,2021 NEW HOPE BRANCH WAY,,,,BELMONT,NC,28012
301766,E,2025 NEW HOPE BRANCH WAY,,,,BELMONT,NC,28012
301767,E,2029 NEW HOPE BRANCH WAY,,,,BELMONT,NC,28012
301768,E,2033 NEW HOPE BRANCH WAY,,,,BELMONT,NC,28012
301769,E,5168 THOMASVILLE DR,,,,BELMONT,NC,28012
301770,E,5164 THOMASVILLE DR,,,,BELMONT,NC,28012
301771,E,5160 THOMASVILLE DR,,,,BELMONT,NC,28012
301772,E,5158 THOMASVILLE DR,,,,BELMONT,NC,28012
301773,E,5152 THOMASVILLE DR,,,,BELMONT,NC,28012
301774,E,5148 THOMASVILLE DR,,,,BELMONT,NC,28012
301775,E,5144 THOMASVILLE DR,,,,BELMONT,NC,28012
301776,E,5140 THOMASVILLE DR,,,,BELMONT,NC,28012
301777,E,5136 THOMASVILLE DR,,,,BELMONT,NC,28012
301778,E,5132 THOMASVILLE DR,,,,BELMONT,NC,28012
301779,E,5124 THOMASVILLE DR,,,,BELMONT,NC,28012
301780,E,5120 THOMASVILLE DR,,,,BELMONT,NC,28012
301781,E,5116 THOMASVILLE DR,,,,BELMONT,NC,28012
301782,E,5112 THOMASVILLE DR,,,,BELMONT,NC,28012
301783,E,5108 THOMASVILLE DR,,,,BELMONT,NC,28012
301784,E,5104 THOMASVILLE DR,,,,BELMONT,NC,28012
301785,E,5100 THOMASVILLE DR,,,,BELMONT,NC,28012
301786,E,5078 THOMASVILLE DR,,,,BELMONT,NC,28012
301787,E,5074 THOMASVILLE DR,,,,BELMONT,NC,28012
301788,E,5070 THOMASVILLE DR,,,,BELMONT,NC,28012
301789,E,5169 THOMASVILLE DR,,,,BELMONT,NC,28012
301790,E,5165 THOMASVILLE DR,,,,BELMONT,NC,28012
301791,E,5161 THOMASVILLE DR,,,,BELMONT,NC,28012
301792,E,5157 THOMASVILLE DR,,,,BELMONT,NC,28012
301793,E,5153 THOMASVILLE DR,,,,BELMONT,NC,28012
301794,E,5149 THOMASVILLE DR,,,,BELMONT,NC,28012
301795,E,5145 THOMASVILLE DR,,,,BELMONT,NC,28012
301796,E,5141 THOMASVILLE DR,,,,BELMONT,NC,28012
301797,E,5137 THOMASVILLE DR,,,,BELMONT,NC,28012
301798,E,5133 THOMASVILLE DR,,,,BELMONT,NC,28012
301799,E,5125 THOMASVILLE DR,,,,BELMONT,NC,28012
301800,E,5121 THOMASVILLE DR,,,,BELMONT,NC,28012
301801,E,5117 THOMASVILLE DR,,,,BELMONT,NC,28012
301802,E,5113 THOMASVILLE DR,,,,BELMONT,NC,28012
301803,E,5109 THOMASVILLE DR,,,,BELMONT,NC,28012
301804,E,5105 THOMASVILLE DR,,,,BELMONT,NC,28012
301805,E,5101 THOMASVILLE DR,,,,BELMONT,NC,28012
301806,E,333 U MCADENVILLE RD,,,,BELMONT,NC,28012
301876,E,5085 PATTON DR,,,,GASTONIA,NC,28056
301877,E,5089 PATTON DR,,,,GASTONIA,NC,28056
301878,E,5093 PATTON DR,,,,GASTONIA,NC,28056
301879,E,4243 S NEW HOPE RD,,,,GASTONIA,NC,28056
302155,E,574 BALTIMORE DR,,,,CRAMERTON,NC,28032
302303,E,518 STANDPIPE HILL,,,,CRAMERTON,NC,28032
302304,E,516 STANDPIPE HILL,,,,CRAMERTON,NC,28032
302305,E,514 STANDPIPE HILL,,,,CRAMERTON,NC,28032
302306,E,512 STANDPIPE HILL,,,,CRAMERTON,NC,28032
302307,E,510 STANDPIPE HILL,,,,CRAMERTON,NC,28032
302308,E,508 STANDPIPE HILL,,,,CRAMERTON,NC,28032
302309,E,506 STANDPIPE HILL,,,,CRAMERTON,NC,28032
302310,E,103 SEVENTH ST,,,,CRAMERTON,NC,28032
302311,E,105 SEVENTH ST,,,,CRAMERTON,NC,28032
302312,E,107 SEVENTH ST,,,,CRAMERTON,NC,28032
302462,E,249 CRAMERTON MILLS PKWY,,,,CRAMERTON,NC,28032
302463,E,245 CRAMERTON MILLS PKWY,,,,CRAMERTON,NC,28032
302464,E,241 CRAMERTON MILLS PKWY,,,,CRAMERTON,NC,28032
302465,E,237 CRAMERTON MILLS PKWY,,,,CRAMERTON,NC,28032
302466,E,233 CRAMERTON MILLS PKWY,,,,CRAMERTON,NC,28032
302467,E,229 CRAMERTON MILLS PKWY,,,,CRAMERTON,NC,28032
302468,E,225 CRAMERTON MILLS PKWY,,,,CRAMERTON,NC,28032
302469,E,228 CRAMERTON MILLS PKWY,,,,CRAMERTON,NC,28032
302470,E,232 CRAMERTON MILLS PKWY,,,,CRAMERTON,NC,28032
302471,E,240 CRAMERTON MILLS PKWY,,,,CRAMERTON,NC,28032
302472,E,244 CRAMERTON MILLS PKWY,,,,CRAMERTON,NC,28032
302473,E,248 CRAMERTON MILLS PKWY,,,,CRAMERTON,NC,28032
302474,E,252 CRAMERTON MILLS PKWY,,,,CRAMERTON,NC,28032
302475,E,256 CRAMERTON MILLS PKWY,,,,CRAMERTON,NC,28032
302476,E,260 CRAMERTON MILLS PKWY,,,,CRAMERTON,NC,28032
303000,E,113 ALBERTA AVE,,,,BELMONT,NC,28012
303001,E,111 ALBERTA AVE,,,,BELMONT,NC,28012
303309,E,101 LAKEWOOD RD,,,,BELMONT,NC,28012
303663,E,562 BALTIMORE DR,,,,CRAMERTON,NC,28032
303761,E,5001 PATTON DR,,,,GASTONIA,NC,28056
303762,E,5005 PATTON DR,,,,GASTONIA,NC,28056
303763,E,5009 PATTON DR,,,,GASTONIA,NC,28056
303764,E,5013 PATTON DR,,,,GASTONIA,NC,28056
303765,E,5017 PATTON DR,,,,GASTONIA,NC,28056
303766,E,5021 PATTON DR,,,,GASTONIA,NC,28056
303767,E,5025 PATTON DR,,,,GASTONIA,NC,28056
303768,E,5029 PATTON DR,,,,GASTONIA,NC,28056
303769,E,5033 PATTON DR,,,,GASTONIA,NC,28056
303770,E,5037 PATTON DR,,,,GASTONIA,NC,28056
303771,E,5041 PATTON DR,,,,GASTONIA,NC,28056
303772,E,5045 PATTON DR,,,,GASTONIA,NC,28056
303773,E,5049 PATTON DR,,,,GASTONIA,NC,28056
303774,E,5053 PATTON DR,,,,GASTONIA,NC,28056
303775,E,5057 PATTON DR,,,,GASTONIA,NC,28056
303776,E,5061 PATTON DR,,,,GASTONIA,NC,28056
303777,E,5065 PATTON DR,,,,GASTONIA,NC,28056
303778,E,5069 PATTON DR,,,,GASTONIA,NC,28056
303779,E,5073 PATTON DR,,,,GASTONIA,NC,28056
303780,E,5077 PATTON DR,,,,GASTONIA,NC,28056
303781,E,5081 PATTON DR,,,,GASTONIA,NC,28056
303782,E,5076 PATTON DR,,,,GASTONIA,NC,28056
303783,E,5072 PATTON DR,,,,GASTONIA,NC,28056
303784,E,5068 PATTON DR,,,,GASTONIA,NC,28056
303785,E,5064 PATTON DR,,,,GASTONIA,NC,28056
303786,E,5060 PATTON DR,,,,GASTONIA,NC,28056
303787,E,5056 PATTON DR,,,,GASTONIA,NC,28056
303788,E,5052 PATTON DR,,,,GASTONIA,NC,28056
303789,E,5048 PATTON DR,,,,GASTONIA,NC,28056
303790,E,5044 PATTON DR,,,,GASTONIA,NC,28056
303791,E,5040 PATTON DR,,,,GASTONIA,NC,28056
303792,E,5036 PATTON DR,,,,GASTONIA,NC,28056
303793,E,5032 PATTON DR,,,,GASTONIA,NC,28056
303794,E,5028 PATTON DR,,,,GASTONIA,NC,28056
303795,E,5024 PATTON DR,,,,GASTONIA,NC,28056
303796,E,5020 PATTON DR,,,,GASTONIA,NC,28056
303797,E,5016 PATTON DR,,,,GASTONIA,NC,28056
303798,E,5012 PATTON DR,,,,GASTONIA,NC,28056
303799,E,5008 PATTON DR,,,,GASTONIA,NC,28056
303800,E,5004 PATTON DR,,,,GASTONIA,NC,28056
303801,E,5000 PATTON DR,,,,GASTONIA,NC,28056
303802,E,5080 PATTON DR,,,,GASTONIA,NC,28056
303803,E,5084 PATTON DR,,,,GASTONIA,NC,28056
303804,E,5088 PATTON DR,,,,GASTONIA,NC,28056
303954,E,257 CRAMERTON MILLS PKWY,,,,CRAMERTON,NC,28032
303955,E,253 CRAMERTON MILLS PKWY,,,,CRAMERTON,NC,28032
303956,E,264 CRAMERTON MILLS PKWY,,,,CRAMERTON,NC,28032
303971,E,5085 THOMASVILLE DR,,,,BELMONT,NC,28012
303973,E,5057 THOMASVILLE DR,,,,BELMONT,NC,28012
303974,E,6009 SANTEE RIVER WAY,,,,BELMONT,NC,28012
303975,E,6013 SANTEE RIVER WAY,,,,BELMONT,NC,28012
303976,E,6017 SANTEE RIVER WAY,,,,BELMONT,NC,28012
303977,E,6021 SANTEE RIVER WAY,,,,BELMONT,NC,28012
303978,E,6025 SANTEE RIVER WAY,,,,BELMONT,NC,28012
303979,E,6029 SANTEE RIVER WAY,,,,BELMONT,NC,28012
303980,E,6033 SANTEE RIVER WAY,,,,BELMONT,NC,28012
303981,E,6037 SANTEE RIVER WAY,,,,BELMONT,NC,28012
303982,E,6041 SANTEE RIVER WAY,,,,BELMONT,NC,28012
303983,E,6045 SANTEE RIVER WAY,,,,BELMONT,NC,28012
303984,E,6040 SANTEE RIVER WAY,,,,BELMONT,NC,28012
303985,E,6036 SANTEE RIVER WAY,,,,BELMONT,NC,28012
303986,E,6032 SANTEE RIVER WAY,,,,BELMONT,NC,28012
303987,E,6028 SANTEE RIVER WAY,,,,BELMONT,NC,28012
303988,E,6024 SANTEE RIVER WAY,,,,BELMONT,NC,28012
303989,E,7000 DUNCAN ACRES DR,,,,BELMONT,NC,28012
303990,E,7004 DUNCAN ACRES DR,,,,BELMONT,NC,28012
303991,E,7008 DUNCAN ACRES DR,,,,BELMONT,NC,28012
304264,E,7019 DUNCAN ACRES DR,,,,BELMONT,NC,28012
304265,E,7023 DUNCAN ACRES DR,,,,BELMONT,NC,28012
304266,E,7025 DUNCAN ACRES DR,,,,BELMONT,NC,28012
304267,E,7029 DUNCAN ACRES DR,,,,BELMONT,NC,28012
304268,E,7031 DUNCAN ACRES DR,,,,BELMONT,NC,28012
304269,E,7033 DUNCAN ACRES DR,,,,BELMONT,NC,28012
304270,E,7037 DUNCAN ACRES DR,,,,BELMONT,NC,28012
304271,E,7039 DUNCAN ACRES DR,,,,BELMONT,NC,28012
304272,E,7041 DUNCAN ACRES DR,,,,BELMONT,NC,28012
304273,E,7043 DUNCAN ACRES DR,,,,BELMONT,NC,28012
304274,E,7045 DUNCAN ACRES DR,,,,BELMONT,NC,28012
304275,E,7047 DUNCAN ACRES DR,,,,BELMONT,NC,28012
304276,E,7049 DUNCAN ACRES DR,,,,BELMONT,NC,28012
304277,E,7051 DUNCAN ACRES DR,,,,BELMONT,NC,28012
304278,E,2132 NEW HOPE BRANCH WAY,,,,BELMONT,NC,28012
304279,E,2128 NEW HOPE BRANCH WAY,,,,BELMONT,NC,28012
304280,E,2124 NEW HOPE BRANCH WAY,,,,BELMONT,NC,28012
304281,E,2120 NEW HOPE BRANCH WAY,,,,BELMONT,NC,28012
304282,E,2116 NEW HOPE BRANCH WAY,,,,CRAMERTON,NC,28012
304283,E,2112 NEW HOPE BRANCH WAY,,,,CRAMERTON,NC,28012
304284,E,2108 NEW HOPE BRANCH WAY,,,,CRAMERTON,NC,28012
304285,E,7012 DUNCAN ACRES DR,,,,BELMONT,NC,28012
304286,E,7014 DUNCAN ACRES DR,,,,BELMONT,NC,28012
304287,E,7016 DUNCAN ACRES DR,,,,BELMONT,NC,28012
304288,E,7018 DUNCAN ACRES DR,,,,BELMONT,NC,28012
304289,E,7020 DUNCAN ACRES DR,,,,BELMONT,NC,28012
304290,E,7022 DUNCAN ACRES DR,,,,BELMONT,NC,28012
304291,E,7024 DUNCAN ACRES DR,,,,BELMONT,NC,28012
304292,E,7026 DUNCAN ACRES DR,,,,BELMONT,NC,28012
304293,E,7028 DUNCAN ACRES DR,,,,BELMONT,NC,28012
304294,E,7030 DUNCAN ACRES DR,,,,BELMONT,NC,28012
304295,E,7032 DUNCAN ACRES DR,,,,BELMONT,NC,28012
304296,E,7034 DUNCAN ACRES DR,,,,BELMONT,NC,28012
304297,E,7036 DUNCAN ACRES DR,,,,BELMONT,NC,28012
304298,E,7038 DUNCAN ACRES DR,,,,BELMONT,NC,28012
304299,E,7040 DUNCAN ACRES DR,,,,BELMONT,NC,28012
304300,E,7042 DUNCAN ACRES DR,,,,BELMONT,NC,28012
304301,E,7044 DUNCAN ACRES DR,,,,BELMONT,NC,28012
304302,E,7046 DUNCAN ACRES DR,,,,BELMONT,NC,28012
304303,E,7048 DUNCAN ACRES DR,,,,BELMONT,NC,28012
304304,E,7050 DUNCAN ACRES DR,,,,BELMONT,NC,28012
304305,E,7052 DUNCAN ACRES DR,,,,BELMONT,NC,28012
304306,E,7054 DUNCAN ACRES DR,,,,BELMONT,NC,28012
304307,E,7056 DUNCAN ACRES DR,,,,BELMONT,NC,28012
304308,E,7058 DUNCAN ACRES DR,,,,BELMONT,NC,28012
304309,E,7060 DUNCAN ACRES DR,,,,BELMONT,NC,28012
304310,E,7062 DUNCAN ACRES DR,,,,BELMONT,NC,28012
304311,E,7053 DUNCAN ACRES DR,,,,BELMONT,NC,28012
304312,E,7055 DUNCAN ACRES DR,,,,BELMONT,NC,28012
304313,E,7057 DUNCAN ACRES DR,,,,BELMONT,NC,28012
304314,E,7059 DUNCAN ACRES DR,,,,BELMONT,NC,28012
304315,E,7061 DUNCAN ACRES DR,,,,BELMONT,NC,28012
304316,E,2131 NEW HOPE BRANCH WAY,,,,BELMONT,NC,28012
304317,E,2133 NEW HOPE BRANCH WAY,,,,BELMONT,NC,28012
304318,E,7024 I DUNCAN ACRES DR,,,,BELMONT,NC,28012
304367,E,140 HAMRICK RD,,,,GASTONIA,NC,28056
304368,E,138 HAMRICK RD,,,,GASTONIA,NC,28056
304369,E,136 HAMRICK RD,,,,GASTONIA,NC,28056
304370,E,134 HAMRICK RD,,,,GASTONIA,NC,28056
304371,E,132 HAMRICK RD,,,,GASTONIA,NC,28056
304372,E,130 HAMRICK RD,,,,GASTONIA,NC,28056
304373,E,128 HAMRICK RD,,,,GASTONIA,NC,28056
304374,E,126 HAMRICK RD,,,,GASTONIA,NC,28056
304375,E,124 HAMRICK RD,,,,GASTONIA,NC,28056
304376,E,122 HAMRICK RD,,,,GASTONIA,NC,28056
304377,E,120 HAMRICK RD,,,,GASTONIA,NC,28056
304378,E,118 HAMRICK RD,,,,GASTONIA,NC,28056
304379,E,116 HAMRICK RD,,,,GASTONIA,NC,28056
304380,E,114 HAMRICK RD,,,,GASTONIA,NC,28056
304381,E,112 HAMRICK RD,,,,GASTONIA,NC,28056
304382,E,110 HAMRICK RD,,,,GASTONIA,NC,28056
304383,E,108 HAMRICK RD,,,,GASTONIA,NC,28056
304620,E,109 ALBERTA AVE,,,,BELMONT,NC,28012
305160,E,225 MARKET ST,,,,CRAMERTON,NC,28032
305361,E,283 HAMRICK RD,,,,CRAMERTON,NC,28032
305840,E,1039 DAN MAPLES DR,,,,CRAMERTON,NC,28032
305841,E,606 ELLIS CT,,,,CRAMERTON,NC,28032
306224,E,147 N MAIN ST,,,,CRAMERTON,NC,28032
306534,E,1020 DAN MAPLES DR,,,,CRAMERTON,NC,28032
306675,E,215 MARKET ST,,,,CRAMERTON,NC,28032
306849,E,342 CRAMERTON MILLS PKWY,,,,CRAMERTON,NC,28032
306850,E,340 CRAMERTON MILLS PKWY,,,,CRAMERTON,NC,28032
306851,E,338 CRAMERTON MILLS PKWY,,,,CRAMERTON,NC,28032
306852,E,336 CRAMERTON MILLS PKWY,,,,CRAMERTON,NC,28032
306853,E,334 CRAMERTON MILLS PKWY,,,,CRAMERTON,NC,28032
306854,E,332 CRAMERTON MILLS PKWY,,,,CRAMERTON,NC,28032
306855,E,330 CRAMERTON MILLS PKWY,,,,CRAMERTON,NC,28032
306856,E,328 CRAMERTON MILLS PKWY,,,,CRAMERTON,NC,28032
306857,E,326 CRAMERTON MILLS PKWY,,,,CRAMERTON,NC,28032
306858,E,324 CRAMERTON MILLS PKWY,,,,CRAMERTON,NC,28032
306859,E,322 CRAMERTON MILLS PKWY,,,,CRAMERTON,NC,28032
306860,E,320 CRAMERTON MILLS PKWY,,,,CRAMERTON,NC,28032
306861,E,318 CRAMERTON MILLS PKWY,,,,CRAMERTON,NC,28032
306862,E,316 CRAMERTON MILLS PKWY,,,,CRAMERTON,NC,28032
306863,E,314 CRAMERTON MILLS PKWY,,,,CRAMERTON,NC,28032
306864,E,306 CRAMERTON MILLS PKWY,,,,CRAMERTON,NC,28032
306865,E,410 SERENITY CIR,,,,CRAMERTON,NC,28032
306866,E,408 SERENITY CIR,,,,CRAMERTON,NC,28032
306867,E,406 SERENITY CIR,,,,CRAMERTON,NC,28032
306868,E,404 SERENITY CIR,,,,CRAMERTON,NC,28032
306869,E,402 SERENITY CIR,,,,CRAMERTON,NC,28032
306870,E,333 CRAMERTON MILLS PKWY,,,,CRAMERTON,NC,28032
306871,E,331 CRAMERTON MILLS PKWY,,,,CRAMERTON,NC,28032
306872,E,329 CRAMERTON MILLS PKWY,,,,CRAMERTON,NC,28032
306873,E,327 CRAMERTON MILLS PKWY,,,,CRAMERTON,NC,28032
306874,E,321 CRAMERTON MILLS PKWY,,,,CRAMERTON,NC,28032
306875,E,317 CRAMERTON MILLS PKWY,,,,CRAMERTON,NC,28032
306876,E,313 CRAMERTON MILLS PKWY,,,,CRAMERTON,NC,28032
306877,E,311 CRAMERTON MILLS PKWY,,,,CRAMERTON,NC,28032
306878,E,309 CRAMERTON MILLS PKWY,,,,CRAMERTON,NC,28032
306879,E,307 CRAMERTON MILLS PKWY,,,,CRAMERTON,NC,28032
306883,E,400 SERENITY CIR,,,,CRAMERTON,NC,28032
306995,E,5424 DAWSON CT,,,,CRAMERTON,NC,28032
307528,E,3006 DODSWORTH DR,,,,CRAMERTON,NC,28032
307530,E,3004 DODSWORTH DR,,,,CRAMERTON,NC,28032
308272,E,100 CENTER ST,,,,CRAMERTON,NC,28032
308429,E,405 NEWSTYLE WAY,,,,GASTONIA,NC,28056
308430,E,407 NEWSTYLE WAY,,,,GASTONIA,NC,28056
308431,E,409 NEWSTYLE WAY,,,,GASTONIA,NC,28056
308432,E,411 NEWSTYLE WAY,,,,GASTONIA,NC,28056
308433,E,413 NEWSTYLE WAY,,,,GASTONIA,NC,28056
308434,E,415 NEWSTYLE WAY,,,,GASTONIA,NC,28056
308435,E,417 NEWSTYLE WAY,,,,GASTONIA,NC,28056
308436,E,419 NEWSTYLE WAY,,,,GASTONIA,NC,28056
308437,E,421 NEWSTYLE WAY,,,,GASTONIA,NC,28056
308438,E,316 LIFESTYLE CT,,,,GASTONIA,NC,28056
308439,E,314 LIFESTYLE CT,,,,GASTONIA,NC,28056
308440,E,312 LIFESTYLE CT,,,,GASTONIA,NC,28056
308441,E,313 LIFESTYLE CT,,,,GASTONIA,NC,28056
308442,E,315 LIFESTYLE CT,,,,GASTONIA,NC,28056
308443,E,317 LIFESTYLE CT,,,,GASTONIA,NC,28056
308444,E,319 LIFESTYLE CT,,,,GASTONIA,NC,28056
308445,E,321 LIFESTYLE CT,,,,GASTONIA,NC,28056
308446,E,325 LIFESTYLE CT,,,,GASTONIA,NC,28056
308447,E,327 LIFESTYLE CT,,,,GASTONIA,NC,28056
308448,E,329 LIFESTYLE CT,,,,GASTONIA,NC,28056
308449,E,331 LIFESTYLE CT,,,,GASTONIA,NC,28056
308450,E,333 LIFESTYLE CT,,,,GASTONIA,NC,28056
308451,E,335 LIFESTYLE CT,,,,GASTONIA,NC,28056
308452,E,337 LIFESTYLE CT,,,,GASTONIA,NC,28056
308453,E,604 PIAZZA PL,,,,GASTONIA,NC,28056
308454,E,602 PIAZZA PL,,,,GASTONIA,NC,28056
308455,E,600 PIAZZA PL,,,,GASTONIA,NC,28056
308456,E,501 HARLEQUIN DR,,,,GASTONIA,NC,28056
308457,E,503 HARLEQUIN DR,,,,GASTONIA,NC,28056
308458,E,505 HARLEQUIN DR,,,,GASTONIA,NC,28056
308459,E,3825 S NEW HOPE RD,,,,GASTONIA,NC,28056
308460,E,430 NEWSTYLE WAY,,,,GASTONIA,NC,28056
308776,E,110 NORTH LAKE WYLIE RD,,,,BELMONT,NC,28012
308782,E,141 BERRY MOUNTAIN RD,,,,CRAMERTON,NC,28032
308804,E,312 MAYWORTH WAY,,,,CRAMERTON,NC,28032
309143,E,228 HAMRICK RD,,,,CRAMERTON,NC,28032
309144,E,230 HAMRICK RD,,,,CRAMERTON,NC,28032
309145,E,234 HAMRICK RD,,,,CRAMERTON,NC,28032
309146,E,236 HAMRICK RD,,,,CRAMERTON,NC,28032
309147,E,238 HAMRICK RD,,,,CRAMERTON,NC,28032
309148,E,252 HAMRICK RD,,,,CRAMERTON,NC,28032
309149,E,254 HAMRICK RD,,,,CRAMERTON,NC,28032
309150,E,256 HAMRICK RD,,,,CRAMERTON,NC,28032
309151,E,258 HAMRICK RD,,,,CRAMERTON,NC,28032
309978,E,2571 SHAGGY BARK CT,,,,BELMONT,NC,28012
309979,E,2572 SHAGGY BARK CT,,,,BELMONT,NC,28012
310021,E,305 GREENWOOD PL,,,,BELMONT,NC,28012
310542,E,4209 S NEW HOPE RD,,,,GASTONIA,NC,28056
310543,E,4211 S NEW HOPE RD,,,,GASTONIA,NC,28056
310544,E,4213 S NEW HOPE RD,,,,GASTONIA,NC,28056
310545,E,4215 S NEW HOPE RD,,,,GASTONIA,NC,28056
310546,E,4217 S NEW HOPE RD,,,,GASTONIA,NC,28056
310547,E,4219 S NEW HOPE RD,,,,GASTONIA,NC,28056
310548,E,4221 S NEW HOPE RD,,,,GASTONIA,NC,28056
310549,E,4223 S NEW HOPE RD,,,,GASTONIA,NC,28056
310550,E,4225 S NEW HOPE RD,,,,GASTONIA,NC,28056
310551,E,4227 S NEW HOPE RD,,,,GASTONIA,NC,28056
310552,E,4229 S NEW HOPE RD,,,,GASTONIA,NC,28056
310553,E,4231 S NEW HOPE RD,,,,GASTONIA,NC,28056
310554,E,98 HAMRICK RD,,,,GASTONIA,NC,28056
310555,E,96 HAMRICK RD,,,,GASTONIA,NC,28056
310556,E,94 HAMRICK RD,,,,GASTONIA,NC,28056
310557,E,92 HAMRICK RD,,,,GASTONIA,NC,28056
310558,E,90 HAMRICK RD,,,,GASTONIA,NC,28056
310559,E,88 HAMRICK RD,,,,GASTONIA,NC,28056
310703,E,549 BROOKLYN AVE,,,,CRAMERTON,NC,28032
310859,E,109 EMORY LN,,,,CRAMERTON,NC,28032
311778,E,501 EVERGREEN TER,,,,CRAMERTON,NC,28032
311779,E,505 EVERGREEN TER,,,,CRAMERTON,NC,28032
311780,E,507 EVERGREEN TER,,,,CRAMERTON,NC,28032
311781,E,509 EVERGREEN TER,,,,CRAMERTON,NC,28032
311782,E,511 EVERGREEN TER,,,,CRAMERTON,NC,28032
311783,E,513 EVERGREEN TER,,,,CRAMERTON,NC,28032
311784,E,515 EVERGREEN TER,,,,CRAMERTON,NC,28032
311785,E,517 EVERGREEN TER,,,,CRAMERTON,NC,28032
311786,E,519 EVERGREEN TER,,,,CRAMERTON,NC,28032
311787,E,521 EVERGREEN TER,,,,CRAMERTON,NC,28032
311788,E,444 SERENITY CIR,,,,CRAMERTON,NC,28032
311789,E,442 SERENITY CIR,,,,CRAMERTON,NC,28032
311790,E,440 SERENITY CIR,,,,CRAMERTON,NC,28032
311791,E,438 SERENITY CIR,,,,CRAMERTON,NC,28032
311792,E,436 SERENITY CIR,,,,CRAMERTON,NC,28032
311793,E,434 SERENITY CIR,,,,CRAMERTON,NC,28032
311794,E,430 SERENITY CIR,,,,CRAMERTON,NC,28032
311795,E,428 SERENITY CIR,,,,CRAMERTON,NC,28032
311796,E,426 SERENITY CIR,,,,CRAMERTON,NC,28032
311797,E,424 SERENITY CIR,,,,CRAMERTON,NC,28032
311798,E,422 SERENITY CIR,,,,CRAMERTON,NC,28032
311799,E,420 SERENITY CIR,,,,CRAMERTON,NC,28032
311800,E,418 SERENITY CIR,,,,CRAMERTON,NC,28032
311801,E,416 SERENITY CIR,,,,CRAMERTON,NC,28032
311802,E,414 SERENITY CIR,,,,CRAMERTON,NC,28032
311803,E,412 SERENITY CIR,,,,CRAMERTON,NC,28032
311804,E,445 SERENITY CIR,,,,CRAMERTON,NC,28032
311805,E,443 SERENITY CIR,,,,CRAMERTON,NC,28032
311806,E,441 SERENITY CIR,,,,CRAMERTON,NC,28032
311807,E,439 SERENITY CIR,,,,CRAMERTON,NC,28032
311808,E,437 SERENITY CIR,,,,CRAMERTON,NC,28032
311809,E,429 SERENITY CIR,,,,CRAMERTON,NC,28032
311810,E,421 SERENITY CIR,,,,CRAMERTON,NC,28032
311811,E,415 SERENITY CIR,,,,CRAMERTON,NC,28032
311812,E,413 SERENITY CIR,,,,CRAMERTON,NC,28032
311813,E,411 SERENITY CIR,,,,CRAMERTON,NC,28032
311814,E,409 SERENITY CIR,,,,CRAMERTON,NC,28032
311835,E,505 TATES TRL,,,,CRAMERTON,NC,28032
311836,E,503 TATES TRL,,,,CRAMERTON,NC,28032
311837,E,501 TATES TRL,,,,CRAMERTON,NC,28032
311838,E,516 TATES TRL,,,,CRAMERTON,NC,28032
311839,E,518 TATES TRL,,,,CRAMERTON,NC,28032
311840,E,520 TATES TRL,,,,CRAMERTON,NC,28032
311841,E,524 TATES TRL,,,,CRAMERTON,NC,28032
311842,E,526 TATES TRL,,,,CRAMERTON,NC,28032
311843,E,528 TATES TRL,,,,CRAMERTON,NC,28032
311844,E,530 TATES TRL,,,,CRAMERTON,NC,28032
311845,E,532 TATES TRL,,,,CRAMERTON,NC,28032
311846,E,534 TATES TRL,,,,CRAMERTON,NC,28032
311847,E,536 TATES TRL,,,,CRAMERTON,NC,28032
311848,E,535 TATES TRL,,,,CRAMERTON,NC,28032
311849,E,533 TATES TRL,,,,CRAMERTON,NC,28032
311850,E,531 TATES TRL,,,,CRAMERTON,NC,28032
311851,E,600 BANTER LN,,,,CRAMERTON,NC,28032
311852,E,602 BANTER LN,,,,CRAMERTON,NC,28032
311853,E,604 BANTER LN,,,,CRAMERTON,NC,28032
311854,E,606 BANTER LN,,,,CRAMERTON,NC,28032
311855,E,608 BANTER LN,,,,CRAMERTON,NC,28032
311856,E,612 BANTER LN,,,,CRAMERTON,NC,28032
311857,E,613 BANTER LN,,,,CRAMERTON,NC,28032
311858,E,611 BANTER LN,,,,CRAMERTON,NC,28032
311859,E,609 BANTER LN,,,,CRAMERTON,NC,28032
311860,E,607 BANTER LN,,,,CRAMERTON,NC,28032
311861,E,605 BANTER LN,,,,CRAMERTON,NC,28032
311862,E,603 BANTER LN,,,,CRAMERTON,NC,28032
311863,E,515 TATES TRL,,,,CRAMERTON,NC,28032
311864,E,517 TATES TRL,,,,CRAMERTON,NC,28032
311951,E,116 HARRISON DR,,,,BELMONT,NC,28012
